{
"type": "FeatureCollection",
"name": "block1boundary",
"crs": { "type": "name", "properties": { "name": "urn:ogc:def:crs:OGC:1.3:CRS84" } },
"features": [
{ "type": "Feature", "properties": { "name": "Brookland Valley 18 Feb 26" }, "geometry": { "type": "MultiPolygon", "coordinates": [ [ [ [ 115.025946252135213, -33.795143048821018 ], [ 115.027077184998177, -33.797193173833747 ], [ 115.026342199358112, -33.797474472986075 ], [ 115.026026370421732, -33.79743284897669 ], [ 115.025900367378142, -33.797401131910462 ], [ 115.025782206833298, -33.797347690832936 ], [ 115.025752976604736, -33.797286581963732 ], [ 115.025891668994859, -33.797228954506338 ], [ 115.025340423163982, -33.796781585134127 ], [ 115.02528746455198, -33.7967863246135 ], [ 115.024593194090073, -33.796790371223864 ], [ 115.02481670224654, -33.795577946468882 ], [ 115.025946252135213, -33.795143048821018 ] ] ] ] } }
]
}
