{
"type": "FeatureCollection",
"name": "NDVI 101 102 104 307 Zones3_Rx",
"features": [
{ "type": "Feature", "properties": { "appName": "Brookland Valley 18 Feb 26", "rate": 1.0, "rateInt": 1, "unit": "l/ha", "zone": 1 }, "geometry": { "type": "MultiPolygon", "coordinates": [ [ [ [ 115.0266759, -33.7962126 ], [ 115.0266764, -33.7962124 ], [ 115.0261895, -33.7953078 ], [ 115.0262092, -33.7953005 ], [ 115.0262003, -33.795284 ], [ 115.0262397, -33.7952692 ], [ 115.0262309, -33.7952528 ], [ 115.0263294, -33.7952158 ], [ 115.0263382, -33.7952323 ], [ 115.0263776, -33.7952175 ], [ 115.0263865, -33.7952339 ], [ 115.0264259, -33.7952191 ], [ 115.0264347, -33.7952356 ], [ 115.0265726, -33.7951838 ], [ 115.0265638, -33.7951674 ], [ 115.0267214, -33.7951083 ], [ 115.0267302, -33.7951247 ], [ 115.0267696, -33.7951099 ], [ 115.0267785, -33.7951264 ], [ 115.0267982, -33.795119 ], [ 115.026807, -33.7951354 ], [ 115.0268267, -33.795128 ], [ 115.0268179, -33.7951116 ], [ 115.0269163, -33.7950746 ], [ 115.0269252, -33.7950911 ], [ 115.0269449, -33.7950837 ], [ 115.0269538, -33.7951001 ], [ 115.0269734, -33.7950927 ], [ 115.0269823, -33.7951092 ], [ 115.027002, -33.7951018 ], [ 115.0270109, -33.7951182 ], [ 115.02707, -33.7950961 ], [ 115.0270788, -33.7951125 ], [ 115.0271379, -33.7950903 ], [ 115.0271468, -33.7951068 ], [ 115.0271665, -33.7950994 ], [ 115.0271753, -33.7951158 ], [ 115.0271556, -33.7951232 ], [ 115.0271822, -33.7951726 ], [ 115.0271625, -33.79518 ], [ 115.0271713, -33.7951964 ], [ 115.0269743, -33.7952703 ], [ 115.0269832, -33.7952868 ], [ 115.0270226, -33.795272 ], [ 115.0270314, -33.7952884 ], [ 115.0270511, -33.795281 ], [ 115.02706, -33.7952975 ], [ 115.0270797, -33.7952901 ], [ 115.0270885, -33.7953065 ], [ 115.0271673, -33.795277 ], [ 115.0271762, -33.7952934 ], [ 115.0271959, -33.795286 ], [ 115.0272047, -33.7953025 ], [ 115.027776, -33.7950881 ], [ 115.0277849, -33.7951045 ], [ 115.0278243, -33.7950898 ], [ 115.0278774, -33.7951884 ], [ 115.0278971, -33.7951811 ], [ 115.0279059, -33.7951975 ], [ 115.0279209, -33.7951919 ], [ 115.0277701, -33.7949717 ], [ 115.0277623, -33.7949746 ], [ 115.0277534, -33.7949582 ], [ 115.0277593, -33.794956 ], [ 115.0277485, -33.7949403 ], [ 115.0277446, -33.7949418 ], [ 115.0277357, -33.7949253 ], [ 115.0277378, -33.7949245 ], [ 115.027727, -33.7949088 ], [ 115.0277072, -33.7949163 ], [ 115.0276983, -33.7948998 ], [ 115.0277162, -33.7948931 ], [ 115.0277024, -33.7948729 ], [ 115.0276317, -33.7948259 ], [ 115.0276146, -33.7948324 ], [ 115.0276058, -33.7948159 ], [ 115.0276127, -33.7948133 ], [ 115.0275176, -33.7947502 ], [ 115.0275024, -33.7947559 ], [ 115.0274892, -33.7947313 ], [ 115.0274606, -33.7947123 ], [ 115.0274562, -33.7947139 ], [ 115.0274523, -33.7947068 ], [ 115.0274225, -33.794687 ], [ 115.0274188, -33.7946884 ], [ 115.0274155, -33.7946823 ], [ 115.027397, -33.79467 ], [ 115.0273184, -33.794647 ], [ 115.0273045, -33.7946522 ], [ 115.0272986, -33.7946412 ], [ 115.0272889, -33.7946383 ], [ 115.027276, -33.7946431 ], [ 115.0272705, -33.7946329 ], [ 115.0272698, -33.7946327 ], [ 115.0263673, -33.7949784 ], [ 115.0263699, -33.7949832 ], [ 115.0262911, -33.7950127 ], [ 115.0262888, -33.7950085 ], [ 115.0261906, -33.795046 ], [ 115.0261926, -33.7950497 ], [ 115.0260941, -33.7950867 ], [ 115.0261029, -33.7951031 ], [ 115.0260833, -33.7951105 ], [ 115.0260744, -33.795094 ], [ 115.0260625, -33.7950985 ], [ 115.0260986, -33.7951641 ], [ 115.0261098, -33.7951598 ], [ 115.0261187, -33.7951763 ], [ 115.0261076, -33.7951804 ], [ 115.0261346, -33.7952296 ], [ 115.0261452, -33.7952256 ], [ 115.0261541, -33.7952421 ], [ 115.0261437, -33.795246 ], [ 115.0266759, -33.7962126 ] ], [ [ 115.026743, -33.7950606 ], [ 115.0267342, -33.7950441 ], [ 115.0269115, -33.7949776 ], [ 115.0269026, -33.7949612 ], [ 115.0269223, -33.7949538 ], [ 115.0269312, -33.7949702 ], [ 115.0269509, -33.7949628 ], [ 115.0269597, -33.7949793 ], [ 115.02694, -33.7949867 ], [ 115.0269489, -33.7950031 ], [ 115.0267322, -33.7950844 ], [ 115.0267233, -33.795068 ], [ 115.026743, -33.7950606 ] ], [ [ 115.02701, -33.7949407 ], [ 115.0270494, -33.7949259 ], [ 115.0270582, -33.7949423 ], [ 115.0270188, -33.7949571 ], [ 115.02701, -33.7949407 ] ] ], [ [ [ 115.0280002, -33.7953203 ], [ 115.0280008, -33.7953085 ], [ 115.0279475, -33.7952307 ], [ 115.0279965, -33.7953217 ], [ 115.0280002, -33.7953203 ] ] ], [ [ [ 115.0279964, -33.7954008 ], [ 115.0279999, -33.795328 ], [ 115.0279965, -33.7953217 ], [ 115.0279768, -33.7953291 ], [ 115.0279945, -33.795362 ], [ 115.0279748, -33.7953693 ], [ 115.0279925, -33.7954022 ], [ 115.0279964, -33.7954008 ] ] ], [ [ [ 115.0279926, -33.7954813 ], [ 115.0279935, -33.7954611 ], [ 115.0279796, -33.7954664 ], [ 115.0279885, -33.7954828 ], [ 115.0279926, -33.7954813 ] ] ], [ [ [ 115.0279903, -33.7955301 ], [ 115.0279916, -33.7955014 ], [ 115.0279776, -33.7955066 ], [ 115.0279903, -33.7955301 ] ] ], [ [ [ 115.0279884, -33.7955705 ], [ 115.0279897, -33.7955417 ], [ 115.0279757, -33.7955469 ], [ 115.0279884, -33.7955705 ] ] ], [ [ [ 115.0279864, -33.795611 ], [ 115.0279869, -33.795602 ], [ 115.0279825, -33.7956037 ], [ 115.0279864, -33.795611 ] ] ], [ [ [ 115.0279845, -33.7956514 ], [ 115.0279859, -33.7956222 ], [ 115.0279717, -33.7956275 ], [ 115.0279845, -33.7956514 ] ] ], [ [ [ 115.0279831, -33.7956825 ], [ 115.027984, -33.7956624 ], [ 115.0279697, -33.7956678 ], [ 115.0279785, -33.7956842 ], [ 115.0279831, -33.7956825 ] ] ], [ [ [ 115.027975, -33.7958535 ], [ 115.0279754, -33.7958436 ], [ 115.0279706, -33.7958454 ], [ 115.027975, -33.7958535 ] ] ], [ [ [ 115.027973, -33.7958939 ], [ 115.0279735, -33.7958838 ], [ 115.0279686, -33.7958857 ], [ 115.027973, -33.7958939 ] ] ], [ [ [ 115.0269825, -33.7967697 ], [ 115.0269972, -33.7967642 ], [ 115.0269618, -33.7966984 ], [ 115.0269815, -33.796691 ], [ 115.0269549, -33.7966417 ], [ 115.0269352, -33.796649 ], [ 115.0269263, -33.7966326 ], [ 115.0269104, -33.7966386 ], [ 115.0269825, -33.7967697 ] ] ], [ [ [ 115.0276692, -33.7966491 ], [ 115.0276521, -33.7966172 ], [ 115.0276915, -33.7966025 ], [ 115.0276826, -33.796586 ], [ 115.0277023, -33.7965786 ], [ 115.0276846, -33.7965457 ], [ 115.0276058, -33.7965753 ], [ 115.027597, -33.7965589 ], [ 115.0275773, -33.7965662 ], [ 115.0275684, -33.7965498 ], [ 115.0275487, -33.7965572 ], [ 115.0275399, -33.7965407 ], [ 115.0275005, -33.7965555 ], [ 115.0275093, -33.796572 ], [ 115.0274896, -33.7965794 ], [ 115.0275074, -33.7966123 ], [ 115.0274877, -33.7966197 ], [ 115.0274788, -33.7966032 ], [ 115.0274591, -33.7966106 ], [ 115.0274502, -33.7965942 ], [ 115.0274699, -33.7965868 ], [ 115.0274434, -33.7965374 ], [ 115.0274237, -33.7965448 ], [ 115.0274148, -33.7965284 ], [ 115.0273951, -33.7965358 ], [ 115.0273863, -33.7965193 ], [ 115.0273666, -33.7965267 ], [ 115.0273577, -33.7965103 ], [ 115.0272986, -33.7965324 ], [ 115.0272898, -33.796516 ], [ 115.0272504, -33.7965308 ], [ 115.0272592, -33.7965472 ], [ 115.0272395, -33.7965546 ], [ 115.0272307, -33.7965382 ], [ 115.0271125, -33.7965825 ], [ 115.0271213, -33.796599 ], [ 115.0270228, -33.7966359 ], [ 115.0270317, -33.7966524 ], [ 115.027012, -33.7966598 ], [ 115.0270297, -33.7966927 ], [ 115.0270494, -33.7966853 ], [ 115.0270583, -33.7967017 ], [ 115.027078, -33.7966943 ], [ 115.0270868, -33.7967108 ], [ 115.0271065, -33.7967034 ], [ 115.0271154, -33.7967198 ], [ 115.027076, -33.7967346 ], [ 115.0270848, -33.796751 ], [ 115.0270651, -33.7967584 ], [ 115.027074, -33.7967749 ], [ 115.0270937, -33.7967675 ], [ 115.0271025, -33.7967839 ], [ 115.0271222, -33.7967765 ], [ 115.0271399, -33.7968094 ], [ 115.0271202, -33.7968168 ], [ 115.0271379, -33.7968497 ], [ 115.0275098, -33.7967102 ], [ 115.0276692, -33.7966491 ] ], [ [ 115.0271154, -33.7967198 ], [ 115.0271548, -33.796705 ], [ 115.0271813, -33.7967544 ], [ 115.0271419, -33.7967692 ], [ 115.0271154, -33.7967198 ] ] ], [ [ [ 115.0279462, -33.7964599 ], [ 115.0279468, -33.7964473 ], [ 115.0279407, -33.7964496 ], [ 115.0279462, -33.7964599 ] ] ], [ [ [ 115.0279443, -33.7965003 ], [ 115.0279449, -33.7964876 ], [ 115.0279387, -33.7964899 ], [ 115.0279443, -33.7965003 ] ] ], [ [ [ 115.0279424, -33.7965407 ], [ 115.027944, -33.7965077 ], [ 115.0279279, -33.7965138 ], [ 115.0279424, -33.7965407 ] ] ], [ [ [ 115.0271, -33.7968673 ], [ 115.0270986, -33.7968645 ], [ 115.0270592, -33.7968793 ], [ 115.0270503, -33.7968628 ], [ 115.0270367, -33.796868 ], [ 115.0270474, -33.7968875 ], [ 115.0271, -33.7968673 ] ] ] ] } },
{ "type": "Feature", "properties": { "appName": "Brookland Valley 18 Feb 26", "rate": 2.0, "rateInt": 2, "unit": "l/ha", "zone": 2 }, "geometry": { "type": "MultiPolygon", "coordinates": [ [ [ [ 115.0269115, -33.7949776 ], [ 115.0267342, -33.7950441 ], [ 115.026743, -33.7950606 ], [ 115.0267233, -33.795068 ], [ 115.0267322, -33.7950844 ], [ 115.0269489, -33.7950031 ], [ 115.02694, -33.7949867 ], [ 115.0269597, -33.7949793 ], [ 115.0269509, -33.7949628 ], [ 115.0269312, -33.7949702 ], [ 115.0269223, -33.7949538 ], [ 115.0269026, -33.7949612 ], [ 115.0269115, -33.7949776 ] ] ], [ [ [ 115.0270582, -33.7949423 ], [ 115.0270494, -33.7949259 ], [ 115.02701, -33.7949407 ], [ 115.0270188, -33.7949571 ], [ 115.0270582, -33.7949423 ] ] ], [ [ [ 115.0269825, -33.7967697 ], [ 115.0270367, -33.796868 ], [ 115.0270503, -33.7968628 ], [ 115.0270592, -33.7968793 ], [ 115.0271379, -33.7968497 ], [ 115.0271202, -33.7968168 ], [ 115.0271399, -33.7968094 ], [ 115.0271222, -33.7967765 ], [ 115.0271025, -33.7967839 ], [ 115.0270937, -33.7967675 ], [ 115.027074, -33.7967749 ], [ 115.0270651, -33.7967584 ], [ 115.0270848, -33.796751 ], [ 115.027076, -33.7967346 ], [ 115.0271154, -33.7967198 ], [ 115.0271065, -33.7967034 ], [ 115.0270868, -33.7967108 ], [ 115.027078, -33.7966943 ], [ 115.0270583, -33.7967017 ], [ 115.0270494, -33.7966853 ], [ 115.0270297, -33.7966927 ], [ 115.027012, -33.7966598 ], [ 115.0270317, -33.7966524 ], [ 115.0270228, -33.7966359 ], [ 115.0271213, -33.796599 ], [ 115.0271125, -33.7965825 ], [ 115.0272307, -33.7965382 ], [ 115.0272395, -33.7965546 ], [ 115.0272592, -33.7965472 ], [ 115.0272504, -33.7965308 ], [ 115.0272898, -33.796516 ], [ 115.0272986, -33.7965324 ], [ 115.0273577, -33.7965103 ], [ 115.0273666, -33.7965267 ], [ 115.0273863, -33.7965193 ], [ 115.0273951, -33.7965358 ], [ 115.0274148, -33.7965284 ], [ 115.0274237, -33.7965448 ], [ 115.0274434, -33.7965374 ], [ 115.0274699, -33.7965868 ], [ 115.0274502, -33.7965942 ], [ 115.0274591, -33.7966106 ], [ 115.0274788, -33.7966032 ], [ 115.0274877, -33.7966197 ], [ 115.0275074, -33.7966123 ], [ 115.0274896, -33.7965794 ], [ 115.0275093, -33.796572 ], [ 115.0275005, -33.7965555 ], [ 115.0275399, -33.7965407 ], [ 115.0275487, -33.7965572 ], [ 115.0275684, -33.7965498 ], [ 115.0275773, -33.7965662 ], [ 115.027597, -33.7965589 ], [ 115.0276058, -33.7965753 ], [ 115.0276846, -33.7965457 ], [ 115.0277023, -33.7965786 ], [ 115.0276826, -33.796586 ], [ 115.0276915, -33.7966025 ], [ 115.0276521, -33.7966172 ], [ 115.0276692, -33.7966491 ], [ 115.0279422, -33.7965444 ], [ 115.0279424, -33.7965407 ], [ 115.0279279, -33.7965138 ], [ 115.027944, -33.7965077 ], [ 115.0279443, -33.7965003 ], [ 115.0279387, -33.7964899 ], [ 115.0279449, -33.7964876 ], [ 115.0279462, -33.7964599 ], [ 115.0279407, -33.7964496 ], [ 115.0279468, -33.7964473 ], [ 115.027973, -33.7958939 ], [ 115.0279686, -33.7958857 ], [ 115.0279735, -33.7958838 ], [ 115.027975, -33.7958535 ], [ 115.0279706, -33.7958454 ], [ 115.0279754, -33.7958436 ], [ 115.0279788, -33.7957727 ], [ 115.0279746, -33.7957648 ], [ 115.0279792, -33.795763 ], [ 115.0279807, -33.7957322 ], [ 115.0279766, -33.7957245 ], [ 115.0279811, -33.7957228 ], [ 115.0279826, -33.7956918 ], [ 115.0279697, -33.7956678 ], [ 115.027984, -33.7956624 ], [ 115.0279845, -33.7956514 ], [ 115.0279717, -33.7956275 ], [ 115.0279859, -33.7956222 ], [ 115.0279864, -33.795611 ], [ 115.0279825, -33.7956037 ], [ 115.0279869, -33.795602 ], [ 115.0279884, -33.7955705 ], [ 115.0279757, -33.7955469 ], [ 115.0279897, -33.7955417 ], [ 115.0279903, -33.7955301 ], [ 115.0279776, -33.7955066 ], [ 115.0279916, -33.7955014 ], [ 115.0279922, -33.7954897 ], [ 115.0279796, -33.7954664 ], [ 115.0279935, -33.7954611 ], [ 115.0279941, -33.7954493 ], [ 115.0279905, -33.7954425 ], [ 115.0279945, -33.795441 ], [ 115.027996, -33.7954088 ], [ 115.0279748, -33.7953693 ], [ 115.0279945, -33.795362 ], [ 115.0279768, -33.7953291 ], [ 115.0279965, -33.7953217 ], [ 115.0279475, -33.7952307 ], [ 115.0279209, -33.7951919 ], [ 115.0279059, -33.7951975 ], [ 115.0278971, -33.7951811 ], [ 115.0278774, -33.7951884 ], [ 115.0278243, -33.7950898 ], [ 115.0277849, -33.7951045 ], [ 115.027776, -33.7950881 ], [ 115.0272047, -33.7953025 ], [ 115.0271959, -33.795286 ], [ 115.0271762, -33.7952934 ], [ 115.0271673, -33.795277 ], [ 115.0270885, -33.7953065 ], [ 115.0270797, -33.7952901 ], [ 115.02706, -33.7952975 ], [ 115.0270511, -33.795281 ], [ 115.0270314, -33.7952884 ], [ 115.0270226, -33.795272 ], [ 115.0269832, -33.7952868 ], [ 115.0269743, -33.7952703 ], [ 115.0271713, -33.7951964 ], [ 115.0271625, -33.79518 ], [ 115.0271822, -33.7951726 ], [ 115.0271556, -33.7951232 ], [ 115.0271753, -33.7951158 ], [ 115.0271665, -33.7950994 ], [ 115.0271468, -33.7951068 ], [ 115.0271379, -33.7950903 ], [ 115.0270788, -33.7951125 ], [ 115.02707, -33.7950961 ], [ 115.0270109, -33.7951182 ], [ 115.027002, -33.7951018 ], [ 115.0269823, -33.7951092 ], [ 115.0269734, -33.7950927 ], [ 115.0269538, -33.7951001 ], [ 115.0269449, -33.7950837 ], [ 115.0269252, -33.7950911 ], [ 115.0269163, -33.7950746 ], [ 115.0268179, -33.7951116 ], [ 115.0268267, -33.795128 ], [ 115.026807, -33.7951354 ], [ 115.0267982, -33.795119 ], [ 115.0267785, -33.7951264 ], [ 115.0267696, -33.7951099 ], [ 115.0267302, -33.7951247 ], [ 115.0267214, -33.7951083 ], [ 115.0265638, -33.7951674 ], [ 115.0265726, -33.7951838 ], [ 115.0264347, -33.7952356 ], [ 115.0264259, -33.7952191 ], [ 115.0263865, -33.7952339 ], [ 115.0263776, -33.7952175 ], [ 115.0263382, -33.7952323 ], [ 115.0263294, -33.7952158 ], [ 115.0262309, -33.7952528 ], [ 115.0262397, -33.7952692 ], [ 115.0262003, -33.795284 ], [ 115.0262092, -33.7953005 ], [ 115.0261895, -33.7953078 ], [ 115.0267082, -33.7962714 ], [ 115.0269104, -33.7966386 ], [ 115.0269263, -33.7966326 ], [ 115.0269352, -33.796649 ], [ 115.0269549, -33.7966417 ], [ 115.0269815, -33.796691 ], [ 115.0269618, -33.7966984 ], [ 115.0269972, -33.7967642 ], [ 115.0269825, -33.7967697 ] ], [ [ 115.02768, -33.7960533 ], [ 115.0276623, -33.7960204 ], [ 115.0276426, -33.7960278 ], [ 115.0276514, -33.7960442 ], [ 115.0276317, -33.7960516 ], [ 115.0276406, -33.7960681 ], [ 115.0276012, -33.7960828 ], [ 115.02761, -33.7960993 ], [ 115.0276297, -33.7960919 ], [ 115.0276386, -33.7961083 ], [ 115.0276189, -33.7961157 ], [ 115.0276277, -33.7961322 ], [ 115.0275489, -33.7961617 ], [ 115.0275578, -33.7961782 ], [ 115.0275381, -33.7961856 ], [ 115.027547, -33.796202 ], [ 115.0274485, -33.796239 ], [ 115.0274396, -33.7962225 ], [ 115.0274199, -33.7962299 ], [ 115.0274022, -33.796197 ], [ 115.0273825, -33.7962044 ], [ 115.0273737, -33.796188 ], [ 115.027354, -33.7961954 ], [ 115.0273451, -33.7961789 ], [ 115.0273057, -33.7961937 ], [ 115.0273146, -33.7962102 ], [ 115.0272752, -33.7962249 ], [ 115.0272663, -33.7962085 ], [ 115.0272466, -33.7962159 ], [ 115.0272378, -33.7961994 ], [ 115.0270999, -33.7962512 ], [ 115.0270822, -33.7962183 ], [ 115.0270625, -33.7962257 ], [ 115.0270536, -33.7962092 ], [ 115.0270339, -33.7962166 ], [ 115.027025, -33.7962002 ], [ 115.0270054, -33.7962076 ], [ 115.0269965, -33.7961911 ], [ 115.0269768, -33.7961985 ], [ 115.0269679, -33.7961821 ], [ 115.0269285, -33.7961969 ], [ 115.0269374, -33.7962133 ], [ 115.0269177, -33.7962207 ], [ 115.0269354, -33.7962536 ], [ 115.0269551, -33.7962462 ], [ 115.026964, -33.7962626 ], [ 115.0269246, -33.7962774 ], [ 115.0269069, -33.7962445 ], [ 115.0268478, -33.7962667 ], [ 115.0268566, -33.7962832 ], [ 115.0268369, -33.7962906 ], [ 115.0268458, -33.796307 ], [ 115.0268261, -33.7963144 ], [ 115.0268349, -33.7963308 ], [ 115.0268152, -33.7963382 ], [ 115.0268064, -33.7963218 ], [ 115.0267867, -33.7963292 ], [ 115.0266981, -33.7961647 ], [ 115.0267178, -33.7961573 ], [ 115.026709, -33.7961409 ], [ 115.0266893, -33.7961483 ], [ 115.0265211, -33.7958358 ], [ 115.0265408, -33.7958284 ], [ 115.0265231, -33.7957955 ], [ 115.0265034, -33.7958029 ], [ 115.0263971, -33.7956055 ], [ 115.0264168, -33.7955982 ], [ 115.0263637, -33.7954995 ], [ 115.026344, -33.7955069 ], [ 115.0262466, -33.795326 ], [ 115.0262663, -33.7953186 ], [ 115.0262574, -33.7953021 ], [ 115.0262771, -33.7952947 ], [ 115.0262683, -33.7952783 ], [ 115.0263274, -33.7952561 ], [ 115.0263362, -33.7952726 ], [ 115.0263953, -33.7952504 ], [ 115.0264042, -33.7952668 ], [ 115.0264239, -33.7952594 ], [ 115.0264327, -33.7952759 ], [ 115.0264524, -33.7952685 ], [ 115.0264701, -33.7953014 ], [ 115.0265095, -33.7952866 ], [ 115.0265184, -33.795303 ], [ 115.0265381, -33.7952956 ], [ 115.0265469, -33.7953121 ], [ 115.0265666, -33.7953047 ], [ 115.0265932, -33.795354 ], [ 115.0265735, -33.7953614 ], [ 115.0266001, -33.7954108 ], [ 115.0266592, -33.7953886 ], [ 115.026668, -33.795405 ], [ 115.0267074, -33.7953903 ], [ 115.0267163, -33.7954067 ], [ 115.0267557, -33.7953919 ], [ 115.0267645, -33.7954084 ], [ 115.0268433, -33.7953788 ], [ 115.026861, -33.7954117 ], [ 115.0267034, -33.7954708 ], [ 115.0267211, -33.7955037 ], [ 115.0267014, -33.7955111 ], [ 115.0267103, -33.7955276 ], [ 115.0266315, -33.7955571 ], [ 115.0266049, -33.7955078 ], [ 115.0265852, -33.7955152 ], [ 115.0265764, -33.7954987 ], [ 115.026537, -33.7955135 ], [ 115.0265547, -33.7955464 ], [ 115.0265744, -33.795539 ], [ 115.0265921, -33.7955719 ], [ 115.0265527, -33.7955867 ], [ 115.0265439, -33.7955702 ], [ 115.0265045, -33.795585 ], [ 115.0265222, -33.7956179 ], [ 115.0265616, -33.7956031 ], [ 115.0265881, -33.7956525 ], [ 115.0265684, -33.7956599 ], [ 115.0265773, -33.7956763 ], [ 115.0265576, -33.7956837 ], [ 115.0265841, -33.795733 ], [ 115.0266038, -33.7957257 ], [ 115.0266127, -33.7957421 ], [ 115.0266324, -33.7957347 ], [ 115.0266412, -33.7957512 ], [ 115.0266609, -33.7957438 ], [ 115.0266698, -33.7957602 ], [ 115.0266895, -33.7957528 ], [ 115.0266983, -33.7957693 ], [ 115.026718, -33.7957619 ], [ 115.0267358, -33.7957948 ], [ 115.0267752, -33.79578 ], [ 115.0267486, -33.7957306 ], [ 115.0267289, -33.795738 ], [ 115.0267023, -33.7956887 ], [ 115.0268008, -33.7956517 ], [ 115.0268097, -33.7956682 ], [ 115.0268294, -33.7956608 ], [ 115.0268382, -33.7956772 ], [ 115.0268776, -33.7956625 ], [ 115.0268688, -33.795646 ], [ 115.0269279, -33.7956238 ], [ 115.0269456, -33.7956567 ], [ 115.0269653, -33.7956493 ], [ 115.0270007, -33.7957151 ], [ 115.0270204, -33.7957077 ], [ 115.0270292, -33.7957242 ], [ 115.0270489, -33.7957168 ], [ 115.0270666, -33.7957497 ], [ 115.0270076, -33.7957718 ], [ 115.0270164, -33.7957883 ], [ 115.0269967, -33.7957957 ], [ 115.0270144, -33.7958286 ], [ 115.0270341, -33.7958212 ], [ 115.027043, -33.7958376 ], [ 115.0270627, -33.7958302 ], [ 115.0270715, -33.7958467 ], [ 115.0270912, -33.7958393 ], [ 115.0271001, -33.7958557 ], [ 115.0272183, -33.7958114 ], [ 115.0272094, -33.7957949 ], [ 115.0272685, -33.7957728 ], [ 115.0272951, -33.7958221 ], [ 115.0272754, -33.7958295 ], [ 115.0272931, -33.7958624 ], [ 115.0273128, -33.795855 ], [ 115.0273216, -33.7958714 ], [ 115.0273413, -33.795864 ], [ 115.0273502, -33.7958805 ], [ 115.0273699, -33.7958731 ], [ 115.0273787, -33.7958895 ], [ 115.0273984, -33.7958822 ], [ 115.0274161, -33.795915 ], [ 115.0274358, -33.7959077 ], [ 115.0274447, -33.7959241 ], [ 115.0274841, -33.7959093 ], [ 115.0274929, -33.7959258 ], [ 115.027552, -33.7959036 ], [ 115.0275432, -33.7958871 ], [ 115.0275629, -33.7958798 ], [ 115.0275717, -33.7958962 ], [ 115.0275914, -33.7958888 ], [ 115.0276269, -33.7959546 ], [ 115.0276465, -33.7959472 ], [ 115.0276643, -33.7959801 ], [ 115.0277037, -33.7959653 ], [ 115.0277125, -33.7959818 ], [ 115.027811, -33.7959448 ], [ 115.0277844, -33.7958955 ], [ 115.0277647, -33.7959028 ], [ 115.0277559, -33.7958864 ], [ 115.0277165, -33.7959012 ], [ 115.0277076, -33.7958847 ], [ 115.0276879, -33.7958921 ], [ 115.0276791, -33.7958757 ], [ 115.0276594, -33.7958831 ], [ 115.0276505, -33.7958666 ], [ 115.0276702, -33.7958592 ], [ 115.0276614, -33.7958428 ], [ 115.0276811, -33.7958354 ], [ 115.0276722, -33.795819 ], [ 115.0277116, -33.7958042 ], [ 115.0277028, -33.7957877 ], [ 115.0277225, -33.7957803 ], [ 115.0277136, -33.7957639 ], [ 115.027753, -33.7957491 ], [ 115.0277264, -33.7956998 ], [ 115.0277067, -33.7957072 ], [ 115.027689, -33.7956743 ], [ 115.0277087, -33.7956669 ], [ 115.027691, -33.795634 ], [ 115.0276516, -33.7956488 ], [ 115.0276339, -33.7956159 ], [ 115.0276536, -33.7956085 ], [ 115.0276448, -33.795592 ], [ 115.0277039, -33.7955699 ], [ 115.027695, -33.7955534 ], [ 115.0277935, -33.7955164 ], [ 115.0277404, -33.7954178 ], [ 115.0277207, -33.7954252 ], [ 115.0277295, -33.7954416 ], [ 115.0276507, -33.7954712 ], [ 115.0276419, -33.7954547 ], [ 115.0276025, -33.7954695 ], [ 115.0275936, -33.7954531 ], [ 115.0275739, -33.7954605 ], [ 115.0275651, -33.795444 ], [ 115.0275257, -33.7954588 ], [ 115.0274814, -33.7953766 ], [ 115.0275208, -33.7953618 ], [ 115.027512, -33.7953453 ], [ 115.0275908, -33.7953158 ], [ 115.0275996, -33.7953322 ], [ 115.0276193, -33.7953248 ], [ 115.0276282, -33.7953413 ], [ 115.0276873, -33.7953191 ], [ 115.0276961, -33.7953355 ], [ 115.0277158, -33.7953281 ], [ 115.0277512, -33.7953939 ], [ 115.0277906, -33.7953791 ], [ 115.0277995, -33.7953956 ], [ 115.0278192, -33.7953882 ], [ 115.027828, -33.7954046 ], [ 115.0278477, -33.7953973 ], [ 115.0278566, -33.7954137 ], [ 115.0278763, -33.7954063 ], [ 115.0278674, -33.7953899 ], [ 115.0279068, -33.7953751 ], [ 115.0278891, -33.7953422 ], [ 115.0279088, -33.7953348 ], [ 115.0279442, -33.7954006 ], [ 115.0279245, -33.795408 ], [ 115.0279422, -33.7954409 ], [ 115.0279225, -33.7954483 ], [ 115.0279314, -33.7954647 ], [ 115.0279117, -33.7954721 ], [ 115.0279294, -33.795505 ], [ 115.0279097, -33.7955124 ], [ 115.0279451, -33.7955782 ], [ 115.0279254, -33.7955856 ], [ 115.027952, -33.7956349 ], [ 115.0279126, -33.7956497 ], [ 115.0279214, -33.7956661 ], [ 115.0279017, -33.7956735 ], [ 115.0279283, -33.7957229 ], [ 115.0279086, -33.7957302 ], [ 115.0279352, -33.7957796 ], [ 115.0279155, -33.795787 ], [ 115.0279332, -33.7958199 ], [ 115.0279135, -33.7958273 ], [ 115.0279312, -33.7958602 ], [ 115.0279115, -33.7958675 ], [ 115.027938, -33.7959169 ], [ 115.0279183, -33.7959243 ], [ 115.0279361, -33.7959572 ], [ 115.0279164, -33.7959646 ], [ 115.0279252, -33.795981 ], [ 115.0279055, -33.7959884 ], [ 115.0279232, -33.7960213 ], [ 115.0279035, -33.7960287 ], [ 115.0279389, -33.7960945 ], [ 115.0279192, -33.7961019 ], [ 115.0279369, -33.7961348 ], [ 115.0279172, -33.7961421 ], [ 115.0279261, -33.7961586 ], [ 115.0279064, -33.796166 ], [ 115.0279241, -33.7961989 ], [ 115.0279044, -33.7962063 ], [ 115.0279221, -33.7962392 ], [ 115.0279024, -33.7962466 ], [ 115.0279201, -33.7962794 ], [ 115.0279004, -33.7962868 ], [ 115.0279181, -33.7963197 ], [ 115.0278984, -33.7963271 ], [ 115.0279162, -33.79636 ], [ 115.0278965, -33.7963674 ], [ 115.0279053, -33.7963839 ], [ 115.0278068, -33.7964208 ], [ 115.0277891, -33.7963879 ], [ 115.0277694, -33.7963953 ], [ 115.0277606, -33.7963789 ], [ 115.0277212, -33.7963936 ], [ 115.0277123, -33.7963772 ], [ 115.0276532, -33.7963994 ], [ 115.0276444, -33.7963829 ], [ 115.027605, -33.7963977 ], [ 115.0275961, -33.7963813 ], [ 115.0275764, -33.7963887 ], [ 115.0275675, -33.7963722 ], [ 115.0276266, -33.79635 ], [ 115.0276355, -33.7963665 ], [ 115.0276946, -33.7963443 ], [ 115.027668, -33.796295 ], [ 115.0276483, -33.7963024 ], [ 115.0276218, -33.796253 ], [ 115.0276415, -33.7962456 ], [ 115.0276326, -33.7962292 ], [ 115.0276523, -33.7962218 ], [ 115.0276435, -33.7962053 ], [ 115.0276829, -33.7961906 ], [ 115.0276917, -33.796207 ], [ 115.0277114, -33.7961996 ], [ 115.0277203, -33.7962161 ], [ 115.0277991, -33.7961865 ], [ 115.0277902, -33.7961701 ], [ 115.0278099, -33.7961627 ], [ 115.0277922, -33.7961298 ], [ 115.0277725, -33.7961372 ], [ 115.0277636, -33.7961207 ], [ 115.0277439, -33.7961281 ], [ 115.0277351, -33.7961117 ], [ 115.0276957, -33.7961264 ], [ 115.0276868, -33.79611 ], [ 115.0276671, -33.7961174 ], [ 115.0276583, -33.7961009 ], [ 115.027678, -33.7960936 ], [ 115.0276603, -33.7960607 ], [ 115.02768, -33.7960533 ] ], [ [ 115.0278314, -33.7965104 ], [ 115.0278048, -33.7964611 ], [ 115.0278245, -33.7964537 ], [ 115.0278157, -33.7964373 ], [ 115.0278354, -33.7964299 ], [ 115.0278442, -33.7964463 ], [ 115.0278639, -33.7964389 ], [ 115.0278816, -33.7964718 ], [ 115.0278619, -33.7964792 ], [ 115.0278708, -33.7964956 ], [ 115.0278314, -33.7965104 ] ], [ [ 115.0267616, -33.7952711 ], [ 115.0267419, -33.7952785 ], [ 115.0267508, -33.7952949 ], [ 115.0266917, -33.7953171 ], [ 115.0266651, -33.7952677 ], [ 115.0267242, -33.7952456 ], [ 115.0267331, -33.795262 ], [ 115.0267528, -33.7952546 ], [ 115.0267616, -33.7952711 ] ], [ [ 115.0273889, -33.7952927 ], [ 115.0274283, -33.7952779 ], [ 115.0274371, -33.7952943 ], [ 115.0274174, -33.7953017 ], [ 115.0274263, -33.7953182 ], [ 115.0274066, -33.7953256 ], [ 115.0274243, -33.7953585 ], [ 115.0273849, -33.7953732 ], [ 115.0273584, -33.7953239 ], [ 115.0273387, -33.7953313 ], [ 115.0273298, -33.7953149 ], [ 115.0273692, -33.7953001 ], [ 115.0273603, -33.7952836 ], [ 115.02738, -33.7952762 ], [ 115.0273889, -33.7952927 ] ], [ [ 115.0274542, -33.7965136 ], [ 115.0274454, -33.7964971 ], [ 115.0274651, -33.7964897 ], [ 115.0274739, -33.7965062 ], [ 115.0274542, -33.7965136 ] ], [ [ 115.027958, -33.795514 ], [ 115.0279668, -33.7955305 ], [ 115.0279471, -33.7955379 ], [ 115.0279383, -33.7955214 ], [ 115.027958, -33.795514 ] ], [ [ 115.0269319, -33.7955433 ], [ 115.0270697, -33.7954915 ], [ 115.027052, -33.7954586 ], [ 115.0270914, -33.7954438 ], [ 115.0270826, -33.7954274 ], [ 115.0271023, -33.79542 ], [ 115.0271111, -33.7954364 ], [ 115.0271505, -33.7954217 ], [ 115.0271682, -33.7954546 ], [ 115.0271485, -33.7954619 ], [ 115.0271574, -33.7954784 ], [ 115.0271377, -33.7954858 ], [ 115.027182, -33.795568 ], [ 115.0271426, -33.7955828 ], [ 115.0271514, -33.7955992 ], [ 115.0270923, -33.7956214 ], [ 115.0270835, -33.795605 ], [ 115.0270638, -33.7956124 ], [ 115.0270549, -33.7955959 ], [ 115.0270352, -33.7956033 ], [ 115.0270175, -33.7955704 ], [ 115.0269781, -33.7955852 ], [ 115.0269693, -33.7955688 ], [ 115.0269496, -33.7955762 ], [ 115.0269319, -33.7955433 ] ], [ [ 115.0269319, -33.7955433 ], [ 115.0269122, -33.7955507 ], [ 115.0269033, -33.7955342 ], [ 115.026923, -33.7955268 ], [ 115.0269319, -33.7955433 ] ] ], [ [ [ 115.0278792, -33.7955436 ], [ 115.0278201, -33.7955658 ], [ 115.0278289, -33.7955822 ], [ 115.0278092, -33.7955896 ], [ 115.0278181, -33.7956061 ], [ 115.0278772, -33.7955839 ], [ 115.0278683, -33.7955674 ], [ 115.027888, -33.7955601 ], [ 115.0278792, -33.7955436 ] ] ], [ [ [ 115.0271709, -33.7959873 ], [ 115.0271906, -33.7959799 ], [ 115.0272083, -33.7960128 ], [ 115.0271886, -33.7960202 ], [ 115.0271975, -33.7960366 ], [ 115.0271384, -33.7960588 ], [ 115.0271295, -33.7960424 ], [ 115.0271098, -33.7960498 ], [ 115.0271275, -33.7960827 ], [ 115.0271078, -33.7960901 ], [ 115.0271167, -33.7961065 ], [ 115.027097, -33.7961139 ], [ 115.0271147, -33.7961468 ], [ 115.0272329, -33.7961024 ], [ 115.0272417, -33.7961189 ], [ 115.0273402, -33.7960819 ], [ 115.0273137, -33.7960326 ], [ 115.027294, -33.79604 ], [ 115.0272851, -33.7960235 ], [ 115.0272654, -33.7960309 ], [ 115.0272477, -33.795998 ], [ 115.0272674, -33.7959906 ], [ 115.0272586, -33.7959742 ], [ 115.0272979, -33.7959594 ], [ 115.0272802, -33.7959265 ], [ 115.0272999, -33.7959191 ], [ 115.0272822, -33.7958862 ], [ 115.0272625, -33.7958936 ], [ 115.0272537, -33.7958772 ], [ 115.0271749, -33.7959067 ], [ 115.0271837, -33.7959232 ], [ 115.027164, -33.7959306 ], [ 115.0271729, -33.795947 ], [ 115.0271532, -33.7959544 ], [ 115.0271709, -33.7959873 ] ] ], [ [ [ 115.027821, -33.7957434 ], [ 115.0277816, -33.7957582 ], [ 115.0277993, -33.795791 ], [ 115.027819, -33.7957837 ], [ 115.0278101, -33.7957672 ], [ 115.0278298, -33.7957598 ], [ 115.027821, -33.7957434 ] ] ], [ [ [ 115.0274327, -33.7961658 ], [ 115.0274239, -33.7961494 ], [ 115.0274042, -33.7961568 ], [ 115.027413, -33.7961732 ], [ 115.0274327, -33.7961658 ] ] ], [ [ [ 115.0271154, -33.7967198 ], [ 115.0271419, -33.7967692 ], [ 115.0271813, -33.7967544 ], [ 115.0271548, -33.796705 ], [ 115.0271154, -33.7967198 ] ] ] ] } },
{ "type": "Feature", "properties": { "appName": "Brookland Valley 18 Feb 26", "rate": 3.0, "rateInt": 3, "unit": "l/ha", "zone": 3 }, "geometry": { "type": "MultiPolygon", "coordinates": [ [ [ [ 115.0263274, -33.7952561 ], [ 115.0262683, -33.7952783 ], [ 115.0262771, -33.7952947 ], [ 115.0262574, -33.7953021 ], [ 115.0262663, -33.7953186 ], [ 115.0262466, -33.795326 ], [ 115.026344, -33.7955069 ], [ 115.0263637, -33.7954995 ], [ 115.0264168, -33.7955982 ], [ 115.0263971, -33.7956055 ], [ 115.0265034, -33.7958029 ], [ 115.0265231, -33.7957955 ], [ 115.0265408, -33.7958284 ], [ 115.0265211, -33.7958358 ], [ 115.026645, -33.796066 ], [ 115.0266647, -33.7960586 ], [ 115.0266736, -33.7960751 ], [ 115.0266539, -33.7960825 ], [ 115.0266716, -33.7961154 ], [ 115.0266913, -33.796108 ], [ 115.0267267, -33.7961738 ], [ 115.026707, -33.7961812 ], [ 115.0267867, -33.7963292 ], [ 115.0268064, -33.7963218 ], [ 115.0268152, -33.7963382 ], [ 115.0268349, -33.7963308 ], [ 115.0268261, -33.7963144 ], [ 115.0268458, -33.796307 ], [ 115.0268369, -33.7962906 ], [ 115.0268566, -33.7962832 ], [ 115.0268478, -33.7962667 ], [ 115.0269069, -33.7962445 ], [ 115.0269246, -33.7962774 ], [ 115.026964, -33.7962626 ], [ 115.0269551, -33.7962462 ], [ 115.0269354, -33.7962536 ], [ 115.0269177, -33.7962207 ], [ 115.0269374, -33.7962133 ], [ 115.0269285, -33.7961969 ], [ 115.0269679, -33.7961821 ], [ 115.0269768, -33.7961985 ], [ 115.0269965, -33.7961911 ], [ 115.0270054, -33.7962076 ], [ 115.027025, -33.7962002 ], [ 115.0270339, -33.7962166 ], [ 115.0270536, -33.7962092 ], [ 115.0270625, -33.7962257 ], [ 115.0270822, -33.7962183 ], [ 115.0270999, -33.7962512 ], [ 115.0272378, -33.7961994 ], [ 115.0272466, -33.7962159 ], [ 115.0272663, -33.7962085 ], [ 115.0272752, -33.7962249 ], [ 115.0273146, -33.7962102 ], [ 115.0273057, -33.7961937 ], [ 115.0273451, -33.7961789 ], [ 115.027354, -33.7961954 ], [ 115.0273737, -33.796188 ], [ 115.0273825, -33.7962044 ], [ 115.0274022, -33.796197 ], [ 115.0274199, -33.7962299 ], [ 115.0274396, -33.7962225 ], [ 115.0274485, -33.796239 ], [ 115.027547, -33.796202 ], [ 115.0275381, -33.7961856 ], [ 115.0275578, -33.7961782 ], [ 115.0275489, -33.7961617 ], [ 115.0276277, -33.7961322 ], [ 115.0276189, -33.7961157 ], [ 115.0276386, -33.7961083 ], [ 115.0276297, -33.7960919 ], [ 115.02761, -33.7960993 ], [ 115.0276012, -33.7960828 ], [ 115.0276406, -33.7960681 ], [ 115.0276317, -33.7960516 ], [ 115.0276514, -33.7960442 ], [ 115.0276426, -33.7960278 ], [ 115.0276623, -33.7960204 ], [ 115.02768, -33.7960533 ], [ 115.0276603, -33.7960607 ], [ 115.027678, -33.7960936 ], [ 115.0276583, -33.7961009 ], [ 115.0276671, -33.7961174 ], [ 115.0276868, -33.79611 ], [ 115.0276957, -33.7961264 ], [ 115.0277351, -33.7961117 ], [ 115.0277439, -33.7961281 ], [ 115.0277636, -33.7961207 ], [ 115.0277725, -33.7961372 ], [ 115.0277922, -33.7961298 ], [ 115.0278099, -33.7961627 ], [ 115.0277902, -33.7961701 ], [ 115.0277991, -33.7961865 ], [ 115.0277203, -33.7962161 ], [ 115.0277114, -33.7961996 ], [ 115.0276917, -33.796207 ], [ 115.0276829, -33.7961906 ], [ 115.0276435, -33.7962053 ], [ 115.0276523, -33.7962218 ], [ 115.0276326, -33.7962292 ], [ 115.0276415, -33.7962456 ], [ 115.0276218, -33.796253 ], [ 115.0276483, -33.7963024 ], [ 115.027668, -33.796295 ], [ 115.0276946, -33.7963443 ], [ 115.0276355, -33.7963665 ], [ 115.0276266, -33.79635 ], [ 115.0275675, -33.7963722 ], [ 115.0275764, -33.7963887 ], [ 115.0275961, -33.7963813 ], [ 115.027605, -33.7963977 ], [ 115.0276444, -33.7963829 ], [ 115.0276532, -33.7963994 ], [ 115.0277123, -33.7963772 ], [ 115.0277212, -33.7963936 ], [ 115.0277606, -33.7963789 ], [ 115.0277694, -33.7963953 ], [ 115.0277891, -33.7963879 ], [ 115.0278068, -33.7964208 ], [ 115.0279053, -33.7963839 ], [ 115.0278965, -33.7963674 ], [ 115.0279162, -33.79636 ], [ 115.0278984, -33.7963271 ], [ 115.0279181, -33.7963197 ], [ 115.0279004, -33.7962868 ], [ 115.0279201, -33.7962794 ], [ 115.0279024, -33.7962466 ], [ 115.0279221, -33.7962392 ], [ 115.0279044, -33.7962063 ], [ 115.0279241, -33.7961989 ], [ 115.0279064, -33.796166 ], [ 115.0279261, -33.7961586 ], [ 115.0279172, -33.7961421 ], [ 115.0279369, -33.7961348 ], [ 115.0279192, -33.7961019 ], [ 115.0279389, -33.7960945 ], [ 115.0279035, -33.7960287 ], [ 115.0279232, -33.7960213 ], [ 115.0279055, -33.7959884 ], [ 115.0279252, -33.795981 ], [ 115.0279164, -33.7959646 ], [ 115.0279361, -33.7959572 ], [ 115.0279183, -33.7959243 ], [ 115.027938, -33.7959169 ], [ 115.0279115, -33.7958675 ], [ 115.0279312, -33.7958602 ], [ 115.0279135, -33.7958273 ], [ 115.0279332, -33.7958199 ], [ 115.0279155, -33.795787 ], [ 115.0279352, -33.7957796 ], [ 115.0279086, -33.7957302 ], [ 115.0279283, -33.7957229 ], [ 115.0279017, -33.7956735 ], [ 115.0279214, -33.7956661 ], [ 115.0279126, -33.7956497 ], [ 115.0279323, -33.7956423 ], [ 115.0279234, -33.7956258 ], [ 115.0279431, -33.7956184 ], [ 115.0279166, -33.7955691 ], [ 115.0279363, -33.7955617 ], [ 115.0279097, -33.7955124 ], [ 115.0279294, -33.795505 ], [ 115.0279117, -33.7954721 ], [ 115.0279314, -33.7954647 ], [ 115.0279225, -33.7954483 ], [ 115.0279422, -33.7954409 ], [ 115.0279245, -33.795408 ], [ 115.0279442, -33.7954006 ], [ 115.0279088, -33.7953348 ], [ 115.0278891, -33.7953422 ], [ 115.0279068, -33.7953751 ], [ 115.0278674, -33.7953899 ], [ 115.0278763, -33.7954063 ], [ 115.0278566, -33.7954137 ], [ 115.0278477, -33.7953973 ], [ 115.027828, -33.7954046 ], [ 115.0278192, -33.7953882 ], [ 115.0277995, -33.7953956 ], [ 115.0277906, -33.7953791 ], [ 115.0277512, -33.7953939 ], [ 115.0277158, -33.7953281 ], [ 115.0276961, -33.7953355 ], [ 115.0276873, -33.7953191 ], [ 115.0276282, -33.7953413 ], [ 115.0276193, -33.7953248 ], [ 115.0275996, -33.7953322 ], [ 115.0275908, -33.7953158 ], [ 115.027512, -33.7953453 ], [ 115.0275208, -33.7953618 ], [ 115.0274814, -33.7953766 ], [ 115.0275257, -33.7954588 ], [ 115.0275651, -33.795444 ], [ 115.0275739, -33.7954605 ], [ 115.0275936, -33.7954531 ], [ 115.0276025, -33.7954695 ], [ 115.0276419, -33.7954547 ], [ 115.0276507, -33.7954712 ], [ 115.0277295, -33.7954416 ], [ 115.0277207, -33.7954252 ], [ 115.0277404, -33.7954178 ], [ 115.0277935, -33.7955164 ], [ 115.027695, -33.7955534 ], [ 115.0277039, -33.7955699 ], [ 115.0276448, -33.795592 ], [ 115.0276536, -33.7956085 ], [ 115.0276339, -33.7956159 ], [ 115.0276516, -33.7956488 ], [ 115.027691, -33.795634 ], [ 115.0277087, -33.7956669 ], [ 115.027689, -33.7956743 ], [ 115.0277067, -33.7957072 ], [ 115.0277264, -33.7956998 ], [ 115.027753, -33.7957491 ], [ 115.0277136, -33.7957639 ], [ 115.0277225, -33.7957803 ], [ 115.0277028, -33.7957877 ], [ 115.0277116, -33.7958042 ], [ 115.0276722, -33.795819 ], [ 115.0276811, -33.7958354 ], [ 115.0276614, -33.7958428 ], [ 115.0276702, -33.7958592 ], [ 115.0276505, -33.7958666 ], [ 115.0276594, -33.7958831 ], [ 115.0276791, -33.7958757 ], [ 115.0276879, -33.7958921 ], [ 115.0277076, -33.7958847 ], [ 115.0277165, -33.7959012 ], [ 115.0277559, -33.7958864 ], [ 115.0277647, -33.7959028 ], [ 115.0277844, -33.7958955 ], [ 115.027811, -33.7959448 ], [ 115.0277125, -33.7959818 ], [ 115.0277037, -33.7959653 ], [ 115.0276643, -33.7959801 ], [ 115.0276465, -33.7959472 ], [ 115.0276269, -33.7959546 ], [ 115.0275914, -33.7958888 ], [ 115.0275717, -33.7958962 ], [ 115.0275629, -33.7958798 ], [ 115.0275432, -33.7958871 ], [ 115.027552, -33.7959036 ], [ 115.0274929, -33.7959258 ], [ 115.0274841, -33.7959093 ], [ 115.0274447, -33.7959241 ], [ 115.0274358, -33.7959077 ], [ 115.0274161, -33.795915 ], [ 115.0273984, -33.7958822 ], [ 115.0273787, -33.7958895 ], [ 115.0273699, -33.7958731 ], [ 115.0273502, -33.7958805 ], [ 115.0273413, -33.795864 ], [ 115.0273216, -33.7958714 ], [ 115.0273128, -33.795855 ], [ 115.0272931, -33.7958624 ], [ 115.0272754, -33.7958295 ], [ 115.0272951, -33.7958221 ], [ 115.0272685, -33.7957728 ], [ 115.0272094, -33.7957949 ], [ 115.0272183, -33.7958114 ], [ 115.0271001, -33.7958557 ], [ 115.0270912, -33.7958393 ], [ 115.0270715, -33.7958467 ], [ 115.0270627, -33.7958302 ], [ 115.027043, -33.7958376 ], [ 115.0270341, -33.7958212 ], [ 115.0270144, -33.7958286 ], [ 115.0269967, -33.7957957 ], [ 115.0270164, -33.7957883 ], [ 115.0270076, -33.7957718 ], [ 115.0270666, -33.7957497 ], [ 115.0270489, -33.7957168 ], [ 115.0270292, -33.7957242 ], [ 115.0270204, -33.7957077 ], [ 115.0270007, -33.7957151 ], [ 115.0269653, -33.7956493 ], [ 115.0269456, -33.7956567 ], [ 115.0269279, -33.7956238 ], [ 115.0268688, -33.795646 ], [ 115.0268776, -33.7956625 ], [ 115.0268382, -33.7956772 ], [ 115.0268294, -33.7956608 ], [ 115.0268097, -33.7956682 ], [ 115.0268008, -33.7956517 ], [ 115.0267023, -33.7956887 ], [ 115.0267289, -33.795738 ], [ 115.0267486, -33.7957306 ], [ 115.0267752, -33.79578 ], [ 115.0267358, -33.7957948 ], [ 115.026718, -33.7957619 ], [ 115.0266983, -33.7957693 ], [ 115.0266895, -33.7957528 ], [ 115.0266698, -33.7957602 ], [ 115.0266609, -33.7957438 ], [ 115.0266412, -33.7957512 ], [ 115.0266324, -33.7957347 ], [ 115.0266127, -33.7957421 ], [ 115.0266038, -33.7957257 ], [ 115.0265841, -33.795733 ], [ 115.0265576, -33.7956837 ], [ 115.0265773, -33.7956763 ], [ 115.0265684, -33.7956599 ], [ 115.0265881, -33.7956525 ], [ 115.0265616, -33.7956031 ], [ 115.0265222, -33.7956179 ], [ 115.0265045, -33.795585 ], [ 115.0265439, -33.7955702 ], [ 115.0265527, -33.7955867 ], [ 115.0265921, -33.7955719 ], [ 115.0265744, -33.795539 ], [ 115.0265547, -33.7955464 ], [ 115.026537, -33.7955135 ], [ 115.0265764, -33.7954987 ], [ 115.0265852, -33.7955152 ], [ 115.0266049, -33.7955078 ], [ 115.0266315, -33.7955571 ], [ 115.0267103, -33.7955276 ], [ 115.0267014, -33.7955111 ], [ 115.0267211, -33.7955037 ], [ 115.0267034, -33.7954708 ], [ 115.026861, -33.7954117 ], [ 115.0268433, -33.7953788 ], [ 115.0267645, -33.7954084 ], [ 115.0267557, -33.7953919 ], [ 115.0267163, -33.7954067 ], [ 115.0267074, -33.7953903 ], [ 115.026668, -33.795405 ], [ 115.0266592, -33.7953886 ], [ 115.0266001, -33.7954108 ], [ 115.0265735, -33.7953614 ], [ 115.0265932, -33.795354 ], [ 115.0265666, -33.7953047 ], [ 115.0265469, -33.7953121 ], [ 115.0265381, -33.7952956 ], [ 115.0265184, -33.795303 ], [ 115.0265095, -33.7952866 ], [ 115.0264701, -33.7953014 ], [ 115.0264524, -33.7952685 ], [ 115.0264327, -33.7952759 ], [ 115.0264239, -33.7952594 ], [ 115.0264042, -33.7952668 ], [ 115.0263953, -33.7952504 ], [ 115.0263362, -33.7952726 ], [ 115.0263274, -33.7952561 ] ], [ [ 115.0271729, -33.795947 ], [ 115.027164, -33.7959306 ], [ 115.0271837, -33.7959232 ], [ 115.0271749, -33.7959067 ], [ 115.0272537, -33.7958772 ], [ 115.0272625, -33.7958936 ], [ 115.0272822, -33.7958862 ], [ 115.0272999, -33.7959191 ], [ 115.0272802, -33.7959265 ], [ 115.0272979, -33.7959594 ], [ 115.0272586, -33.7959742 ], [ 115.0272674, -33.7959906 ], [ 115.0272477, -33.795998 ], [ 115.0272654, -33.7960309 ], [ 115.0272851, -33.7960235 ], [ 115.027294, -33.79604 ], [ 115.0273137, -33.7960326 ], [ 115.0273402, -33.7960819 ], [ 115.0272417, -33.7961189 ], [ 115.0272329, -33.7961024 ], [ 115.0271147, -33.7961468 ], [ 115.027097, -33.7961139 ], [ 115.0271167, -33.7961065 ], [ 115.0271078, -33.7960901 ], [ 115.0271275, -33.7960827 ], [ 115.0271098, -33.7960498 ], [ 115.0271295, -33.7960424 ], [ 115.0271384, -33.7960588 ], [ 115.0271975, -33.7960366 ], [ 115.0271886, -33.7960202 ], [ 115.0272083, -33.7960128 ], [ 115.0271906, -33.7959799 ], [ 115.0271709, -33.7959873 ], [ 115.0271532, -33.7959544 ], [ 115.0271729, -33.795947 ] ], [ [ 115.027821, -33.7957434 ], [ 115.0278298, -33.7957598 ], [ 115.0278101, -33.7957672 ], [ 115.027819, -33.7957837 ], [ 115.0277993, -33.795791 ], [ 115.0277816, -33.7957582 ], [ 115.027821, -33.7957434 ] ], [ [ 115.0278772, -33.7955839 ], [ 115.0278181, -33.7956061 ], [ 115.0278092, -33.7955896 ], [ 115.0278289, -33.7955822 ], [ 115.0278201, -33.7955658 ], [ 115.0278792, -33.7955436 ], [ 115.027888, -33.7955601 ], [ 115.0278683, -33.7955674 ], [ 115.0278772, -33.7955839 ] ], [ [ 115.0274042, -33.7961568 ], [ 115.0274239, -33.7961494 ], [ 115.0274327, -33.7961658 ], [ 115.027413, -33.7961732 ], [ 115.0274042, -33.7961568 ] ] ], [ [ [ 115.0267242, -33.7952456 ], [ 115.0266651, -33.7952677 ], [ 115.0266917, -33.7953171 ], [ 115.0267508, -33.7952949 ], [ 115.0267419, -33.7952785 ], [ 115.0267616, -33.7952711 ], [ 115.0267528, -33.7952546 ], [ 115.0267331, -33.795262 ], [ 115.0267242, -33.7952456 ] ] ], [ [ [ 115.0273889, -33.7952927 ], [ 115.02738, -33.7952762 ], [ 115.0273603, -33.7952836 ], [ 115.0273692, -33.7953001 ], [ 115.0273298, -33.7953149 ], [ 115.0273387, -33.7953313 ], [ 115.0273584, -33.7953239 ], [ 115.0273849, -33.7953732 ], [ 115.0274243, -33.7953585 ], [ 115.0274066, -33.7953256 ], [ 115.0274263, -33.7953182 ], [ 115.0274174, -33.7953017 ], [ 115.0274371, -33.7952943 ], [ 115.0274283, -33.7952779 ], [ 115.0273889, -33.7952927 ] ] ], [ [ [ 115.0271682, -33.7954546 ], [ 115.0271505, -33.7954217 ], [ 115.0271111, -33.7954364 ], [ 115.0271023, -33.79542 ], [ 115.0270826, -33.7954274 ], [ 115.0270914, -33.7954438 ], [ 115.027052, -33.7954586 ], [ 115.0270697, -33.7954915 ], [ 115.0269319, -33.7955433 ], [ 115.0269496, -33.7955762 ], [ 115.0269693, -33.7955688 ], [ 115.0269781, -33.7955852 ], [ 115.0270175, -33.7955704 ], [ 115.0270352, -33.7956033 ], [ 115.0270549, -33.7955959 ], [ 115.0270638, -33.7956124 ], [ 115.0270835, -33.795605 ], [ 115.0270923, -33.7956214 ], [ 115.0271514, -33.7955992 ], [ 115.0271426, -33.7955828 ], [ 115.027182, -33.795568 ], [ 115.0271377, -33.7954858 ], [ 115.0271574, -33.7954784 ], [ 115.0271485, -33.7954619 ], [ 115.0271682, -33.7954546 ] ] ], [ [ [ 115.0269319, -33.7955433 ], [ 115.026923, -33.7955268 ], [ 115.0269033, -33.7955342 ], [ 115.0269122, -33.7955507 ], [ 115.0269319, -33.7955433 ] ] ], [ [ [ 115.0278048, -33.7964611 ], [ 115.0278314, -33.7965104 ], [ 115.0278708, -33.7964956 ], [ 115.0278619, -33.7964792 ], [ 115.0278816, -33.7964718 ], [ 115.0278639, -33.7964389 ], [ 115.0278442, -33.7964463 ], [ 115.0278354, -33.7964299 ], [ 115.0278157, -33.7964373 ], [ 115.0278245, -33.7964537 ], [ 115.0278048, -33.7964611 ] ] ] ] } }
]
}
