{
"type": "FeatureCollection",
"name": "block6rx",
"crs": { "type": "name", "properties": { "name": "urn:ogc:def:crs:OGC:1.3:CRS84" } },
"features": [
{ "type": "Feature", "properties": { "appName": "Brindle 17 Jan 2026", "rate": 1.0, "rateInt": 1, "unit": "l/ha", "zone": 1 }, "geometry": { "type": "MultiPolygon", "coordinates": [ [ [ [ 115.028451164550461, -33.78851057960533 ], [ 115.028432026697459, -33.788510530313175 ], [ 115.028432095514702, -33.78849190386476 ], [ 115.028451164550461, -33.78851057960533 ] ] ], [ [ [ 115.028256658257419, -33.788631788649653 ], [ 115.028198352004594, -33.788631638367605 ], [ 115.028198442005831, -33.788607296566866 ], [ 115.028227595123766, -33.788607371711016 ], [ 115.028227685116349, -33.788583029909887 ], [ 115.028256838226426, -33.78858310504684 ], [ 115.028256658257419, -33.788631788649653 ] ] ], [ [ [ 115.02831334501478, -33.789070091324341 ], [ 115.028284191738805, -33.789070016194835 ], [ 115.028284371705908, -33.7890213325947 ], [ 115.02831352496537, -33.789021407723574 ], [ 115.02831334501478, -33.789070091324341 ] ] ], [ [ [ 115.028662734969927, -33.789192701360072 ], [ 115.02866264509106, -33.78921704316366 ], [ 115.028779258416606, -33.789217343289522 ], [ 115.028779348262489, -33.789193001484684 ], [ 115.028925114887272, -33.789193376485365 ], [ 115.028924845472289, -33.789266401904392 ], [ 115.028720772027057, -33.789265876848532 ], [ 115.028720682163481, -33.789290218652475 ], [ 115.028691528807528, -33.789290143616611 ], [ 115.028691259189571, -33.78936316902692 ], [ 115.02872041257028, -33.789363244063743 ], [ 115.028720322705055, -33.789387585867303 ], [ 115.028866089655978, -33.789387960949568 ], [ 115.028865999831652, -33.789412302754641 ], [ 115.028895153231289, -33.789412377750736 ], [ 115.028894973597886, -33.789461061361209 ], [ 115.028924127014477, -33.789461136351051 ], [ 115.0289240372054, -33.789485478156465 ], [ 115.028894883780595, -33.78948540316631 ], [ 115.028894614326248, -33.78955842858106 ], [ 115.028952921225837, -33.78955857855636 ], [ 115.028953011027852, -33.789534236750917 ], [ 115.029040471355472, -33.789534461661248 ], [ 115.029040561132305, -33.789510119854739 ], [ 115.029069714567413, -33.789510194810752 ], [ 115.029069983870755, -33.78943716938975 ], [ 115.029040830460403, -33.789437094434689 ], [ 115.02904092023563, -33.789412752627825 ], [ 115.029011766833946, -33.789412677666192 ], [ 115.029012036181939, -33.789339652245985 ], [ 115.029099496313904, -33.789339877107359 ], [ 115.029099586071013, -33.789315535299494 ], [ 115.029128739440878, -33.789315610239193 ], [ 115.029128021438822, -33.789510344702094 ], [ 115.029157174875138, -33.789510419637416 ], [ 115.029156815897423, -33.789607786867919 ], [ 115.0289527416206, -33.789607262167003 ], [ 115.028952651817377, -33.78963160397219 ], [ 115.028865191394317, -33.78963137899602 ], [ 115.028865281222309, -33.7896070371918 ], [ 115.028806974292152, -33.789606887173854 ], [ 115.028806884447661, -33.789631228977463 ], [ 115.028777730974937, -33.789631153957842 ], [ 115.028777641121778, -33.789655495761032 ], [ 115.028690180681266, -33.789655270659857 ], [ 115.028690630066791, -33.789533561647758 ], [ 115.028719783505295, -33.789533636686784 ], [ 115.028719873372935, -33.789509294883764 ], [ 115.028749026803581, -33.789509369915592 ], [ 115.028749116662581, -33.789485028112161 ], [ 115.028719963240164, -33.78948495308066 ], [ 115.028720053107023, -33.789460611277462 ], [ 115.028661746279951, -33.789460461194416 ], [ 115.028661836162883, -33.789436119391759 ], [ 115.0286326827582, -33.789436044340192 ], [ 115.028632952429348, -33.789363018932619 ], [ 115.028603799049861, -33.789362943875126 ], [ 115.028603978845084, -33.789314260270245 ], [ 115.028574825482494, -33.789314185206493 ], [ 115.028575005292623, -33.789265501601882 ], [ 115.028604158638714, -33.789265576664988 ], [ 115.028604248534904, -33.789241234862224 ], [ 115.028633401873151, -33.789241309918147 ], [ 115.02863358164781, -33.789192626311703 ], [ 115.028604428326091, -33.78919255125642 ], [ 115.028604698009843, -33.78911952584702 ], [ 115.028633851306793, -33.789119600901351 ], [ 115.028633941192325, -33.789095259097707 ], [ 115.02869224777092, -33.789095409185045 ], [ 115.028692157901901, -33.789119750989322 ], [ 115.028721311200101, -33.789119826022969 ], [ 115.028721131477369, -33.789168509631864 ], [ 115.028691978162684, -33.78916843459757 ], [ 115.028691888292471, -33.789192776401563 ], [ 115.028662734969927, -33.789192701360072 ] ] ], [ [ [ 115.028575185101147, -33.789216817996902 ], [ 115.028575005292623, -33.789265501601882 ], [ 115.028545851946959, -33.78926542653187 ], [ 115.028545762033843, -33.789289768333909 ], [ 115.028458301974482, -33.78928954308158 ], [ 115.02845839191238, -33.789265201280507 ], [ 115.028429238568336, -33.789265126182919 ], [ 115.028429508404272, -33.789192100780056 ], [ 115.028458661723562, -33.789192175876671 ], [ 115.028458751659826, -33.789167834075208 ], [ 115.028546211595383, -33.789168059322783 ], [ 115.028546121683874, -33.789192401125213 ], [ 115.028604428326091, -33.78919255125642 ], [ 115.028604338430711, -33.789216893059368 ], [ 115.028575185101147, -33.789216817996902 ] ] ], [ [ [ 115.029531185894442, -33.789340986078734 ], [ 115.029507643644578, -33.789340925640296 ], [ 115.029507912567965, -33.7892679002031 ], [ 115.029531204392271, -33.789267959997929 ], [ 115.029531185894442, -33.789340986078734 ] ] ], [ [ [ 115.028137615121423, -33.789288716625713 ], [ 115.028225075167398, -33.789288942105472 ], [ 115.028224805153243, -33.789361967500575 ], [ 115.028166498405994, -33.789361817185728 ], [ 115.028166588427624, -33.789337475388088 ], [ 115.02813743506286, -33.789337400220646 ], [ 115.028137615121423, -33.789288716625713 ] ] ], [ [ [ 115.028632413083429, -33.789509069746941 ], [ 115.028603259654417, -33.789508994687552 ], [ 115.028603079852701, -33.789557678290954 ], [ 115.028573926407574, -33.78955760322404 ], [ 115.028573836497841, -33.789581945025297 ], [ 115.028544683044871, -33.789581869951178 ], [ 115.028544772962846, -33.789557528150247 ], [ 115.028486466074597, -33.78955737798195 ], [ 115.028486556008673, -33.78953303618156 ], [ 115.028457402573437, -33.789532961087403 ], [ 115.028457492515358, -33.789508619287226 ], [ 115.028428339088762, -33.789508544186489 ], [ 115.028428429038541, -33.789484202386546 ], [ 115.028457582456895, -33.789484277486963 ], [ 115.028457672398005, -33.789459935686615 ], [ 115.028486825808486, -33.789460010779834 ], [ 115.028486735875632, -33.789484352580502 ], [ 115.028632502975441, -33.789484727944789 ], [ 115.028632413083429, -33.789509069746941 ] ] ], [ [ [ 115.028194751623289, -33.789605310321129 ], [ 115.028194931657751, -33.789556626726963 ], [ 115.028369852303015, -33.789557077562655 ], [ 115.028369672367589, -33.78960576116063 ], [ 115.028194751623289, -33.789605310321129 ] ] ], [ [ [ 115.029126895202523, -33.789815785038115 ], [ 115.029010280607508, -33.789815604429066 ], [ 115.029010330249733, -33.789802146559929 ], [ 115.029039483783492, -33.789802221526621 ], [ 115.029039663345685, -33.78975353791558 ], [ 115.029097970381372, -33.78975368782703 ], [ 115.029098239672095, -33.789680662407847 ], [ 115.029156546659863, -33.789680812289838 ], [ 115.029156367166152, -33.789729495903991 ], [ 115.029127213655542, -33.789729420965799 ], [ 115.029126895202523, -33.789815785038115 ] ] ], [ [ [ 115.028719064549605, -33.789728371107586 ], [ 115.028718884806608, -33.789777054711855 ], [ 115.028689731285581, -33.789776979669668 ], [ 115.028689641405236, -33.789801321471344 ], [ 115.028660487876337, -33.789801246421931 ], [ 115.028660577764953, -33.789776904620574 ], [ 115.028631424244722, -33.789776829564588 ], [ 115.02863160403723, -33.789728145962208 ], [ 115.028719064549605, -33.789728371107586 ] ] ], [ [ [ 115.028281439517301, -33.78981447562272 ], [ 115.028164824963625, -33.789814295013741 ], [ 115.028164967976153, -33.789775627731544 ], [ 115.028194121489918, -33.789775702897799 ], [ 115.028194211510169, -33.789751361101409 ], [ 115.028223365016075, -33.78975143626046 ], [ 115.028223275004052, -33.789775778057169 ], [ 115.028252428518599, -33.789775853209633 ], [ 115.028252338514449, -33.789800195006578 ], [ 115.028281492037678, -33.789800270152469 ], [ 115.028281439517301, -33.78981447562272 ] ] ], [ [ [ 115.029505892677122, -33.789816372017576 ], [ 115.029505940378513, -33.789803420056494 ], [ 115.029531068741534, -33.789803484571692 ], [ 115.029531065467211, -33.789816411004409 ], [ 115.029505892677122, -33.789816372017576 ] ] ] ] } },
{ "type": "Feature", "properties": { "appName": "Brindle 17 Jan 2026", "rate": 2.0, "rateInt": 2, "unit": "l/ha", "zone": 2 }, "geometry": { "type": "MultiPolygon", "coordinates": [ [ [ [ 115.028142247973562, -33.788217679176007 ], [ 115.028228734622118, -33.788299144299408 ], [ 115.02822867500781, -33.788315270091232 ], [ 115.028245901543727, -33.78831531448764 ], [ 115.028257786757706, -33.788326509630942 ], [ 115.028257738047259, -33.788339687027175 ], [ 115.028271814923002, -33.788339723303061 ], [ 115.028286838911498, -33.788353874979613 ], [ 115.028286801103221, -33.788364103956773 ], [ 115.028297728297005, -33.788364132113507 ], [ 115.028315891083594, -33.788381240345537 ], [ 115.028315864175681, -33.788388520879998 ], [ 115.028323641665693, -33.788388540918945 ], [ 115.028344943274021, -33.788408605728719 ], [ 115.028344927264655, -33.788412937796892 ], [ 115.028349555029109, -33.788412949719422 ], [ 115.028373995482781, -33.788435971129175 ], [ 115.028373990370142, -33.788437354707426 ], [ 115.028375468387225, -33.788437358514912 ], [ 115.028399879183951, -33.788460351989634 ], [ 115.028432095514532, -33.788491903864596 ], [ 115.028432026697459, -33.788510530313175 ], [ 115.028451164550461, -33.78851057960533 ], [ 115.028461143775289, -33.788520353010554 ], [ 115.028461089860329, -33.788534947204894 ], [ 115.028476084740348, -33.788534985821087 ], [ 115.028519240353461, -33.788577251357985 ], [ 115.028519216235551, -33.788583780969248 ], [ 115.028525925111651, -33.788583798244318 ], [ 115.028541128982852, -33.788598688538599 ], [ 115.028548288873225, -33.788605645853664 ], [ 115.028548279447946, -33.788608197841903 ], [ 115.028550922169813, -33.788608204646202 ], [ 115.028635436398503, -33.788690327707549 ], [ 115.028635379305484, -33.788705790226985 ], [ 115.028577072992633, -33.788705640122203 ], [ 115.028576983097068, -33.788729981926693 ], [ 115.028547829933004, -33.788729906863644 ], [ 115.028547740028799, -33.788754248667715 ], [ 115.028576893201119, -33.788754323731077 ], [ 115.028576803304773, -33.788778665535382 ], [ 115.028605956485762, -33.788778740592143 ], [ 115.02860586659726, -33.788803082396676 ], [ 115.028635019786904, -33.788803157446871 ], [ 115.028634929906261, -33.788827499251617 ], [ 115.028664083104559, -33.788827574295247 ], [ 115.028664442591747, -33.788730207074451 ], [ 115.028676508887614, -33.788730238129695 ], [ 115.028715824475228, -33.788768441358471 ], [ 115.028722583989449, -33.788775037997915 ], [ 115.02872256921377, -33.788779040750349 ], [ 115.028726696455337, -33.788779051371328 ], [ 115.028751632810568, -33.788803386869269 ], [ 115.028751632549572, -33.78880345757878 ], [ 115.028751705458177, -33.788803457766384 ], [ 115.028809730508996, -33.78886008466683 ], [ 115.02880957960636, -33.78890097482941 ], [ 115.028780426381275, -33.788900899819282 ], [ 115.028780156857053, -33.788973925236881 ], [ 115.028896769858918, -33.788974225239805 ], [ 115.028896859667725, -33.788949883432778 ], [ 115.028902727108942, -33.788949898524045 ], [ 115.02892593145836, -33.788972037379366 ], [ 115.028925923110393, -33.788974300223316 ], [ 115.028928309641074, -33.78897430636102 ], [ 115.028979474687901, -33.789023122018307 ], [ 115.028896590240123, -33.789022908853624 ], [ 115.028896410619666, -33.789071592467046 ], [ 115.029013023760101, -33.789071892364781 ], [ 115.029012933982287, -33.789096234172611 ], [ 115.029053453529187, -33.789096338306578 ], [ 115.029057281868745, -33.789100188883843 ], [ 115.029333602030604, -33.789102001180559 ], [ 115.02933335117919, -33.789170083759686 ], [ 115.029362504502785, -33.789170158642335 ], [ 115.029362235460454, -33.789243184075872 ], [ 115.029333082112075, -33.789243109192277 ], [ 115.02933281304135, -33.789316134624052 ], [ 115.029391119787988, -33.78931628438626 ], [ 115.029391209462119, -33.78929194257514 ], [ 115.029420362827793, -33.78929201744559 ], [ 115.029420452493284, -33.789267675634051 ], [ 115.029449605851099, -33.789267750497288 ], [ 115.02944978516436, -33.789219066873315 ], [ 115.02947893850606, -33.789219141729028 ], [ 115.02947902815383, -33.789194799916586 ], [ 115.029508181487699, -33.789194874765094 ], [ 115.02950836076549, -33.789146191139295 ], [ 115.029531235221981, -33.789146249861496 ], [ 115.029531204392271, -33.789267959997929 ], [ 115.029507912567965, -33.7892679002031 ], [ 115.029507643644578, -33.789340925640296 ], [ 115.029531185894442, -33.789340986078734 ], [ 115.029531068741534, -33.789803484571692 ], [ 115.029505940378513, -33.789803420056494 ], [ 115.029505892677122, -33.789816372017576 ], [ 115.029272663454861, -33.789816010799434 ], [ 115.029272801783321, -33.789778479204088 ], [ 115.029331108841987, -33.789778629005909 ], [ 115.029331198540348, -33.789754287197162 ], [ 115.02938950558412, -33.789754436970782 ], [ 115.029389415902301, -33.78977877878016 ], [ 115.029418569433062, -33.789778853656941 ], [ 115.029418748779804, -33.789730170037473 ], [ 115.02944790229445, -33.789730244906728 ], [ 115.029448260950105, -33.789632877665404 ], [ 115.029477414432137, -33.789632952526517 ], [ 115.029477593741049, -33.789584268904662 ], [ 115.02950674720698, -33.78958434375825 ], [ 115.029506926497746, -33.789535660135392 ], [ 115.029477773048313, -33.789535585282437 ], [ 115.029477862701327, -33.789511243471189 ], [ 115.029448709260564, -33.789511168611682 ], [ 115.02944879892145, -33.789486826800662 ], [ 115.029419645489341, -33.789486751934561 ], [ 115.029420004161807, -33.789389384690807 ], [ 115.029390850763107, -33.789389309819093 ], [ 115.029390940438475, -33.789364968008236 ], [ 115.029361787048444, -33.78936489312995 ], [ 115.029361876731642, -33.78934055131932 ], [ 115.029216109828852, -33.789340176826038 ], [ 115.029215930379493, -33.789388860444049 ], [ 115.029186776983636, -33.789388785524075 ], [ 115.029187764025906, -33.789121025623999 ], [ 115.029158610721254, -33.789120950700628 ], [ 115.029157174875138, -33.789510419637416 ], [ 115.029128021438822, -33.789510344702094 ], [ 115.029128739440878, -33.789315610239193 ], [ 115.029099586071013, -33.789315535299494 ], [ 115.029099496313904, -33.789339877107359 ], [ 115.029012036181939, -33.789339652245985 ], [ 115.029011766833946, -33.789412677666192 ], [ 115.02904092023563, -33.789412752627825 ], [ 115.029040830460403, -33.789437094434689 ], [ 115.029069983870755, -33.78943716938975 ], [ 115.029069714567413, -33.789510194810752 ], [ 115.029040561132305, -33.789510119854739 ], [ 115.029040471355472, -33.789534461661248 ], [ 115.028953011027852, -33.789534236750917 ], [ 115.028952921225837, -33.78955857855636 ], [ 115.028894614326248, -33.78955842858106 ], [ 115.028894883780595, -33.78948540316631 ], [ 115.0289240372054, -33.789485478156465 ], [ 115.028924127014477, -33.789461136351051 ], [ 115.028894973597886, -33.789461061361209 ], [ 115.028895153231289, -33.789412377750736 ], [ 115.028865999831652, -33.789412302754641 ], [ 115.028866089655978, -33.789387960949568 ], [ 115.028720322705055, -33.789387585867303 ], [ 115.02872041257028, -33.789363244063743 ], [ 115.028691259189571, -33.78936316902692 ], [ 115.028691528807528, -33.789290143616611 ], [ 115.028720682163481, -33.789290218652475 ], [ 115.028720772027057, -33.789265876848532 ], [ 115.028924845472289, -33.789266401904392 ], [ 115.028925114887272, -33.789193376485365 ], [ 115.028779348262489, -33.789193001484684 ], [ 115.028779258416606, -33.789217343289522 ], [ 115.02866264509106, -33.78921704316366 ], [ 115.028662734969927, -33.789192701360072 ], [ 115.028691888292471, -33.789192776401563 ], [ 115.028691978162684, -33.78916843459757 ], [ 115.028721131477369, -33.789168509631864 ], [ 115.028721311200101, -33.789119826022969 ], [ 115.028692157901901, -33.789119750989322 ], [ 115.02869224777092, -33.789095409185045 ], [ 115.028633941192325, -33.789095259097707 ], [ 115.028633851306793, -33.789119600901351 ], [ 115.028604698009843, -33.78911952584702 ], [ 115.028604428326091, -33.78919255125642 ], [ 115.028546121683874, -33.789192401125213 ], [ 115.028546211595383, -33.789168059322783 ], [ 115.028458751659826, -33.789167834075208 ], [ 115.028458661723562, -33.789192175876671 ], [ 115.028429508404272, -33.789192100780056 ], [ 115.028429238568336, -33.789265126182919 ], [ 115.02845839191238, -33.789265201280507 ], [ 115.028458301974482, -33.78928954308158 ], [ 115.028545762033843, -33.789289768333909 ], [ 115.028545851946959, -33.78926542653187 ], [ 115.028575005292623, -33.789265501601882 ], [ 115.028574825482494, -33.789314185206493 ], [ 115.028603978845084, -33.789314260270245 ], [ 115.028603799049861, -33.789362943875126 ], [ 115.028632952429348, -33.789363018932619 ], [ 115.0286326827582, -33.789436044340192 ], [ 115.028661836162883, -33.789436119391759 ], [ 115.028661746279951, -33.789460461194416 ], [ 115.028720053107023, -33.789460611277462 ], [ 115.028719963240164, -33.78948495308066 ], [ 115.028749116662581, -33.789485028112161 ], [ 115.028749026803581, -33.789509369915592 ], [ 115.028719873372935, -33.789509294883764 ], [ 115.028719783505295, -33.789533636686784 ], [ 115.028690630066791, -33.789533561647758 ], [ 115.028690180681266, -33.789655270659857 ], [ 115.028777641121778, -33.789655495761032 ], [ 115.028777730974937, -33.789631153957842 ], [ 115.028806884447661, -33.789631228977463 ], [ 115.028806974292152, -33.789606887173854 ], [ 115.028865281222309, -33.7896070371918 ], [ 115.028865191394317, -33.78963137899602 ], [ 115.028952651817377, -33.78963160397219 ], [ 115.0289527416206, -33.789607262167003 ], [ 115.029156815897423, -33.789607786867919 ], [ 115.029156546659863, -33.789680812289838 ], [ 115.029098239672095, -33.789680662407847 ], [ 115.029097970381372, -33.78975368782703 ], [ 115.029039663345685, -33.78975353791558 ], [ 115.029039483783492, -33.789802221526621 ], [ 115.029010330249733, -33.789802146559929 ], [ 115.029010280607508, -33.789815604429066 ], [ 115.028281439517301, -33.78981447562272 ], [ 115.028281492037678, -33.789800270152469 ], [ 115.028252338514449, -33.789800195006578 ], [ 115.028252428518599, -33.789775853209633 ], [ 115.028223275004052, -33.789775778057169 ], [ 115.028223365016075, -33.78975143626046 ], [ 115.028194211510169, -33.789751361101409 ], [ 115.028194121489918, -33.789775702897799 ], [ 115.028164967976153, -33.789775627731544 ], [ 115.028164824963625, -33.789814295013741 ], [ 115.028057146513277, -33.789814128244714 ], [ 115.028058345509351, -33.789726668713783 ], [ 115.028077687543529, -33.789726718601088 ], [ 115.028078948241344, -33.789385933458369 ], [ 115.028063017264287, -33.789385892371179 ], [ 115.028063350961077, -33.789361551203136 ], [ 115.028079038288155, -33.789361591661766 ], [ 115.028079848691149, -33.789142515488201 ], [ 115.028066354232251, -33.789142480686344 ], [ 115.02806768901948, -33.78904511600971 ], [ 115.028080208859734, -33.789045148297539 ], [ 115.028080298900861, -33.789020806499657 ], [ 115.028068022716283, -33.789020774840317 ], [ 115.028068356413101, -33.788996433670832 ], [ 115.028080388941589, -33.788996464701668 ], [ 115.028080478981906, -33.78897212290358 ], [ 115.028167938703533, -33.788972348412337 ], [ 115.028168028718682, -33.788948006613211 ], [ 115.028255488419205, -33.788948232058999 ], [ 115.028255578409201, -33.788923890258836 ], [ 115.028372191315853, -33.788924190755459 ], [ 115.028372281272425, -33.788899848953939 ], [ 115.02840143449184, -33.78889992406053 ], [ 115.028401974173192, -33.788753873247551 ], [ 115.028372821003288, -33.788753798142857 ], [ 115.028373090863255, -33.788680772736065 ], [ 115.028402244008404, -33.788680847839828 ], [ 115.028402423896509, -33.788632164234208 ], [ 115.028431577025543, -33.788632239330433 ], [ 115.028431756895529, -33.788583555723811 ], [ 115.028373450670884, -33.788583405525713 ], [ 115.028373360719584, -33.788607747328442 ], [ 115.028344207599602, -33.788607672218738 ], [ 115.028344117639648, -33.788632014021054 ], [ 115.028314964511821, -33.788631938904146 ], [ 115.028314874543227, -33.788656280706057 ], [ 115.028285721407542, -33.788656205581937 ], [ 115.028285541452604, -33.788704889184849 ], [ 115.028256388300818, -33.78870481405319 ], [ 115.028256208327747, -33.788753497655101 ], [ 115.02822705515986, -33.788753422515924 ], [ 115.028226965164464, -33.788777764316428 ], [ 115.028197811988733, -33.788777689170047 ], [ 115.028197901992399, -33.788753347369884 ], [ 115.028168748825323, -33.78875327221693 ], [ 115.028168928847919, -33.788704588616923 ], [ 115.028139775697781, -33.788704513457716 ], [ 115.028139865716724, -33.788680171657894 ], [ 115.028110712575241, -33.788680096492115 ], [ 115.028110802602029, -33.788655754692506 ], [ 115.0280816494692, -33.78865567952014 ], [ 115.028082189670997, -33.788509628722537 ], [ 115.028075030349584, -33.788509610260718 ], [ 115.028076365136954, -33.788412245574065 ], [ 115.028082549797418, -33.788412261522261 ], [ 115.028082639828, -33.788387919721984 ], [ 115.028199251998601, -33.788388220356133 ], [ 115.028199431992547, -33.788339536752716 ], [ 115.028170278965803, -33.788339461605155 ], [ 115.028170368970407, -33.788315119803634 ], [ 115.028141215952331, -33.788315044649487 ], [ 115.028141305964809, -33.788290702848194 ], [ 115.028112152955359, -33.788290627687473 ], [ 115.028112242975681, -33.788266285886408 ], [ 115.028083089974913, -33.788266210719108 ], [ 115.028083180003051, -33.788241868918263 ], [ 115.02811233299559, -33.788241944085243 ], [ 115.028112513034188, -33.788193260482622 ], [ 115.028116334567045, -33.788193270334936 ], [ 115.028141578325787, -33.788217048408839 ], [ 115.028141575999754, -33.78821767744374 ], [ 115.028142247973562, -33.788217679176007 ] ], [ [ 115.028369222521974, -33.789727470153927 ], [ 115.02836940246145, -33.789678786556891 ], [ 115.028311095495525, -33.789678636302718 ], [ 115.028311005509494, -33.789702978100657 ], [ 115.028281852018893, -33.789702902962915 ], [ 115.028281762024179, -33.789727244760435 ], [ 115.028310915523051, -33.789727319898489 ], [ 115.028310825536209, -33.789751661696236 ], [ 115.028339979043722, -33.789751736827725 ], [ 115.028339889064711, -33.789776078625707 ], [ 115.028369042580891, -33.789776153750609 ], [ 115.028369132551632, -33.789751811952314 ], [ 115.028398286059968, -33.789751887070004 ], [ 115.028398376022039, -33.789727545271312 ], [ 115.028369222521974, -33.789727470153927 ] ], [ [ 115.028689641405236, -33.789801321471344 ], [ 115.028689731285581, -33.789776979669668 ], [ 115.028718884806608, -33.789777054711855 ], [ 115.028719064549605, -33.789728371107586 ], [ 115.02863160403723, -33.789728145962208 ], [ 115.028631424244722, -33.789776829564588 ], [ 115.028660577764953, -33.789776904620574 ], [ 115.028660487876337, -33.789801246421931 ], [ 115.028689641405236, -33.789801321471344 ] ], [ [ 115.029071150809727, -33.789120725889148 ], [ 115.029041997506695, -33.789120650938202 ], [ 115.029041907736357, -33.789144992746181 ], [ 115.029012754425466, -33.789144917788036 ], [ 115.029012574867025, -33.789193601403078 ], [ 115.029070881522188, -33.789193751313746 ], [ 115.029071150809727, -33.789120725889148 ] ], [ [ 115.028632413083429, -33.789509069746941 ], [ 115.028632502975441, -33.789484727944789 ], [ 115.028486735875632, -33.789484352580502 ], [ 115.028486825808486, -33.789460010779834 ], [ 115.028457672398005, -33.789459935686615 ], [ 115.028457582456895, -33.789484277486963 ], [ 115.028428429038541, -33.789484202386546 ], [ 115.028428339088762, -33.789508544186489 ], [ 115.028457492515358, -33.789508619287226 ], [ 115.028457402573437, -33.789532961087403 ], [ 115.028486556008673, -33.78953303618156 ], [ 115.028486466074597, -33.78955737798195 ], [ 115.028544772962846, -33.789557528150247 ], [ 115.028544683044871, -33.789581869951178 ], [ 115.028573836497841, -33.789581945025297 ], [ 115.028573926407574, -33.78955760322404 ], [ 115.028603079852701, -33.789557678290954 ], [ 115.028603259654417, -33.789508994687552 ], [ 115.028632413083429, -33.789509069746941 ] ], [ [ 115.028369672367589, -33.78960576116063 ], [ 115.028369852303015, -33.789557077562655 ], [ 115.028194931657751, -33.789556626726963 ], [ 115.028194751623289, -33.789605310321129 ], [ 115.028369672367589, -33.78960576116063 ] ], [ [ 115.028315504315003, -33.788485888090776 ], [ 115.028315414348825, -33.788510229893234 ], [ 115.028344567435369, -33.788510305008565 ], [ 115.028344657393305, -33.788485963205773 ], [ 115.028315504315003, -33.788485888090776 ] ], [ [ 115.028227685116349, -33.788583029909887 ], [ 115.028227595123766, -33.788607371711016 ], [ 115.028198442005831, -33.788607296566866 ], [ 115.028198352004594, -33.788631638367605 ], [ 115.028256658257419, -33.788631788649653 ], [ 115.028256838226426, -33.78858310504684 ], [ 115.028227685116349, -33.788583029909887 ] ], [ [ 115.02813743506286, -33.789337400220646 ], [ 115.028166588427624, -33.789337475388088 ], [ 115.028166498405994, -33.789361817185728 ], [ 115.028224805153243, -33.789361967500575 ], [ 115.028225075167398, -33.789288942105472 ], [ 115.028137615121423, -33.789288716625713 ], [ 115.02813743506286, -33.789337400220646 ] ], [ [ 115.028284371705908, -33.7890213325947 ], [ 115.028284191738805, -33.789070016194835 ], [ 115.02831334501478, -33.789070091324341 ], [ 115.02831352496537, -33.789021407723574 ], [ 115.028284371705908, -33.7890213325947 ] ], [ [ 115.028780156857053, -33.788973925236881 ], [ 115.028751003607582, -33.788973850218916 ], [ 115.028750913757122, -33.78899819202428 ], [ 115.028721760499806, -33.78899811699911 ], [ 115.028721580781138, -33.789046800608922 ], [ 115.028779887329165, -33.789046950653642 ], [ 115.028780156857053, -33.788973925236881 ] ] ], [ [ [ 115.028072027078096, -33.788728680800034 ], [ 115.02807269447176, -33.78867999845864 ], [ 115.028081559434142, -33.788680021319436 ], [ 115.028081379362817, -33.788728704917716 ], [ 115.028072027078096, -33.788728680800034 ] ] ], [ [ [ 115.028651391554888, -33.788705831443515 ], [ 115.028664485611486, -33.788718555029007 ], [ 115.028664442591747, -33.788730207074451 ], [ 115.028635289426447, -33.788730132032093 ], [ 115.028635379305484, -33.788705790226985 ], [ 115.028651391554888, -33.788705831443515 ] ] ], [ [ [ 115.028068690109905, -33.788972092501226 ], [ 115.028069023806722, -33.788947751331548 ], [ 115.028080569021824, -33.788947781105428 ], [ 115.028080478981906, -33.78897212290358 ], [ 115.028068690109905, -33.788972092501226 ] ] ], [ [ [ 115.028604338430711, -33.789216893059368 ], [ 115.028604428326091, -33.78919255125642 ], [ 115.02863358164781, -33.789192626311703 ], [ 115.028633401873151, -33.789241309918147 ], [ 115.028604248534904, -33.789241234862224 ], [ 115.028604158638714, -33.789265576664988 ], [ 115.028575005292623, -33.789265501601882 ], [ 115.028575185101147, -33.789216817996902 ], [ 115.028604338430711, -33.789216893059368 ] ] ], [ [ [ 115.029243737977694, -33.789754062485052 ], [ 115.02921458445762, -33.789753987567245 ], [ 115.029214404994477, -33.789802671182095 ], [ 115.029185251458301, -33.789802596256749 ], [ 115.029186507781802, -33.789461810949419 ], [ 115.0292156612024, -33.789461885870338 ], [ 115.029215481748992, -33.789510569487419 ], [ 115.029273788624451, -33.789510719309831 ], [ 115.029273609202448, -33.7895594029278 ], [ 115.029302762657281, -33.789559477829314 ], [ 115.029302403841399, -33.789656845065409 ], [ 115.029244096866094, -33.789656695252958 ], [ 115.029243737977694, -33.789754062485052 ] ] ], [ [ [ 115.029126895202523, -33.789815785038115 ], [ 115.029127213655542, -33.789729420965799 ], [ 115.029156367166152, -33.789729495903991 ], [ 115.029156048852215, -33.789815830190378 ], [ 115.029126895202523, -33.789815785038115 ] ] ] ] } },
{ "type": "Feature", "properties": { "appName": "Brindle 17 Jan 2026", "rate": 3.0, "rateInt": 3, "unit": "l/ha", "zone": 3 }, "geometry": { "type": "MultiPolygon", "coordinates": [ [ [ [ 115.028090421155255, -33.788168861488884 ], [ 115.028112526263229, -33.788189683146094 ], [ 115.02811233299559, -33.788241944085243 ], [ 115.028083180003051, -33.788241868918263 ], [ 115.02808345008512, -33.788168843515152 ], [ 115.028090421155255, -33.788168861488884 ] ] ], [ [ [ 115.028112152955359, -33.788290627687473 ], [ 115.028141305964809, -33.788290702848194 ], [ 115.028141215952331, -33.788315044649487 ], [ 115.028170368970407, -33.788315119803634 ], [ 115.028170278965803, -33.788339461605155 ], [ 115.028199431992547, -33.788339536752716 ], [ 115.028199251998601, -33.788388220356133 ], [ 115.028082639828, -33.788387919721984 ], [ 115.028083089974913, -33.788266210719108 ], [ 115.028112242975681, -33.788266285886408 ], [ 115.028112152955359, -33.788290627687473 ] ] ], [ [ [ 115.028344567435369, -33.788510305008565 ], [ 115.028315414348825, -33.788510229893234 ], [ 115.028315504315003, -33.788485888090776 ], [ 115.028344657393305, -33.788485963205773 ], [ 115.028344567435369, -33.788510305008565 ] ] ], [ [ [ 115.028071025987629, -33.78880170431141 ], [ 115.028071359684446, -33.78877736314103 ], [ 115.028081199289886, -33.788777388515612 ], [ 115.0280816494692, -33.78865567952014 ], [ 115.028110802602029, -33.788655754692506 ], [ 115.028110712575241, -33.788680096492115 ], [ 115.028139865716724, -33.788680171657894 ], [ 115.028139775697781, -33.788704513457716 ], [ 115.028168928847919, -33.788704588616923 ], [ 115.028168748825323, -33.78875327221693 ], [ 115.028197901992399, -33.788753347369884 ], [ 115.028197811988733, -33.788777689170047 ], [ 115.028226965164464, -33.788777764316428 ], [ 115.02822705515986, -33.788753422515924 ], [ 115.028256208327747, -33.788753497655101 ], [ 115.028256388300818, -33.78870481405319 ], [ 115.028285541452604, -33.788704889184849 ], [ 115.028285721407542, -33.788656205581937 ], [ 115.028314874543227, -33.788656280706057 ], [ 115.028314964511821, -33.788631938904146 ], [ 115.028344117639648, -33.788632014021054 ], [ 115.028344207599602, -33.788607672218738 ], [ 115.028373360719584, -33.788607747328442 ], [ 115.028373450670884, -33.788583405525713 ], [ 115.028431756895529, -33.788583555723811 ], [ 115.028431577025543, -33.788632239330433 ], [ 115.028402423896509, -33.788632164234208 ], [ 115.028402244008404, -33.788680847839828 ], [ 115.028373090863255, -33.788680772736065 ], [ 115.028372821003288, -33.788753798142857 ], [ 115.028401974173192, -33.788753873247551 ], [ 115.02840143449184, -33.78889992406053 ], [ 115.028372281272425, -33.788899848953939 ], [ 115.028372191315853, -33.788924190755459 ], [ 115.028255578409201, -33.788923890258836 ], [ 115.028255488419205, -33.788948232058999 ], [ 115.028168028718682, -33.788948006613211 ], [ 115.028167938703533, -33.788972348412337 ], [ 115.028080478981906, -33.78897212290358 ], [ 115.02808110925281, -33.788801730314454 ], [ 115.028071025987629, -33.78880170431141 ] ] ], [ [ [ 115.028635379305484, -33.788705790226985 ], [ 115.028635289426447, -33.788730132032093 ], [ 115.028664442591747, -33.788730207074451 ], [ 115.028664083104559, -33.788827574295247 ], [ 115.028634929906261, -33.788827499251617 ], [ 115.028635019786904, -33.788803157446871 ], [ 115.02860586659726, -33.788803082396676 ], [ 115.028605956485762, -33.788778740592143 ], [ 115.028576803304773, -33.788778665535382 ], [ 115.028576893201119, -33.788754323731077 ], [ 115.028547740028799, -33.788754248667715 ], [ 115.028547829933004, -33.788729906863644 ], [ 115.028576983097068, -33.788729981926693 ], [ 115.028577072992633, -33.788705640122203 ], [ 115.028635379305484, -33.788705790226985 ] ] ], [ [ [ 115.028826732435618, -33.788876676921255 ], [ 115.028838779387272, -33.788888433593968 ], [ 115.028838732831886, -33.788901049832631 ], [ 115.028851741418734, -33.78890108329707 ], [ 115.028859563288734, -33.788908716694152 ], [ 115.028867828947241, -33.788916602811298 ], [ 115.028867796241556, -33.788925466635881 ], [ 115.028877144571737, -33.788925490682232 ], [ 115.028896880193358, -33.78894432008633 ], [ 115.028896769858918, -33.788974225239805 ], [ 115.028780156857053, -33.788973925236881 ], [ 115.028780426381275, -33.788900899819282 ], [ 115.02880957960636, -33.78890097482941 ], [ 115.028809669438715, -33.78887663302303 ], [ 115.028826732435618, -33.788876676921255 ] ] ], [ [ [ 115.028779887329165, -33.789046950653642 ], [ 115.028721580781138, -33.789046800608922 ], [ 115.028721760499806, -33.78899811699911 ], [ 115.028750913757122, -33.78899819202428 ], [ 115.028751003607582, -33.788973850218916 ], [ 115.028780156857053, -33.788973925236881 ], [ 115.028779887329165, -33.789046950653642 ] ] ], [ [ [ 115.02901308335656, -33.789055733635351 ], [ 115.029013023760101, -33.789071892364781 ], [ 115.028896410619666, -33.789071592467046 ], [ 115.028896590240123, -33.789022908853624 ], [ 115.028979474677598, -33.789023122008487 ], [ 115.029002524246209, -33.789045113190198 ], [ 115.02901308335656, -33.789055733635351 ] ] ], [ [ [ 115.029029190092558, -33.789071933930693 ], [ 115.029042129174456, -33.789084948171961 ], [ 115.029042087276665, -33.789096309130137 ], [ 115.029012933982287, -33.789096234172611 ], [ 115.029013023760101, -33.789071892364781 ], [ 115.029029190092558, -33.789071933930693 ] ] ], [ [ [ 115.029333602030604, -33.789102001180559 ], [ 115.02953124610201, -33.789103297465637 ], [ 115.029531235221981, -33.789146249861496 ], [ 115.02950836076549, -33.789146191139295 ], [ 115.029508181487699, -33.789194874765094 ], [ 115.02947902815383, -33.789194799916586 ], [ 115.02947893850606, -33.789219141729028 ], [ 115.02944978516436, -33.789219066873315 ], [ 115.029449605851099, -33.789267750497288 ], [ 115.029420452493284, -33.789267675634051 ], [ 115.029420362827793, -33.78929201744559 ], [ 115.029391209462119, -33.78929194257514 ], [ 115.029391119787988, -33.78931628438626 ], [ 115.02933281304135, -33.789316134624052 ], [ 115.029333082112075, -33.789243109192277 ], [ 115.029362235460454, -33.789243184075872 ], [ 115.029362504502785, -33.789170158642335 ], [ 115.02933335117919, -33.789170083759686 ], [ 115.029333602030604, -33.789102001180559 ] ] ], [ [ [ 115.029070881522188, -33.789193751313746 ], [ 115.029012574867025, -33.789193601403078 ], [ 115.029012754425466, -33.789144917788036 ], [ 115.029041907736357, -33.789144992746181 ], [ 115.029041997506695, -33.789120650938202 ], [ 115.029071150809727, -33.789120725889148 ], [ 115.029070881522188, -33.789193751313746 ] ] ], [ [ [ 115.029272663454861, -33.789816010799434 ], [ 115.029185202502575, -33.78981587534264 ], [ 115.029185251458301, -33.789802596256749 ], [ 115.029214404994477, -33.789802671182095 ], [ 115.02921458445762, -33.789753987567245 ], [ 115.029243737977694, -33.789754062485052 ], [ 115.029244096866094, -33.789656695252958 ], [ 115.029302403841399, -33.789656845065409 ], [ 115.029302762657281, -33.789559477829314 ], [ 115.029273609202448, -33.7895594029278 ], [ 115.029273788624451, -33.789510719309831 ], [ 115.029215481748992, -33.789510569487419 ], [ 115.0292156612024, -33.789461885870338 ], [ 115.029186507781802, -33.789461810949419 ], [ 115.029186776983636, -33.789388785524075 ], [ 115.029215930379493, -33.789388860444049 ], [ 115.029216109828852, -33.789340176826038 ], [ 115.029361876731642, -33.78934055131932 ], [ 115.029361787048444, -33.78936489312995 ], [ 115.029390940438475, -33.789364968008236 ], [ 115.029390850763107, -33.789389309819093 ], [ 115.029420004161807, -33.789389384690807 ], [ 115.029419645489341, -33.789486751934561 ], [ 115.02944879892145, -33.789486826800662 ], [ 115.029448709260564, -33.789511168611682 ], [ 115.029477862701327, -33.789511243471189 ], [ 115.029477773048313, -33.789535585282437 ], [ 115.029506926497746, -33.789535660135392 ], [ 115.02950674720698, -33.78958434375825 ], [ 115.029477593741049, -33.789584268904662 ], [ 115.029477414432137, -33.789632952526517 ], [ 115.029448260950105, -33.789632877665404 ], [ 115.02944790229445, -33.789730244906728 ], [ 115.029418748779804, -33.789730170037473 ], [ 115.029418569433062, -33.789778853656941 ], [ 115.029389415902301, -33.78977877878016 ], [ 115.02938950558412, -33.789754436970782 ], [ 115.029331198540348, -33.789754287197162 ], [ 115.029331108841987, -33.789778629005909 ], [ 115.029272801783321, -33.789778479204088 ], [ 115.029272663454861, -33.789816010799434 ] ] ], [ [ [ 115.02836940246145, -33.789678786556891 ], [ 115.028369222521974, -33.789727470153927 ], [ 115.028398376022039, -33.789727545271312 ], [ 115.028398286059968, -33.789751887070004 ], [ 115.028369132551632, -33.789751811952314 ], [ 115.028369042580891, -33.789776153750609 ], [ 115.028339889064711, -33.789776078625707 ], [ 115.028339979043722, -33.789751736827725 ], [ 115.028310825536209, -33.789751661696236 ], [ 115.028310915523051, -33.789727319898489 ], [ 115.028281762024179, -33.789727244760435 ], [ 115.028281852018893, -33.789702902962915 ], [ 115.028311005509494, -33.789702978100657 ], [ 115.028311095495525, -33.789678636302718 ], [ 115.02836940246145, -33.789678786556891 ] ] ] ] } }
]
}
