{
"type": "FeatureCollection",
"name": "block6boundary",
"crs": { "type": "name", "properties": { "name": "urn:ogc:def:crs:OGC:1.3:CRS84" } },
"features": [
{ "type": "Feature", "properties": { "name": "Brindle 17 Jan 2026" }, "geometry": { "type": "MultiPolygon", "coordinates": [ [ [ [ 115.028079838383803, -33.788158893166653 ], [ 115.028399879183951, -33.788460351989634 ], [ 115.028541128982852, -33.788598688538599 ], [ 115.028715824475228, -33.788768441358471 ], [ 115.028859563288734, -33.788908716694152 ], [ 115.029002524246209, -33.789045113190198 ], [ 115.029057281868745, -33.789100188883843 ], [ 115.02953124610201, -33.789103297465637 ], [ 115.029531065467211, -33.789816411004409 ], [ 115.028057146513277, -33.789814128244714 ], [ 115.028079838383803, -33.788158893166653 ] ] ] ] } }
]
}
