{
"type": "FeatureCollection",
"name": "B2-1-12-11-10_Rx",
"features": [
{ "type": "Feature", "properties": { "appName": "Fishbone NW", "rate": 1.0, "rateInt": 1, "unit": "l/ha", "zone": 1 }, "geometry": { "type": "MultiPolygon", "coordinates": [ [ [ [ 115.0745604, -33.7935373 ], [ 115.0746017, -33.793537 ], [ 115.0745997, -33.7933715 ], [ 115.0746394, -33.7933711 ], [ 115.0746386, -33.7933049 ], [ 115.0746782, -33.7933046 ], [ 115.0746778, -33.7932715 ], [ 115.0746382, -33.7932718 ], [ 115.0746378, -33.7932387 ], [ 115.0745981, -33.793239 ], [ 115.0745957, -33.7930404 ], [ 115.0746354, -33.7930401 ], [ 115.0746342, -33.7929408 ], [ 115.0745945, -33.7929411 ], [ 115.0745937, -33.7928749 ], [ 115.0746333, -33.7928746 ], [ 115.0746297, -33.7925766 ], [ 115.0745901, -33.792577 ], [ 115.0745888, -33.7924712 ], [ 115.0745455, -33.7924673 ], [ 115.0745604, -33.7935373 ] ] ], [ [ [ 115.0745506, -33.7935374 ], [ 115.0745373, -33.7924698 ], [ 115.0743439, -33.7924466 ], [ 115.0743338, -33.7924467 ], [ 115.0743453, -33.793506 ], [ 115.0743634, -33.7935059 ], [ 115.074363, -33.7934728 ], [ 115.0744027, -33.7934724 ], [ 115.0744023, -33.7934393 ], [ 115.0744419, -33.793439 ], [ 115.0744423, -33.7934721 ], [ 115.074482, -33.7934718 ], [ 115.0744824, -33.7935049 ], [ 115.074522, -33.7935045 ], [ 115.0745224, -33.7935376 ], [ 115.0745506, -33.7935374 ] ], [ [ 115.0744315, -33.7925783 ], [ 115.0744711, -33.792578 ], [ 115.0744715, -33.7926111 ], [ 115.0744319, -33.7926114 ], [ 115.0744315, -33.7925783 ] ] ], [ [ [ 115.074827, -33.7924929 ], [ 115.0747079, -33.7924821 ], [ 115.0747082, -33.7925097 ], [ 115.0748272, -33.7925087 ], [ 115.074827, -33.7924929 ] ] ], [ [ [ 115.0748667, -33.7924965 ], [ 115.0748668, -33.7925084 ], [ 115.0749065, -33.7925081 ], [ 115.0749064, -33.7925001 ], [ 115.0748667, -33.7924965 ] ] ], [ [ [ 115.0749963, -33.7926729 ], [ 115.0749943, -33.7925081 ], [ 115.074987, -33.7925074 ], [ 115.0749065, -33.7925081 ], [ 115.0749073, -33.7925743 ], [ 115.0749469, -33.7925739 ], [ 115.0749485, -33.7927064 ], [ 115.0749882, -33.792706 ], [ 115.0749878, -33.7926729 ], [ 115.0749963, -33.7926729 ] ] ], [ [ [ 115.0748765, -33.7933029 ], [ 115.0748761, -33.7932698 ], [ 115.0748364, -33.7932701 ], [ 115.0748368, -33.7933032 ], [ 115.0748765, -33.7933029 ] ] ], [ [ [ 115.0759258, -33.7934927 ], [ 115.0759253, -33.7934265 ], [ 115.0758693, -33.7934269 ], [ 115.0758685, -33.7933607 ], [ 115.0757495, -33.7933617 ], [ 115.0757499, -33.7933949 ], [ 115.0757103, -33.7933952 ], [ 115.0757107, -33.7934283 ], [ 115.0757503, -33.793428 ], [ 115.0757507, -33.7934611 ], [ 115.0759093, -33.7934597 ], [ 115.0759097, -33.7934928 ], [ 115.0759258, -33.7934927 ] ] ], [ [ [ 115.0743471, -33.7936715 ], [ 115.0743477, -33.7937212 ], [ 115.0744943, -33.7937365 ], [ 115.0745248, -33.7937363 ], [ 115.0745249, -33.7937397 ], [ 115.0745532, -33.7937427 ], [ 115.0745523, -33.7936698 ], [ 115.074524, -33.7936701 ], [ 115.0745244, -33.7937032 ], [ 115.0743658, -33.7937045 ], [ 115.0743654, -33.7936714 ], [ 115.0743471, -33.7936715 ] ] ], [ [ [ 115.0745622, -33.7936697 ], [ 115.0745632, -33.7937441 ], [ 115.0747846, -33.7937672 ], [ 115.0748028, -33.793767 ], [ 115.0748028, -33.7937691 ], [ 115.0750013, -33.7937898 ], [ 115.075001, -33.7937654 ], [ 115.0749217, -33.793766 ], [ 115.0749213, -33.7937329 ], [ 115.0747627, -33.7937343 ], [ 115.0747623, -33.7937012 ], [ 115.0747227, -33.7937015 ], [ 115.0747223, -33.7936684 ], [ 115.074643, -33.7936691 ], [ 115.0746426, -33.7936359 ], [ 115.0745633, -33.7936366 ], [ 115.0745637, -33.7936697 ], [ 115.0745622, -33.7936697 ] ] ], [ [ [ 115.0759287, -33.7938237 ], [ 115.0759138, -33.7938239 ], [ 115.0759142, -33.793857 ], [ 115.0758745, -33.7938573 ], [ 115.0758741, -33.7938242 ], [ 115.0758345, -33.7938245 ], [ 115.0758341, -33.7937914 ], [ 115.0757944, -33.7937918 ], [ 115.075794, -33.7937587 ], [ 115.0757544, -33.793759 ], [ 115.0757548, -33.7937921 ], [ 115.0757151, -33.7937924 ], [ 115.0757159, -33.7938586 ], [ 115.0756763, -33.793859 ], [ 115.0756764, -33.7938698 ], [ 115.0759292, -33.7938893 ], [ 115.0759287, -33.7938237 ] ] ], [ [ [ 115.0753985, -33.7938403 ], [ 115.0755176, -33.7938539 ], [ 115.0755173, -33.7938272 ], [ 115.0754776, -33.7938275 ], [ 115.0754772, -33.7937944 ], [ 115.0753583, -33.7937954 ], [ 115.0753587, -33.7938285 ], [ 115.0753983, -33.7938282 ], [ 115.0753985, -33.7938403 ] ] ] ] } },
{ "type": "Feature", "properties": { "appName": "Fishbone NW", "rate": 2.0, "rateInt": 2, "unit": "l/ha", "zone": 2 }, "geometry": { "type": "MultiPolygon", "coordinates": [ [ [ [ 115.0755804, -33.7933632 ], [ 115.0755816, -33.7935287 ], [ 115.0756722, -33.7935279 ], [ 115.0756726, -33.793561 ], [ 115.0757123, -33.7935607 ], [ 115.0757127, -33.7935938 ], [ 115.0757523, -33.7935935 ], [ 115.0757527, -33.7936266 ], [ 115.0757131, -33.7936269 ], [ 115.0757135, -33.79366 ], [ 115.0756738, -33.7936604 ], [ 115.0756743, -33.7936935 ], [ 115.0756346, -33.7936938 ], [ 115.0756354, -33.79376 ], [ 115.0755833, -33.7937604 ], [ 115.0755841, -33.7938598 ], [ 115.0757159, -33.7938586 ], [ 115.0757151, -33.7937924 ], [ 115.0757548, -33.7937921 ], [ 115.0757544, -33.793759 ], [ 115.075794, -33.7937587 ], [ 115.0757944, -33.7937918 ], [ 115.0758341, -33.7937914 ], [ 115.0758345, -33.7938245 ], [ 115.0758741, -33.7938242 ], [ 115.0758745, -33.7938573 ], [ 115.0759142, -33.793857 ], [ 115.0759138, -33.7938239 ], [ 115.0759287, -33.7938237 ], [ 115.0759258, -33.7934927 ], [ 115.0759097, -33.7934928 ], [ 115.0759093, -33.7934597 ], [ 115.0757507, -33.7934611 ], [ 115.0757503, -33.793428 ], [ 115.0757107, -33.7934283 ], [ 115.0757103, -33.7933952 ], [ 115.0757499, -33.7933949 ], [ 115.0757495, -33.7933617 ], [ 115.0758685, -33.7933607 ], [ 115.0758693, -33.7934269 ], [ 115.0759253, -33.7934265 ], [ 115.0759228, -33.7931285 ], [ 115.0759053, -33.7931287 ], [ 115.0759049, -33.7930956 ], [ 115.075667, -33.7930976 ], [ 115.0756678, -33.7931638 ], [ 115.0756282, -33.7931641 ], [ 115.0756286, -33.7931972 ], [ 115.0756682, -33.7931969 ], [ 115.0756698, -33.7933293 ], [ 115.0756302, -33.7933296 ], [ 115.0756306, -33.7933628 ], [ 115.0755804, -33.7933632 ] ] ], [ [ [ 115.0755704, -33.7933633 ], [ 115.0755513, -33.7933634 ], [ 115.0755493, -33.7931979 ], [ 115.0753114, -33.7931999 ], [ 115.0753118, -33.793233 ], [ 115.0752974, -33.7932331 ], [ 115.0752997, -33.7934318 ], [ 115.0753142, -33.7934316 ], [ 115.075315, -33.7934978 ], [ 115.0753546, -33.7934975 ], [ 115.0753555, -33.7935637 ], [ 115.0753012, -33.7935642 ], [ 115.0753043, -33.793829 ], [ 115.0753587, -33.7938285 ], [ 115.0753583, -33.7937954 ], [ 115.0754772, -33.7937944 ], [ 115.0754776, -33.7938275 ], [ 115.0755173, -33.7938272 ], [ 115.0755176, -33.7938539 ], [ 115.0755692, -33.7938599 ], [ 115.0755734, -33.7938598 ], [ 115.0755728, -33.7937605 ], [ 115.0755561, -33.7937607 ], [ 115.0755553, -33.7936945 ], [ 115.0755157, -33.7936948 ], [ 115.0755136, -33.7935293 ], [ 115.0755714, -33.7935288 ], [ 115.0755704, -33.7933633 ] ] ], [ [ [ 115.0751204, -33.7938045 ], [ 115.0752934, -33.7938263 ], [ 115.0752908, -33.7935643 ], [ 115.0752762, -33.7935644 ], [ 115.075277, -33.7936306 ], [ 115.0752373, -33.7936309 ], [ 115.0752381, -33.7936971 ], [ 115.0751985, -33.7936975 ], [ 115.0751989, -33.7937306 ], [ 115.0751196, -33.7937312 ], [ 115.0751192, -33.7936981 ], [ 115.0750795, -33.7936985 ], [ 115.0750783, -33.7935992 ], [ 115.0750387, -33.7935995 ], [ 115.0750371, -33.7934671 ], [ 115.0750767, -33.7934667 ], [ 115.0750763, -33.7934336 ], [ 115.075116, -33.7934333 ], [ 115.0751147, -33.793334 ], [ 115.0750751, -33.7933343 ], [ 115.0750739, -33.793235 ], [ 115.0750342, -33.7932354 ], [ 115.0750338, -33.7932023 ], [ 115.0750735, -33.7932019 ], [ 115.0750723, -33.7931026 ], [ 115.0751119, -33.7931023 ], [ 115.0751103, -33.7929699 ], [ 115.0750707, -33.7929702 ], [ 115.0750703, -33.7929371 ], [ 115.0750306, -33.7929374 ], [ 115.0750298, -33.7928712 ], [ 115.0750695, -33.7928709 ], [ 115.0750687, -33.7928047 ], [ 115.0751083, -33.7928043 ], [ 115.0751079, -33.7927712 ], [ 115.0751476, -33.7927709 ], [ 115.0751471, -33.7927294 ], [ 115.0750089, -33.7927152 ], [ 115.0750214, -33.793792 ], [ 115.0750681, -33.7937979 ], [ 115.0751204, -33.7937975 ], [ 115.0751204, -33.7938045 ] ] ], [ [ [ 115.0750013, -33.7937898 ], [ 115.0750101, -33.7937907 ], [ 115.0749963, -33.7926729 ], [ 115.0749878, -33.7926729 ], [ 115.0749882, -33.792706 ], [ 115.0749485, -33.7927064 ], [ 115.0749469, -33.7925739 ], [ 115.0749073, -33.7925743 ], [ 115.0749065, -33.7925081 ], [ 115.0748668, -33.7925084 ], [ 115.0748667, -33.7924965 ], [ 115.074827, -33.7924929 ], [ 115.0748272, -33.7925087 ], [ 115.0747082, -33.7925097 ], [ 115.0747079, -33.7924821 ], [ 115.0746534, -33.7924771 ], [ 115.0745889, -33.7924776 ], [ 115.0745901, -33.792577 ], [ 115.0746297, -33.7925766 ], [ 115.0746333, -33.7928746 ], [ 115.0745937, -33.7928749 ], [ 115.0745945, -33.7929411 ], [ 115.0746342, -33.7929408 ], [ 115.0746354, -33.7930401 ], [ 115.0745957, -33.7930404 ], [ 115.0745981, -33.793239 ], [ 115.0746378, -33.7932387 ], [ 115.0746382, -33.7932718 ], [ 115.0746778, -33.7932715 ], [ 115.0746782, -33.7933046 ], [ 115.0746386, -33.7933049 ], [ 115.0746394, -33.7933711 ], [ 115.0745997, -33.7933715 ], [ 115.0746017, -33.793537 ], [ 115.0745604, -33.7935373 ], [ 115.0745622, -33.7936697 ], [ 115.0745637, -33.7936697 ], [ 115.0745633, -33.7936366 ], [ 115.0746426, -33.7936359 ], [ 115.074643, -33.7936691 ], [ 115.0747223, -33.7936684 ], [ 115.0747227, -33.7937015 ], [ 115.0747623, -33.7937012 ], [ 115.0747627, -33.7937343 ], [ 115.0749213, -33.7937329 ], [ 115.0749217, -33.793766 ], [ 115.075001, -33.7937654 ], [ 115.0750013, -33.7937898 ] ], [ [ 115.0748765, -33.7933029 ], [ 115.0748368, -33.7933032 ], [ 115.0748364, -33.7932701 ], [ 115.0748761, -33.7932698 ], [ 115.0748765, -33.7933029 ] ] ], [ [ [ 115.0745523, -33.7936698 ], [ 115.0745506, -33.7935374 ], [ 115.0745224, -33.7935376 ], [ 115.074522, -33.7935045 ], [ 115.0744824, -33.7935049 ], [ 115.074482, -33.7934718 ], [ 115.0744423, -33.7934721 ], [ 115.0744419, -33.793439 ], [ 115.0744023, -33.7934393 ], [ 115.0744027, -33.7934724 ], [ 115.074363, -33.7934728 ], [ 115.0743634, -33.7935059 ], [ 115.0743453, -33.793506 ], [ 115.0743471, -33.7936715 ], [ 115.0743654, -33.7936714 ], [ 115.0743658, -33.7937045 ], [ 115.0745244, -33.7937032 ], [ 115.074524, -33.7936701 ], [ 115.0745523, -33.7936698 ] ] ], [ [ [ 115.0752895, -33.7934318 ], [ 115.0752875, -33.7932332 ], [ 115.0752721, -33.7932333 ], [ 115.0752745, -33.793432 ], [ 115.0752895, -33.7934318 ] ] ], [ [ [ 115.0744715, -33.7926111 ], [ 115.0744711, -33.792578 ], [ 115.0744315, -33.7925783 ], [ 115.0744319, -33.7926114 ], [ 115.0744715, -33.7926111 ] ] ], [ [ [ 115.0754647, -33.7927591 ], [ 115.0752916, -33.7927408 ], [ 115.075292, -33.7927697 ], [ 115.0753062, -33.7927696 ], [ 115.0753066, -33.7928027 ], [ 115.0754652, -33.7928013 ], [ 115.0754647, -33.7927591 ] ] ], [ [ [ 115.0752828, -33.7927698 ], [ 115.0752825, -33.7927434 ], [ 115.0752662, -33.7927417 ], [ 115.0752665, -33.7927699 ], [ 115.0752828, -33.7927698 ] ] ], [ [ [ 115.0756631, -33.7927769 ], [ 115.0756634, -33.7927996 ], [ 115.0757824, -33.7927986 ], [ 115.0757822, -33.7927878 ], [ 115.0756631, -33.7927769 ] ] ], [ [ [ 115.0759208, -33.7928968 ], [ 115.07592, -33.7928004 ], [ 115.0758907, -33.7927977 ], [ 115.0757824, -33.7927986 ], [ 115.0757828, -33.7928317 ], [ 115.0758621, -33.7928311 ], [ 115.0758625, -33.7928642 ], [ 115.0759021, -33.7928638 ], [ 115.0759025, -33.792897 ], [ 115.0759208, -33.7928968 ] ] ], [ [ [ 115.0754279, -33.7930003 ], [ 115.0754271, -33.7929341 ], [ 115.0753875, -33.7929344 ], [ 115.0753883, -33.7930006 ], [ 115.0754279, -33.7930003 ] ] ] ] } },
{ "type": "Feature", "properties": { "appName": "Fishbone NW", "rate": 3.0, "rateInt": 3, "unit": "l/ha", "zone": 3 }, "geometry": { "type": "MultiPolygon", "coordinates": [ [ [ [ 115.0752662, -33.7927417 ], [ 115.075222, -33.7927372 ], [ 115.0751472, -33.7927378 ], [ 115.0751476, -33.7927709 ], [ 115.0751079, -33.7927712 ], [ 115.0751083, -33.7928043 ], [ 115.0750687, -33.7928047 ], [ 115.0750695, -33.7928709 ], [ 115.0750298, -33.7928712 ], [ 115.0750306, -33.7929374 ], [ 115.0750703, -33.7929371 ], [ 115.0750707, -33.7929702 ], [ 115.0751103, -33.7929699 ], [ 115.0751119, -33.7931023 ], [ 115.0750723, -33.7931026 ], [ 115.0750735, -33.7932019 ], [ 115.0750338, -33.7932023 ], [ 115.0750342, -33.7932354 ], [ 115.0750739, -33.793235 ], [ 115.0750751, -33.7933343 ], [ 115.0751147, -33.793334 ], [ 115.075116, -33.7934333 ], [ 115.0750763, -33.7934336 ], [ 115.0750767, -33.7934667 ], [ 115.0750371, -33.7934671 ], [ 115.0750387, -33.7935995 ], [ 115.0750783, -33.7935992 ], [ 115.0750795, -33.7936985 ], [ 115.0751192, -33.7936981 ], [ 115.0751196, -33.7937312 ], [ 115.0751989, -33.7937306 ], [ 115.0751985, -33.7936975 ], [ 115.0752381, -33.7936971 ], [ 115.0752373, -33.7936309 ], [ 115.075277, -33.7936306 ], [ 115.0752762, -33.7935644 ], [ 115.0752908, -33.7935643 ], [ 115.0752895, -33.7934318 ], [ 115.0752745, -33.793432 ], [ 115.0752721, -33.7932333 ], [ 115.0752875, -33.7932332 ], [ 115.0752828, -33.7927698 ], [ 115.0752665, -33.7927699 ], [ 115.0752662, -33.7927417 ] ] ], [ [ [ 115.075292, -33.7927697 ], [ 115.0752974, -33.7932331 ], [ 115.0753118, -33.793233 ], [ 115.0753114, -33.7931999 ], [ 115.0755493, -33.7931979 ], [ 115.0755513, -33.7933634 ], [ 115.0755704, -33.7933633 ], [ 115.0755668, -33.7927699 ], [ 115.0755443, -33.7927675 ], [ 115.0754648, -33.7927682 ], [ 115.0754652, -33.7928013 ], [ 115.0753066, -33.7928027 ], [ 115.0753062, -33.7927696 ], [ 115.075292, -33.7927697 ] ], [ [ 115.0753875, -33.7929344 ], [ 115.0754271, -33.7929341 ], [ 115.0754279, -33.7930003 ], [ 115.0753883, -33.7930006 ], [ 115.0753875, -33.7929344 ] ] ], [ [ [ 115.0756631, -33.7927769 ], [ 115.075576, -33.7927689 ], [ 115.0755804, -33.7933632 ], [ 115.0756306, -33.7933628 ], [ 115.0756302, -33.7933296 ], [ 115.0756698, -33.7933293 ], [ 115.0756682, -33.7931969 ], [ 115.0756286, -33.7931972 ], [ 115.0756282, -33.7931641 ], [ 115.0756678, -33.7931638 ], [ 115.075667, -33.7930976 ], [ 115.0759049, -33.7930956 ], [ 115.0759053, -33.7931287 ], [ 115.0759228, -33.7931285 ], [ 115.0759208, -33.7928968 ], [ 115.0759025, -33.792897 ], [ 115.0759021, -33.7928638 ], [ 115.0758625, -33.7928642 ], [ 115.0758621, -33.7928311 ], [ 115.0757828, -33.7928317 ], [ 115.0757824, -33.7927986 ], [ 115.0756634, -33.7927996 ], [ 115.0756631, -33.7927769 ] ] ], [ [ [ 115.0752997, -33.7934318 ], [ 115.0753012, -33.7935642 ], [ 115.0753555, -33.7935637 ], [ 115.0753546, -33.7934975 ], [ 115.075315, -33.7934978 ], [ 115.0753142, -33.7934316 ], [ 115.0752997, -33.7934318 ] ] ], [ [ [ 115.0755816, -33.7935287 ], [ 115.0755833, -33.7937604 ], [ 115.0756354, -33.79376 ], [ 115.0756346, -33.7936938 ], [ 115.0756743, -33.7936935 ], [ 115.0756738, -33.7936604 ], [ 115.0757135, -33.79366 ], [ 115.0757131, -33.7936269 ], [ 115.0757527, -33.7936266 ], [ 115.0757523, -33.7935935 ], [ 115.0757127, -33.7935938 ], [ 115.0757123, -33.7935607 ], [ 115.0756726, -33.793561 ], [ 115.0756722, -33.7935279 ], [ 115.0755816, -33.7935287 ] ] ], [ [ [ 115.0755714, -33.7935288 ], [ 115.0755136, -33.7935293 ], [ 115.0755157, -33.7936948 ], [ 115.0755553, -33.7936945 ], [ 115.0755561, -33.7937607 ], [ 115.0755728, -33.7937605 ], [ 115.0755714, -33.7935288 ] ] ] ] } }
]
}
