{
"type": "FeatureCollection",
"name": "B2-1-12-11-10_Boundary",
"features": [
{ "type": "Feature", "properties": { "name": "Fishbone NW" }, "geometry": { "type": "MultiPolygon", "coordinates": [ [ [ [ 115.0750101, -33.7937907 ], [ 115.0749943, -33.7925081 ], [ 115.0745455, -33.7924673 ], [ 115.0745632, -33.7937441 ], [ 115.0750101, -33.7937907 ] ] ], [ [ [ 115.0745532, -33.7937427 ], [ 115.0745373, -33.7924698 ], [ 115.0743338, -33.7924454 ], [ 115.0743477, -33.7937212 ], [ 115.0745532, -33.7937427 ] ] ], [ [ [ 115.0759292, -33.7938893 ], [ 115.07592, -33.7928004 ], [ 115.075576, -33.7927689 ], [ 115.0755841, -33.7938627 ], [ 115.0759292, -33.7938893 ] ] ], [ [ [ 115.0755734, -33.7938604 ], [ 115.0755668, -33.7927699 ], [ 115.0752916, -33.7927408 ], [ 115.0753043, -33.7938294 ], [ 115.0755734, -33.7938604 ] ] ], [ [ [ 115.0752934, -33.7938263 ], [ 115.0752825, -33.7927434 ], [ 115.0750089, -33.7927152 ], [ 115.0750214, -33.793792 ], [ 115.0752934, -33.7938263 ] ] ] ] } }
]
}
