{
"type": "FeatureCollection",
"name": "NDVI - Block C 3 zones_Rx",
"features": [
{ "type": "Feature", "properties": { "appName": "Island Brook 080125", "rate": 1.0, "rateInt": 1, "unit": "l/ha", "zone": 1 }, "geometry": { "type": "MultiPolygon", "coordinates": [ [ [ [ 115.1548454, -33.7522462 ], [ 115.1547476, -33.7522318 ], [ 115.1547424, -33.752257 ], [ 115.1547098, -33.7522523 ], [ 115.1546876, -33.7523614 ], [ 115.1547529, -33.7523707 ], [ 115.1547473, -33.752398 ], [ 115.1547591, -33.7523996 ], [ 115.1547894, -33.7523563 ], [ 115.1547966, -33.7523208 ], [ 115.1548126, -33.7523231 ], [ 115.1548483, -33.752272 ], [ 115.1548404, -33.7522709 ], [ 115.1548454, -33.7522462 ] ] ], [ [ [ 115.1545998, -33.7526276 ], [ 115.1546105, -33.7525749 ], [ 115.1545779, -33.7525703 ], [ 115.1546112, -33.7524067 ], [ 115.1545459, -33.7523974 ], [ 115.1545403, -33.7524247 ], [ 115.154475, -33.7524154 ], [ 115.1544806, -33.7523881 ], [ 115.154448, -33.7523835 ], [ 115.1544535, -33.7523562 ], [ 115.1544209, -33.7523516 ], [ 115.154432, -33.752297 ], [ 115.1543993, -33.7522924 ], [ 115.1543771, -33.7524015 ], [ 115.1544098, -33.7524061 ], [ 115.1544042, -33.7524334 ], [ 115.1543716, -33.7524287 ], [ 115.1543605, -33.7524833 ], [ 115.1543278, -33.7524786 ], [ 115.1543223, -33.7525059 ], [ 115.154257, -33.7524966 ], [ 115.1542459, -33.7525512 ], [ 115.1543438, -33.7525651 ], [ 115.1543382, -33.7525923 ], [ 115.1544362, -33.7526063 ], [ 115.1544306, -33.7526335 ], [ 115.1544633, -33.7526382 ], [ 115.1544577, -33.7526654 ], [ 115.1544904, -33.7526701 ], [ 115.1544848, -33.7526974 ], [ 115.1545174, -33.752702 ], [ 115.1545119, -33.7527293 ], [ 115.1545272, -33.7527314 ], [ 115.1545524, -33.7526955 ], [ 115.1545556, -33.7526794 ], [ 115.1545629, -33.7526804 ], [ 115.1545998, -33.7526276 ] ] ], [ [ [ 115.1533686, -33.7525107 ], [ 115.1533804, -33.7525123 ], [ 115.1533637, -33.7525941 ], [ 115.1533964, -33.7525988 ], [ 115.1533908, -33.7526261 ], [ 115.1535214, -33.7526446 ], [ 115.153527, -33.7526173 ], [ 115.1535596, -33.752622 ], [ 115.1535652, -33.7525947 ], [ 115.1535978, -33.7525994 ], [ 115.1536034, -33.7525721 ], [ 115.153636, -33.7525767 ], [ 115.1536471, -33.7525222 ], [ 115.1536145, -33.7525175 ], [ 115.15362, -33.7524903 ], [ 115.1535874, -33.7524856 ], [ 115.1535929, -33.7524584 ], [ 115.1534154, -33.7524331 ], [ 115.1533869, -33.7524803 ], [ 115.153386, -33.7524851 ], [ 115.1533842, -33.7524848 ], [ 115.1533686, -33.7525107 ] ] ] ] } },
{ "type": "Feature", "properties": { "appName": "Island Brook 080125", "rate": 2.0, "rateInt": 2, "unit": "l/ha", "zone": 2 }, "geometry": { "type": "MultiPolygon", "coordinates": [ [ [ [ 115.1547476, -33.7522318 ], [ 115.1543048, -33.7521667 ], [ 115.1539089, -33.7521104 ], [ 115.1538975, -33.7521177 ], [ 115.1538937, -33.7521363 ], [ 115.1538728, -33.7521334 ], [ 115.1538589, -33.7521423 ], [ 115.1538555, -33.752159 ], [ 115.1538368, -33.7521563 ], [ 115.1538203, -33.7521668 ], [ 115.1538117, -33.7522089 ], [ 115.1537791, -33.7522042 ], [ 115.1537735, -33.7522315 ], [ 115.1537287, -33.7522251 ], [ 115.1537045, -33.7522406 ], [ 115.1537027, -33.7522495 ], [ 115.1536927, -33.7522481 ], [ 115.1535887, -33.7523143 ], [ 115.1535881, -33.7523174 ], [ 115.1535846, -33.7523169 ], [ 115.1535501, -33.7523389 ], [ 115.1535499, -33.75234 ], [ 115.1535486, -33.7523398 ], [ 115.1534343, -33.7524126 ], [ 115.1534297, -33.7524352 ], [ 115.1535929, -33.7524584 ], [ 115.1535874, -33.7524856 ], [ 115.15362, -33.7524903 ], [ 115.1536145, -33.7525175 ], [ 115.1536471, -33.7525222 ], [ 115.1536305, -33.752604 ], [ 115.1535652, -33.7525947 ], [ 115.1535596, -33.752622 ], [ 115.153527, -33.7526173 ], [ 115.1535214, -33.7526446 ], [ 115.1533908, -33.7526261 ], [ 115.1533964, -33.7525988 ], [ 115.1533637, -33.7525941 ], [ 115.1533693, -33.7525669 ], [ 115.1533373, -33.7525623 ], [ 115.1533363, -33.7525641 ], [ 115.1533311, -33.7525895 ], [ 115.1533243, -33.7525885 ], [ 115.1533156, -33.7526116 ], [ 115.1532936, -33.7526089 ], [ 115.1532817, -33.7526672 ], [ 115.1533471, -33.7526761 ], [ 115.1533471, -33.752676 ], [ 115.1533623, -33.7526781 ], [ 115.1535432, -33.7527026 ], [ 115.1535485, -33.7526765 ], [ 115.1535812, -33.7526812 ], [ 115.1535867, -33.7526539 ], [ 115.1537826, -33.7526817 ], [ 115.153777, -33.752709 ], [ 115.1538097, -33.7527136 ], [ 115.1538047, -33.752738 ], [ 115.1539028, -33.7527512 ], [ 115.1539076, -33.7527276 ], [ 115.1539403, -33.7527322 ], [ 115.1539458, -33.7527049 ], [ 115.154109, -33.7527281 ], [ 115.1541146, -33.7527009 ], [ 115.1541472, -33.7527055 ], [ 115.1541528, -33.7526782 ], [ 115.154316, -33.7527014 ], [ 115.1543216, -33.7526742 ], [ 115.1543869, -33.7526834 ], [ 115.1543813, -33.7527107 ], [ 115.154414, -33.7527153 ], [ 115.1544084, -33.7527426 ], [ 115.154441, -33.7527473 ], [ 115.1544355, -33.7527745 ], [ 115.1544916, -33.7527825 ], [ 115.154505, -33.7527633 ], [ 115.1545063, -33.7527565 ], [ 115.1545094, -33.752757 ], [ 115.1545272, -33.7527314 ], [ 115.1545119, -33.7527293 ], [ 115.1545174, -33.752702 ], [ 115.1544848, -33.7526974 ], [ 115.1544904, -33.7526701 ], [ 115.1544577, -33.7526654 ], [ 115.1544633, -33.7526382 ], [ 115.1544306, -33.7526335 ], [ 115.1544362, -33.7526063 ], [ 115.1543382, -33.7525923 ], [ 115.1543438, -33.7525651 ], [ 115.1542459, -33.7525512 ], [ 115.154257, -33.7524966 ], [ 115.1543223, -33.7525059 ], [ 115.1543278, -33.7524786 ], [ 115.1543605, -33.7524833 ], [ 115.1543716, -33.7524287 ], [ 115.1544042, -33.7524334 ], [ 115.1544098, -33.7524061 ], [ 115.1543771, -33.7524015 ], [ 115.1543827, -33.7523742 ], [ 115.1542521, -33.7523556 ], [ 115.1542576, -33.7523284 ], [ 115.1543882, -33.7523469 ], [ 115.1543993, -33.7522924 ], [ 115.154432, -33.752297 ], [ 115.1544209, -33.7523516 ], [ 115.1544535, -33.7523562 ], [ 115.154448, -33.7523835 ], [ 115.1544806, -33.7523881 ], [ 115.154475, -33.7524154 ], [ 115.1545403, -33.7524247 ], [ 115.1545514, -33.7523701 ], [ 115.1545841, -33.7523748 ], [ 115.1545785, -33.752402 ], [ 115.1546112, -33.7524067 ], [ 115.1545779, -33.7525703 ], [ 115.1546105, -33.7525749 ], [ 115.154605, -33.7526022 ], [ 115.1546164, -33.7526038 ], [ 115.1546472, -33.7525598 ], [ 115.1546543, -33.752525 ], [ 115.1546699, -33.7525273 ], [ 115.1546946, -33.752492 ], [ 115.154698, -33.7524751 ], [ 115.1547056, -33.7524762 ], [ 115.154742, -33.7524241 ], [ 115.1547529, -33.7523707 ], [ 115.1546876, -33.7523614 ], [ 115.1547042, -33.7522796 ], [ 115.154639, -33.7522703 ], [ 115.1546445, -33.7522431 ], [ 115.1547424, -33.752257 ], [ 115.1547476, -33.7522318 ] ], [ [ 115.1535499, -33.75234 ], [ 115.1536152, -33.7523493 ], [ 115.1536207, -33.752322 ], [ 115.1536534, -33.7523267 ], [ 115.1536589, -33.7522994 ], [ 115.1536916, -33.752304 ], [ 115.1536971, -33.7522768 ], [ 115.1537624, -33.752286 ], [ 115.153768, -33.7522588 ], [ 115.1538006, -33.7522634 ], [ 115.1537839, -33.7523452 ], [ 115.1538166, -33.7523499 ], [ 115.153811, -33.7523771 ], [ 115.1538763, -33.7523864 ], [ 115.1538708, -33.7524137 ], [ 115.1539034, -33.7524183 ], [ 115.1538979, -33.7524456 ], [ 115.1539632, -33.7524549 ], [ 115.1539798, -33.7523731 ], [ 115.1540125, -33.7523777 ], [ 115.154018, -33.7523504 ], [ 115.1539854, -33.7523458 ], [ 115.154002, -33.752264 ], [ 115.1541, -33.7522779 ], [ 115.1540555, -33.7524961 ], [ 115.1540229, -33.7524914 ], [ 115.1540173, -33.7525187 ], [ 115.1539847, -33.752514 ], [ 115.1539791, -33.7525413 ], [ 115.1539138, -33.752532 ], [ 115.1539083, -33.7525593 ], [ 115.1538104, -33.7525454 ], [ 115.1538159, -33.7525181 ], [ 115.1537833, -33.7525135 ], [ 115.1537888, -33.7524862 ], [ 115.1536582, -33.7524676 ], [ 115.1536638, -33.7524404 ], [ 115.1536311, -33.7524357 ], [ 115.1536367, -33.7524085 ], [ 115.1535714, -33.7523992 ], [ 115.153577, -33.7523719 ], [ 115.1535443, -33.7523673 ], [ 115.1535499, -33.75234 ] ] ], [ [ [ 115.1530855, -33.7526407 ], [ 115.1530859, -33.7526388 ], [ 115.1531186, -33.7526435 ], [ 115.1531241, -33.7526162 ], [ 115.1530785, -33.7526097 ], [ 115.1530642, -33.7526378 ], [ 115.1530855, -33.7526407 ] ] ] ] } },
{ "type": "Feature", "properties": { "appName": "Island Brook 080125", "rate": 3.0, "rateInt": 3, "unit": "l/ha", "zone": 3 }, "geometry": { "type": "MultiPolygon", "coordinates": [ [ [ [ 115.1537624, -33.752286 ], [ 115.1536971, -33.7522768 ], [ 115.1536916, -33.752304 ], [ 115.1536589, -33.7522994 ], [ 115.1536534, -33.7523267 ], [ 115.1536207, -33.752322 ], [ 115.1536152, -33.7523493 ], [ 115.1535499, -33.75234 ], [ 115.1535443, -33.7523673 ], [ 115.153577, -33.7523719 ], [ 115.1535714, -33.7523992 ], [ 115.1536367, -33.7524085 ], [ 115.1536311, -33.7524357 ], [ 115.1536638, -33.7524404 ], [ 115.1536582, -33.7524676 ], [ 115.1537888, -33.7524862 ], [ 115.1537833, -33.7525135 ], [ 115.1538159, -33.7525181 ], [ 115.1538104, -33.7525454 ], [ 115.1539083, -33.7525593 ], [ 115.1539138, -33.752532 ], [ 115.1539791, -33.7525413 ], [ 115.1539847, -33.752514 ], [ 115.1540173, -33.7525187 ], [ 115.1540229, -33.7524914 ], [ 115.1540555, -33.7524961 ], [ 115.1541, -33.7522779 ], [ 115.154002, -33.752264 ], [ 115.1539854, -33.7523458 ], [ 115.154018, -33.7523504 ], [ 115.1540125, -33.7523777 ], [ 115.1539798, -33.7523731 ], [ 115.1539632, -33.7524549 ], [ 115.1538979, -33.7524456 ], [ 115.1539034, -33.7524183 ], [ 115.1538708, -33.7524137 ], [ 115.1538763, -33.7523864 ], [ 115.153811, -33.7523771 ], [ 115.1538166, -33.7523499 ], [ 115.1537839, -33.7523452 ], [ 115.1538006, -33.7522634 ], [ 115.153768, -33.7522588 ], [ 115.1537624, -33.752286 ] ] ], [ [ [ 115.1544916, -33.7527825 ], [ 115.1544355, -33.7527745 ], [ 115.154441, -33.7527473 ], [ 115.1544084, -33.7527426 ], [ 115.154414, -33.7527153 ], [ 115.1543813, -33.7527107 ], [ 115.1543869, -33.7526834 ], [ 115.1543216, -33.7526742 ], [ 115.154316, -33.7527014 ], [ 115.1541528, -33.7526782 ], [ 115.1541472, -33.7527055 ], [ 115.1541146, -33.7527009 ], [ 115.154109, -33.7527281 ], [ 115.1539458, -33.7527049 ], [ 115.1539403, -33.7527322 ], [ 115.1539076, -33.7527276 ], [ 115.1539028, -33.7527512 ], [ 115.1544585, -33.7528264 ], [ 115.1544626, -33.7528064 ], [ 115.1544737, -33.752808 ], [ 115.1544916, -33.7527825 ] ] ], [ [ [ 115.153097, -33.7525845 ], [ 115.1530915, -33.7526116 ], [ 115.1531241, -33.7526162 ], [ 115.1531186, -33.7526435 ], [ 115.1532818, -33.7526667 ], [ 115.1532929, -33.7526121 ], [ 115.1531084, -33.7525859 ], [ 115.153097, -33.7525845 ] ] ], [ [ [ 115.1538047, -33.752738 ], [ 115.1538097, -33.7527136 ], [ 115.153777, -33.752709 ], [ 115.1537826, -33.7526817 ], [ 115.1535867, -33.7526539 ], [ 115.1535812, -33.7526812 ], [ 115.1535485, -33.7526765 ], [ 115.1535432, -33.7527026 ], [ 115.1538047, -33.752738 ] ] ] ] } }
]
}
