{
"type": "FeatureCollection",
"name": "NDVI - Block 5 3 zone_Boundary",
"features": [
{ "type": "Feature", "properties": { "name": "Fishbone NW" }, "geometry": { "type": "MultiPolygon", "coordinates": [ [ [ [ 115.0735111, -33.7923972 ], [ 115.0718597, -33.7923345 ], [ 115.0718507, -33.792789 ], [ 115.0726251, -33.7928261 ], [ 115.0726204, -33.7929365 ], [ 115.0742534, -33.793012 ], [ 115.0742332, -33.7925564 ], [ 115.0735019, -33.7925259 ], [ 115.0735111, -33.7923972 ] ] ], [ [ [ 115.0742304, -33.7924667 ], [ 115.0741538, -33.7924643 ], [ 115.0741559, -33.7924384 ], [ 115.0735138, -33.7924053 ], [ 115.073506, -33.7925226 ], [ 115.0742326, -33.7925507 ], [ 115.0742304, -33.7924667 ] ] ] ] } }
]
}
