{
"type": "FeatureCollection",
"name": "NDVI - Block 5 3 zone_Rx",
"features": [
{ "type": "Feature", "properties": { "appName": "Fishbone NW", "rate": 1.0, "rateInt": 1, "unit": "l/ha", "zone": 1 }, "geometry": { "type": "MultiPolygon", "coordinates": [ [ [ [ 115.0735941, -33.7929815 ], [ 115.0735954, -33.7929617 ], [ 115.0735585, -33.7929599 ], [ 115.0735691, -33.7928056 ], [ 115.0736061, -33.7928074 ], [ 115.0736103, -33.7927457 ], [ 115.0736473, -33.7927475 ], [ 115.0736494, -33.7927167 ], [ 115.0737233, -33.7927202 ], [ 115.0737254, -33.7926894 ], [ 115.0738363, -33.7926947 ], [ 115.0738341, -33.7927256 ], [ 115.073908, -33.7927291 ], [ 115.0739059, -33.79276 ], [ 115.0739428, -33.7927618 ], [ 115.0739407, -33.7927926 ], [ 115.0740515, -33.7927979 ], [ 115.0740494, -33.7928288 ], [ 115.0740864, -33.7928306 ], [ 115.0740842, -33.7928614 ], [ 115.0741212, -33.7928632 ], [ 115.0741169, -33.7929249 ], [ 115.07408, -33.7929231 ], [ 115.0740778, -33.7929539 ], [ 115.0740039, -33.7929504 ], [ 115.0740018, -33.7929812 ], [ 115.0739649, -33.7929795 ], [ 115.0739635, -33.7929986 ], [ 115.0742534, -33.793012 ], [ 115.0742443, -33.7928072 ], [ 115.0742363, -33.7928068 ], [ 115.0742412, -33.7927358 ], [ 115.0742332, -33.7925564 ], [ 115.0735143, -33.7925264 ], [ 115.073508, -33.792617 ], [ 115.073545, -33.7926188 ], [ 115.0735322, -33.7928039 ], [ 115.0734953, -33.7928021 ], [ 115.0734889, -33.7928946 ], [ 115.0734519, -33.7928928 ], [ 115.0734498, -33.7929237 ], [ 115.0731173, -33.7929077 ], [ 115.0731152, -33.7929385 ], [ 115.0730782, -33.7929367 ], [ 115.0730768, -33.7929576 ], [ 115.0735941, -33.7929815 ] ] ], [ [ [ 115.0735145, -33.7925229 ], [ 115.0742326, -33.7925507 ], [ 115.0742304, -33.7924667 ], [ 115.0741857, -33.7924653 ], [ 115.0741816, -33.7925257 ], [ 115.0740707, -33.7925203 ], [ 115.0740729, -33.7924895 ], [ 115.0739251, -33.7924824 ], [ 115.0739289, -33.7924267 ], [ 115.0735226, -33.7924058 ], [ 115.0735208, -33.7924319 ], [ 115.0735578, -33.7924337 ], [ 115.0735535, -33.7924954 ], [ 115.0735166, -33.7924936 ], [ 115.0735145, -33.7925229 ] ] ], [ [ [ 115.071852, -33.7927229 ], [ 115.0718508, -33.7927848 ], [ 115.0723827, -33.7928104 ], [ 115.0723848, -33.7927795 ], [ 115.0723479, -33.7927778 ], [ 115.07235, -33.7927469 ], [ 115.072313, -33.7927451 ], [ 115.0723152, -33.7927143 ], [ 115.0722413, -33.7927107 ], [ 115.0722434, -33.7926799 ], [ 115.0720587, -33.792671 ], [ 115.0720566, -33.7927018 ], [ 115.0720196, -33.7927001 ], [ 115.0720175, -33.7927309 ], [ 115.0719805, -33.7927291 ], [ 115.0719784, -33.79276 ], [ 115.0718676, -33.7927546 ], [ 115.0718697, -33.7927238 ], [ 115.071852, -33.7927229 ] ] ], [ [ [ 115.0726703, -33.7929388 ], [ 115.0727812, -33.7929439 ], [ 115.0727827, -33.7929225 ], [ 115.0727457, -33.7929207 ], [ 115.0727478, -33.7928899 ], [ 115.0727109, -33.7928881 ], [ 115.072713, -33.7928573 ], [ 115.0726391, -33.7928537 ], [ 115.0726349, -33.7929154 ], [ 115.0726718, -33.7929172 ], [ 115.0726703, -33.7929388 ] ] ], [ [ [ 115.0738527, -33.7929935 ], [ 115.0738562, -33.7929433 ], [ 115.0737823, -33.7929397 ], [ 115.0737801, -33.7929706 ], [ 115.0737432, -33.7929688 ], [ 115.0737419, -33.7929883 ], [ 115.0738527, -33.7929935 ] ] ] ] } },
{ "type": "Feature", "properties": { "appName": "Fishbone NW", "rate": 2.0, "rateInt": 2, "unit": "l/ha", "zone": 2 }, "geometry": { "type": "MultiPolygon", "coordinates": [ [ [ [ 115.0729317, -33.7923752 ], [ 115.0729297, -33.7924035 ], [ 115.0729667, -33.7924053 ], [ 115.0729645, -33.7924361 ], [ 115.0731123, -33.7924432 ], [ 115.0731144, -33.7924124 ], [ 115.0732992, -33.7924213 ], [ 115.073297, -33.7924521 ], [ 115.0733709, -33.7924557 ], [ 115.0733624, -33.7925791 ], [ 115.0733993, -33.7925808 ], [ 115.0733951, -33.7926425 ], [ 115.073432, -33.7926443 ], [ 115.0734299, -33.7926751 ], [ 115.0733929, -33.7926734 ], [ 115.0733908, -33.7927042 ], [ 115.0733539, -33.7927024 ], [ 115.0733517, -33.7927333 ], [ 115.0732778, -33.7927297 ], [ 115.0732757, -33.7927606 ], [ 115.0732388, -33.7927588 ], [ 115.0732366, -33.7927896 ], [ 115.0731997, -33.7927879 ], [ 115.0732018, -33.792757 ], [ 115.0731649, -33.7927552 ], [ 115.0731628, -33.7927861 ], [ 115.0730889, -33.7927825 ], [ 115.0730867, -33.7928134 ], [ 115.0728281, -33.7928009 ], [ 115.072826, -33.7928317 ], [ 115.0727891, -33.79283 ], [ 115.0727912, -33.7927991 ], [ 115.0725326, -33.7927867 ], [ 115.0725347, -33.7927558 ], [ 115.0724978, -33.792754 ], [ 115.0724999, -33.7927232 ], [ 115.0724629, -33.7927214 ], [ 115.0724693, -33.7926289 ], [ 115.0721738, -33.7926146 ], [ 115.0721759, -33.7925838 ], [ 115.0719912, -33.7925749 ], [ 115.0719891, -33.7926057 ], [ 115.0719152, -33.7926022 ], [ 115.0719216, -33.7925096 ], [ 115.0718846, -33.7925079 ], [ 115.071891, -33.7924153 ], [ 115.071928, -33.7924171 ], [ 115.0719301, -33.7923863 ], [ 115.0720409, -33.7923916 ], [ 115.0720388, -33.7924224 ], [ 115.0721496, -33.7924278 ], [ 115.0721518, -33.7923969 ], [ 115.0722257, -33.7924005 ], [ 115.0722235, -33.7924313 ], [ 115.0722974, -33.7924349 ], [ 115.0722953, -33.7924658 ], [ 115.0723322, -33.7924675 ], [ 115.0723301, -33.7924984 ], [ 115.072404, -33.7925019 ], [ 115.0724019, -33.7925328 ], [ 115.0724388, -33.7925346 ], [ 115.0724367, -33.7925654 ], [ 115.0724736, -33.7925672 ], [ 115.0724715, -33.792598 ], [ 115.0725454, -33.7926016 ], [ 115.0725475, -33.7925707 ], [ 115.0727692, -33.7925814 ], [ 115.0727819, -33.7923964 ], [ 115.0728189, -33.7923981 ], [ 115.0728208, -33.792371 ], [ 115.0718597, -33.7923345 ], [ 115.071852, -33.7927229 ], [ 115.0718697, -33.7927238 ], [ 115.0718676, -33.7927546 ], [ 115.0719784, -33.79276 ], [ 115.0719805, -33.7927291 ], [ 115.0720175, -33.7927309 ], [ 115.0720196, -33.7927001 ], [ 115.0720566, -33.7927018 ], [ 115.0720587, -33.792671 ], [ 115.0722434, -33.7926799 ], [ 115.0722413, -33.7927107 ], [ 115.0723152, -33.7927143 ], [ 115.072313, -33.7927451 ], [ 115.07235, -33.7927469 ], [ 115.0723479, -33.7927778 ], [ 115.0723848, -33.7927795 ], [ 115.0723827, -33.7928104 ], [ 115.0726413, -33.7928228 ], [ 115.0726391, -33.7928537 ], [ 115.072713, -33.7928573 ], [ 115.0727109, -33.7928881 ], [ 115.0727478, -33.7928899 ], [ 115.0727457, -33.7929207 ], [ 115.0727827, -33.7929225 ], [ 115.0727812, -33.7929439 ], [ 115.0730768, -33.7929576 ], [ 115.0730782, -33.7929367 ], [ 115.0731152, -33.7929385 ], [ 115.0731173, -33.7929077 ], [ 115.0734498, -33.7929237 ], [ 115.0734519, -33.7928928 ], [ 115.0734889, -33.7928946 ], [ 115.0734953, -33.7928021 ], [ 115.0735322, -33.7928039 ], [ 115.073545, -33.7926188 ], [ 115.073508, -33.792617 ], [ 115.0735143, -33.7925264 ], [ 115.0735019, -33.7925259 ], [ 115.0735109, -33.7924005 ], [ 115.0731856, -33.7923848 ], [ 115.0729317, -33.7923752 ] ] ], [ [ [ 115.0735226, -33.7924058 ], [ 115.0735138, -33.7924053 ], [ 115.073506, -33.7925226 ], [ 115.0735145, -33.7925229 ], [ 115.0735166, -33.7924936 ], [ 115.0735535, -33.7924954 ], [ 115.0735578, -33.7924337 ], [ 115.0735208, -33.7924319 ], [ 115.0735226, -33.7924058 ] ] ], [ [ [ 115.0741857, -33.7924653 ], [ 115.0741538, -33.7924643 ], [ 115.0741559, -33.7924384 ], [ 115.0739289, -33.7924267 ], [ 115.0739251, -33.7924824 ], [ 115.0740729, -33.7924895 ], [ 115.0740707, -33.7925203 ], [ 115.0741816, -33.7925257 ], [ 115.0741857, -33.7924653 ] ] ], [ [ [ 115.0737419, -33.7929883 ], [ 115.0737432, -33.7929688 ], [ 115.0737801, -33.7929706 ], [ 115.0737823, -33.7929397 ], [ 115.0738562, -33.7929433 ], [ 115.0738527, -33.7929935 ], [ 115.0739635, -33.7929986 ], [ 115.0739649, -33.7929795 ], [ 115.0740018, -33.7929812 ], [ 115.0740039, -33.7929504 ], [ 115.0740778, -33.7929539 ], [ 115.07408, -33.7929231 ], [ 115.0741169, -33.7929249 ], [ 115.0741212, -33.7928632 ], [ 115.0740842, -33.7928614 ], [ 115.0740864, -33.7928306 ], [ 115.0740494, -33.7928288 ], [ 115.0740515, -33.7927979 ], [ 115.0739407, -33.7927926 ], [ 115.0739428, -33.7927618 ], [ 115.0739059, -33.79276 ], [ 115.073908, -33.7927291 ], [ 115.0738341, -33.7927256 ], [ 115.0738363, -33.7926947 ], [ 115.0737254, -33.7926894 ], [ 115.0737233, -33.7927202 ], [ 115.0736494, -33.7927167 ], [ 115.0736473, -33.7927475 ], [ 115.0736103, -33.7927457 ], [ 115.0736061, -33.7928074 ], [ 115.0735691, -33.7928056 ], [ 115.0735585, -33.7929599 ], [ 115.0735954, -33.7929617 ], [ 115.0735941, -33.7929815 ], [ 115.0737419, -33.7929883 ] ] ] ] } },
{ "type": "Feature", "properties": { "appName": "Fishbone NW", "rate": 3.0, "rateInt": 3, "unit": "l/ha", "zone": 3 }, "geometry": { "type": "Polygon", "coordinates": [ [ [ 115.0729317, -33.7923752 ], [ 115.0728208, -33.792371 ], [ 115.0728189, -33.7923981 ], [ 115.0727819, -33.7923964 ], [ 115.0727692, -33.7925814 ], [ 115.0725475, -33.7925707 ], [ 115.0725454, -33.7926016 ], [ 115.0724715, -33.792598 ], [ 115.0724736, -33.7925672 ], [ 115.0724367, -33.7925654 ], [ 115.0724388, -33.7925346 ], [ 115.0724019, -33.7925328 ], [ 115.072404, -33.7925019 ], [ 115.0723301, -33.7924984 ], [ 115.0723322, -33.7924675 ], [ 115.0722953, -33.7924658 ], [ 115.0722974, -33.7924349 ], [ 115.0722235, -33.7924313 ], [ 115.0722257, -33.7924005 ], [ 115.0721518, -33.7923969 ], [ 115.0721496, -33.7924278 ], [ 115.0720388, -33.7924224 ], [ 115.0720409, -33.7923916 ], [ 115.0719301, -33.7923863 ], [ 115.071928, -33.7924171 ], [ 115.071891, -33.7924153 ], [ 115.0718846, -33.7925079 ], [ 115.0719216, -33.7925096 ], [ 115.0719152, -33.7926022 ], [ 115.0719891, -33.7926057 ], [ 115.0719912, -33.7925749 ], [ 115.0721759, -33.7925838 ], [ 115.0721738, -33.7926146 ], [ 115.0724693, -33.7926289 ], [ 115.0724629, -33.7927214 ], [ 115.0724999, -33.7927232 ], [ 115.0724978, -33.792754 ], [ 115.0725347, -33.7927558 ], [ 115.0725326, -33.7927867 ], [ 115.0727912, -33.7927991 ], [ 115.0727891, -33.79283 ], [ 115.072826, -33.7928317 ], [ 115.0728281, -33.7928009 ], [ 115.0730867, -33.7928134 ], [ 115.0730889, -33.7927825 ], [ 115.0731628, -33.7927861 ], [ 115.0731649, -33.7927552 ], [ 115.0732018, -33.792757 ], [ 115.0731997, -33.7927879 ], [ 115.0732366, -33.7927896 ], [ 115.0732388, -33.7927588 ], [ 115.0732757, -33.7927606 ], [ 115.0732778, -33.7927297 ], [ 115.0733517, -33.7927333 ], [ 115.0733539, -33.7927024 ], [ 115.0733908, -33.7927042 ], [ 115.0733929, -33.7926734 ], [ 115.0734299, -33.7926751 ], [ 115.073432, -33.7926443 ], [ 115.0733951, -33.7926425 ], [ 115.0733993, -33.7925808 ], [ 115.0733624, -33.7925791 ], [ 115.0733709, -33.7924557 ], [ 115.073297, -33.7924521 ], [ 115.0732992, -33.7924213 ], [ 115.0731144, -33.7924124 ], [ 115.0731123, -33.7924432 ], [ 115.0729645, -33.7924361 ], [ 115.0729667, -33.7924053 ], [ 115.0729297, -33.7924035 ], [ 115.0729317, -33.7923752 ] ] ] } }
]
}
