{
"type": "FeatureCollection",
"name": "NDVI - Block B 3 zones_Rx",
"features": [
{ "type": "Feature", "properties": { "appName": "Island Brook 080125", "rate": 1.0, "rateInt": 1, "unit": "l/ha", "zone": 1 }, "geometry": { "type": "MultiPolygon", "coordinates": [ [ [ [ 115.1531311, -33.7526664 ], [ 115.1530542, -33.7526554 ], [ 115.1530387, -33.7526817 ], [ 115.1530938, -33.7526892 ], [ 115.1530886, -33.7527159 ], [ 115.1531206, -33.7527203 ], [ 115.1531258, -33.7526936 ], [ 115.1531577, -33.7526979 ], [ 115.1531629, -33.7526712 ], [ 115.153131, -33.7526669 ], [ 115.1531311, -33.7526664 ] ] ], [ [ [ 115.1530886, -33.7527159 ], [ 115.1530247, -33.7527072 ], [ 115.1530195, -33.7527339 ], [ 115.1530834, -33.7527426 ], [ 115.1530886, -33.7527159 ] ] ], [ [ [ 115.1543309, -33.7529941 ], [ 115.1543891, -33.7529198 ], [ 115.1543619, -33.7529161 ], [ 115.1543567, -33.7529428 ], [ 115.1543247, -33.7529384 ], [ 115.1543144, -33.7529918 ], [ 115.1543309, -33.7529941 ] ] ], [ [ [ 115.1528348, -33.7533466 ], [ 115.1528414, -33.7533126 ], [ 115.1528094, -33.7533083 ], [ 115.1528146, -33.7532816 ], [ 115.1527507, -33.7532729 ], [ 115.1527559, -33.7532462 ], [ 115.1527878, -33.7532506 ], [ 115.152793, -33.7532239 ], [ 115.152825, -33.7532282 ], [ 115.1528302, -33.7532015 ], [ 115.1527662, -33.7531928 ], [ 115.1527714, -33.7531661 ], [ 115.1528354, -33.7531748 ], [ 115.1528406, -33.7531481 ], [ 115.1529045, -33.7531568 ], [ 115.1528993, -33.7531835 ], [ 115.1529952, -33.7531965 ], [ 115.1530159, -33.7530897 ], [ 115.1530479, -33.753094 ], [ 115.1530531, -33.7530673 ], [ 115.1530851, -33.7530717 ], [ 115.1530902, -33.753045 ], [ 115.1531222, -33.7530493 ], [ 115.1531378, -33.7529692 ], [ 115.1530739, -33.7529605 ], [ 115.153079, -33.7529338 ], [ 115.1530151, -33.7529252 ], [ 115.1530203, -33.7528985 ], [ 115.1529564, -33.7528898 ], [ 115.1529616, -33.7528631 ], [ 115.1529343, -33.7528594 ], [ 115.1529194, -33.7528848 ], [ 115.1529244, -33.7528855 ], [ 115.1529192, -33.7529122 ], [ 115.1529045, -33.7529101 ], [ 115.1528781, -33.752955 ], [ 115.1528717, -33.7529879 ], [ 115.1529356, -33.7529966 ], [ 115.1529304, -33.7530233 ], [ 115.1528448, -33.7530117 ], [ 115.1528291, -33.7530384 ], [ 115.1528242, -33.7530637 ], [ 115.152815, -33.7530624 ], [ 115.1528001, -33.7530878 ], [ 115.1528509, -33.7530947 ], [ 115.1528457, -33.7531214 ], [ 115.1528138, -33.7531171 ], [ 115.1528086, -33.7531438 ], [ 115.1527766, -33.7531394 ], [ 115.1527811, -33.7531166 ], [ 115.1527169, -33.7531092 ], [ 115.1526764, -33.7533176 ], [ 115.1526124, -33.753309 ], [ 115.1526176, -33.7532823 ], [ 115.1525918, -33.7532788 ], [ 115.1525808, -33.7533166 ], [ 115.1528348, -33.7533466 ] ] ], [ [ [ 115.1533615, -33.7529996 ], [ 115.1532656, -33.7529866 ], [ 115.1532604, -33.7530133 ], [ 115.1532285, -33.7530089 ], [ 115.1532233, -33.7530356 ], [ 115.1532552, -33.75304 ], [ 115.1532501, -33.7530666 ], [ 115.153282, -33.753071 ], [ 115.1532612, -33.7531778 ], [ 115.1531973, -33.7531691 ], [ 115.1531921, -33.7531958 ], [ 115.1531602, -33.7531915 ], [ 115.153155, -33.7532182 ], [ 115.1532509, -33.7532312 ], [ 115.1532561, -33.7532045 ], [ 115.153288, -33.7532088 ], [ 115.1532984, -33.7531554 ], [ 115.1533304, -33.7531598 ], [ 115.1533356, -33.7531331 ], [ 115.1533675, -33.7531374 ], [ 115.1533727, -33.7531107 ], [ 115.1534047, -33.753115 ], [ 115.1534099, -33.7530883 ], [ 115.1533779, -33.753084 ], [ 115.1533883, -33.7530306 ], [ 115.1533563, -33.7530263 ], [ 115.1533615, -33.7529996 ] ] ], [ [ [ 115.1541773, -33.7531905 ], [ 115.1541953, -33.7531675 ], [ 115.1541821, -33.7531657 ], [ 115.1541773, -33.7531905 ] ] ], [ [ [ 115.1541372, -33.7532418 ], [ 115.1541566, -33.7532171 ], [ 115.1541398, -33.7532148 ], [ 115.1541346, -33.7532415 ], [ 115.1541372, -33.7532418 ] ] ], [ [ [ 115.15409, -33.7533022 ], [ 115.1540923, -33.7532905 ], [ 115.1540283, -33.7532819 ], [ 115.1540231, -33.7533086 ], [ 115.1539273, -33.7532955 ], [ 115.1539221, -33.7533222 ], [ 115.1538262, -33.7533092 ], [ 115.1538158, -33.7533626 ], [ 115.1539756, -33.7533843 ], [ 115.1539704, -33.753411 ], [ 115.1540016, -33.7534152 ], [ 115.15409, -33.7533022 ] ] ] ] } },
{ "type": "Feature", "properties": { "appName": "Island Brook 080125", "rate": 2.0, "rateInt": 2, "unit": "l/ha", "zone": 2 }, "geometry": { "type": "MultiPolygon", "coordinates": [ [ [ [ 115.153546, -33.7527256 ], [ 115.153201, -33.7526764 ], [ 115.1531629, -33.7526712 ], [ 115.1531577, -33.7526979 ], [ 115.1531258, -33.7526936 ], [ 115.1531206, -33.7527203 ], [ 115.1530886, -33.7527159 ], [ 115.1530834, -33.7527426 ], [ 115.1530515, -33.7527383 ], [ 115.1530463, -33.752765 ], [ 115.1530143, -33.7527606 ], [ 115.1530091, -33.7527873 ], [ 115.152979, -33.7527833 ], [ 115.1529762, -33.7527881 ], [ 115.1529668, -33.7528364 ], [ 115.1529492, -33.752834 ], [ 115.1529343, -33.7528594 ], [ 115.1529616, -33.7528631 ], [ 115.1529564, -33.7528898 ], [ 115.1530203, -33.7528985 ], [ 115.1530151, -33.7529252 ], [ 115.153079, -33.7529338 ], [ 115.1530739, -33.7529605 ], [ 115.1531378, -33.7529692 ], [ 115.1531222, -33.7530493 ], [ 115.1530902, -33.753045 ], [ 115.1530851, -33.7530717 ], [ 115.1530531, -33.7530673 ], [ 115.1530479, -33.753094 ], [ 115.1530159, -33.7530897 ], [ 115.1529952, -33.7531965 ], [ 115.1528673, -33.7531791 ], [ 115.1528621, -33.7532058 ], [ 115.1528302, -33.7532015 ], [ 115.152825, -33.7532282 ], [ 115.152793, -33.7532239 ], [ 115.1527826, -33.7532773 ], [ 115.1528146, -33.7532816 ], [ 115.1528094, -33.7533083 ], [ 115.1528414, -33.7533126 ], [ 115.1528362, -33.7533393 ], [ 115.152964, -33.7533567 ], [ 115.1529692, -33.75333 ], [ 115.1529372, -33.7533256 ], [ 115.1529424, -33.7532989 ], [ 115.1529105, -33.7532946 ], [ 115.1529157, -33.7532679 ], [ 115.1531714, -33.7533026 ], [ 115.1531766, -33.7532759 ], [ 115.1533044, -33.7532932 ], [ 115.1532992, -33.7533199 ], [ 115.153459, -33.7533416 ], [ 115.1534642, -33.7533149 ], [ 115.1537199, -33.7533496 ], [ 115.1537147, -33.7533763 ], [ 115.1537467, -33.7533807 ], [ 115.1537415, -33.7534074 ], [ 115.1538693, -33.7534247 ], [ 115.1538641, -33.7534514 ], [ 115.1539281, -33.7534601 ], [ 115.1539251, -33.7534754 ], [ 115.1539521, -33.7534786 ], [ 115.153959, -33.7534697 ], [ 115.15396, -33.7534644 ], [ 115.1539629, -33.7534648 ], [ 115.1540016, -33.7534152 ], [ 115.1539704, -33.753411 ], [ 115.1539756, -33.7533843 ], [ 115.1538158, -33.7533626 ], [ 115.1538262, -33.7533092 ], [ 115.1539221, -33.7533222 ], [ 115.1539273, -33.7532955 ], [ 115.1540231, -33.7533086 ], [ 115.1540283, -33.7532819 ], [ 115.1540985, -33.7532914 ], [ 115.1541336, -33.7532464 ], [ 115.1541398, -33.7532148 ], [ 115.1541566, -33.7532171 ], [ 115.1541773, -33.7531905 ], [ 115.1541821, -33.7531657 ], [ 115.1541953, -33.7531675 ], [ 115.1542646, -33.7530789 ], [ 115.1542668, -33.7530676 ], [ 115.1542728, -33.7530684 ], [ 115.1543083, -33.753023 ], [ 115.1543247, -33.7529384 ], [ 115.1543567, -33.7529428 ], [ 115.1543619, -33.7529161 ], [ 115.1543891, -33.7529198 ], [ 115.1543956, -33.7529114 ], [ 115.1543991, -33.7528937 ], [ 115.1544084, -33.752895 ], [ 115.1544393, -33.7528555 ], [ 115.1544397, -33.7528532 ], [ 115.1543121, -33.752835 ], [ 115.1543084, -33.752854 ], [ 115.1542125, -33.752841 ], [ 115.1542073, -33.7528677 ], [ 115.1540475, -33.752846 ], [ 115.1540423, -33.7528727 ], [ 115.1539464, -33.7528597 ], [ 115.1539516, -33.752833 ], [ 115.153632, -33.7527896 ], [ 115.1536268, -33.7528163 ], [ 115.1535629, -33.7528077 ], [ 115.153568, -33.752781 ], [ 115.1535361, -33.7527766 ], [ 115.153546, -33.7527256 ] ], [ [ 115.1533979, -33.7528127 ], [ 115.1534298, -33.752817 ], [ 115.1534246, -33.7528437 ], [ 115.1533927, -33.7528394 ], [ 115.1533979, -33.7528127 ] ], [ [ 115.1532656, -33.7529866 ], [ 115.1533615, -33.7529996 ], [ 115.1533563, -33.7530263 ], [ 115.1533883, -33.7530306 ], [ 115.1533779, -33.753084 ], [ 115.1534099, -33.7530883 ], [ 115.1534047, -33.753115 ], [ 115.1533727, -33.7531107 ], [ 115.1533675, -33.7531374 ], [ 115.1533356, -33.7531331 ], [ 115.1533304, -33.7531598 ], [ 115.1532984, -33.7531554 ], [ 115.153288, -33.7532088 ], [ 115.1532561, -33.7532045 ], [ 115.1532509, -33.7532312 ], [ 115.153155, -33.7532182 ], [ 115.1531602, -33.7531915 ], [ 115.1531921, -33.7531958 ], [ 115.1531973, -33.7531691 ], [ 115.1532612, -33.7531778 ], [ 115.153282, -33.753071 ], [ 115.1532501, -33.7530666 ], [ 115.1532552, -33.75304 ], [ 115.1532233, -33.7530356 ], [ 115.1532285, -33.7530089 ], [ 115.1532604, -33.7530133 ], [ 115.1532656, -33.7529866 ] ], [ [ 115.1536128, -33.7532255 ], [ 115.1536076, -33.7532522 ], [ 115.1535757, -33.7532478 ], [ 115.1535809, -33.7532211 ], [ 115.1535489, -33.7532168 ], [ 115.1535593, -33.7531634 ], [ 115.1535912, -33.7531677 ], [ 115.1535964, -33.7531411 ], [ 115.1536284, -33.7531454 ], [ 115.1536232, -33.7531721 ], [ 115.1536552, -33.7531764 ], [ 115.1536448, -33.7532298 ], [ 115.1536128, -33.7532255 ] ], [ [ 115.1530463, -33.752765 ], [ 115.1530782, -33.7527693 ], [ 115.153073, -33.752796 ], [ 115.1530411, -33.7527917 ], [ 115.1530463, -33.752765 ] ] ], [ [ [ 115.1527169, -33.7531092 ], [ 115.1526441, -33.7531008 ], [ 115.1525918, -33.7532788 ], [ 115.1526176, -33.7532823 ], [ 115.1526124, -33.753309 ], [ 115.1526764, -33.7533176 ], [ 115.1527169, -33.7531092 ] ] ] ] } },
{ "type": "Feature", "properties": { "appName": "Island Brook 080125", "rate": 3.0, "rateInt": 3, "unit": "l/ha", "zone": 3 }, "geometry": { "type": "MultiPolygon", "coordinates": [ [ [ [ 115.1543121, -33.752835 ], [ 115.153546, -33.7527256 ], [ 115.1535361, -33.7527766 ], [ 115.153568, -33.752781 ], [ 115.1535629, -33.7528077 ], [ 115.1536268, -33.7528163 ], [ 115.153632, -33.7527896 ], [ 115.1539516, -33.752833 ], [ 115.1539464, -33.7528597 ], [ 115.1540423, -33.7528727 ], [ 115.1540475, -33.752846 ], [ 115.1542073, -33.7528677 ], [ 115.1542125, -33.752841 ], [ 115.1543084, -33.752854 ], [ 115.1543121, -33.752835 ] ] ], [ [ [ 115.1536232, -33.7531721 ], [ 115.1536284, -33.7531454 ], [ 115.1535964, -33.7531411 ], [ 115.1535912, -33.7531677 ], [ 115.1535593, -33.7531634 ], [ 115.1535489, -33.7532168 ], [ 115.1535809, -33.7532211 ], [ 115.1535757, -33.7532478 ], [ 115.1536076, -33.7532522 ], [ 115.1536128, -33.7532255 ], [ 115.1536448, -33.7532298 ], [ 115.1536552, -33.7531764 ], [ 115.1536232, -33.7531721 ] ] ], [ [ [ 115.1539251, -33.7534754 ], [ 115.1539281, -33.7534601 ], [ 115.1538641, -33.7534514 ], [ 115.1538693, -33.7534247 ], [ 115.1537415, -33.7534074 ], [ 115.1537467, -33.7533807 ], [ 115.1537147, -33.7533763 ], [ 115.1537199, -33.7533496 ], [ 115.1534642, -33.7533149 ], [ 115.153459, -33.7533416 ], [ 115.1532992, -33.7533199 ], [ 115.1533044, -33.7532932 ], [ 115.1531766, -33.7532759 ], [ 115.1531714, -33.7533026 ], [ 115.1529157, -33.7532679 ], [ 115.1529105, -33.7532946 ], [ 115.1529424, -33.7532989 ], [ 115.1529372, -33.7533256 ], [ 115.1529692, -33.75333 ], [ 115.152964, -33.7533567 ], [ 115.1531558, -33.7533827 ], [ 115.1531554, -33.7533845 ], [ 115.1531875, -33.7533883 ], [ 115.1531878, -33.753387 ], [ 115.1532593, -33.7533967 ], [ 115.1539251, -33.7534754 ] ] ] ] } }
]
}
