{
"type": "FeatureCollection",
"name": "layer",
"crs": { "type": "name", "properties": { "name": "urn:ogc:def:crs:OGC:1.3:CRS84" } },
"features": [
{ "type": "Feature", "properties": { "attachmentName": [ ], "attachmentPath": [ ], "color": "#ffe600", "creationDate": "2026-07-10T08:16:23Z", "description": "14 Rows", "fill": 1.0, "name": "Block A - Semillon - 0.383 ha", "visualType": "ANNOTATION" }, "geometry": { "type": "Polygon", "coordinates": [ [ [ 115.152717968071101, -33.753851546102844 ], [ 115.153642364531265, -33.753965699189898 ], [ 115.153718873548712, -33.753596226094089 ], [ 115.152681285662027, -33.753465951583031 ], [ 115.152717968071101, -33.753851546102844 ] ] ] } },
{ "type": "Feature", "properties": { "attachmentName": [ ], "attachmentPath": [ ], "color": "#ffe600", "creationDate": "2026-07-10T08:16:23Z", "description": "26 Rows", "fill": 1.0, "name": "Block B - Semillon - 0.996 ha", "visualType": "ANNOTATION" }, "geometry": { "type": "Polygon", "coordinates": [ [ [ 115.153057822729238, -33.752664525524168 ], [ 115.15278665241641, -33.753125977468201 ], [ 115.152647726004034, -33.753109893936134 ], [ 115.152584417791843, -33.75332570523824 ], [ 115.153955744550842, -33.753487709573399 ], [ 115.154444624815653, -33.752862499801758 ], [ 115.153057822729238, -33.752664525524168 ] ] ] } },
{ "type": "Feature", "properties": { "attachmentName": [ ], "attachmentPath": [ ], "color": "#ffe600", "creationDate": "2026-07-10T08:16:23Z", "description": "23 Rows", "fill": 1.0, "name": "Block C - Semillon - 0.755 ha", "visualType": "ANNOTATION" }, "geometry": { "type": "Polygon", "coordinates": [ [ [ 115.153079063426674, -33.752642197751655 ], [ 115.154475531550247, -33.752831145849797 ], [ 115.154879301748451, -33.752253388411134 ], [ 115.153926204709933, -33.752113300327061 ], [ 115.15343868955955, -33.752423731948177 ], [ 115.153343978046678, -33.752580397957296 ], [ 115.153330519066799, -33.752616041526849 ], [ 115.15310670077605, -33.752588272706625 ], [ 115.153079063426674, -33.752642197751655 ] ] ] } },
{ "type": "Feature", "properties": { "attachmentName": [ ], "attachmentPath": [ ], "color": "#ffe600", "creationDate": "2026-07-10T08:16:23Z", "description": "28 Rows", "fill": 1.0, "name": "Block D - Semillon - 0.923 ha", "visualType": "ANNOTATION" }, "geometry": { "type": "Polygon", "coordinates": [ [ [ 115.15577613951524, -33.75097723887707 ], [ 115.155234449885654, -33.750731384744768 ], [ 115.155203496229944, -33.7507777787444 ], [ 115.154649995334012, -33.750528198960183 ], [ 115.154307061028533, -33.751023632775691 ], [ 115.154380779683379, -33.751059190108492 ], [ 115.154353898860904, -33.751090345111336 ], [ 115.154342494866285, -33.751118790937419 ], [ 115.154355120714683, -33.751198371564037 ], [ 115.155317536176256, -33.751633862386456 ], [ 115.15577613951524, -33.75097723887707 ] ] ] } },
{ "type": "Feature", "properties": { "attachmentName": [ ], "attachmentPath": [ ], "color": "#ff4081", "creationDate": "2026-07-10T08:16:23Z", "description": "6 Rows", "fill": 1.0, "name": "Block E - CabSauv - 0.142 ha", "visualType": "ANNOTATION" }, "geometry": { "type": "Polygon", "coordinates": [ [ [ 115.150105225669051, -33.75388716852575 ], [ 115.150889132418854, -33.753889354199821 ], [ 115.150949068982356, -33.753719746477927 ], [ 115.150109431749797, -33.753716686519859 ], [ 115.150105225669051, -33.75388716852575 ] ] ] } },
{ "type": "Feature", "properties": { "attachmentName": [ ], "attachmentPath": [ ], "color": "#ff4081", "creationDate": "2026-07-10T08:16:23Z", "description": "14 Rows", "fill": 1.0, "name": "Block F - CabSauv - 0.156 ha", "visualType": "ANNOTATION" }, "geometry": { "type": "Polygon", "coordinates": [ [ [ 115.149990135406597, -33.753400809439924 ], [ 115.150147489241533, -33.753423226873814 ], [ 115.15022130409784, -33.753018976807454 ], [ 115.149797863162803, -33.752955399129767 ], [ 115.149743496551139, -33.753153482060888 ], [ 115.149990135406597, -33.753400809439924 ] ] ] } },
{ "type": "Feature", "properties": { "attachmentName": [ ], "attachmentPath": [ ], "color": "#ff4081", "creationDate": "2026-07-10T08:16:23Z", "description": "21 Rows", "fill": 1.0, "name": "Block G - CabSauv - 0.636 ha", "visualType": "ANNOTATION" }, "geometry": { "type": "Polygon", "coordinates": [ [ [ 115.149803752460571, -33.75294707853854 ], [ 115.150591164309162, -33.753066226091548 ], [ 115.150654413482584, -33.752803285881463 ], [ 115.151040086902924, -33.752860032110767 ], [ 115.151121869711289, -33.752677563490693 ], [ 115.151173070766504, -33.752523612499488 ], [ 115.150063231980766, -33.752358262651441 ], [ 115.149891561475556, -33.752659673745875 ], [ 115.149803752460571, -33.75294707853854 ] ] ] } },
{ "type": "Feature", "properties": { "attachmentName": [ ], "attachmentPath": [ ], "color": "#ff4081", "creationDate": "2026-07-10T08:16:23Z", "description": "5 Rows", "fill": 1.0, "name": "Block H - CabSauv - 0.254 ha", "visualType": "ANNOTATION" }, "geometry": { "type": "Polygon", "coordinates": [ [ [ 115.151647386124296, -33.751997351689809 ], [ 115.152487367380274, -33.750544422226618 ], [ 115.152350507404833, -33.75049273137418 ], [ 115.151506883634852, -33.751940039181434 ], [ 115.151647386124296, -33.751997351689809 ] ] ] } },
{ "type": "Feature", "properties": { "attachmentName": [ ], "attachmentPath": [ ], "color": "#ffab40", "creationDate": "2026-07-10T08:16:23Z", "description": "8 Rows", "fill": 1.0, "name": "Block H - Chardonnay - 0.405 ha", "visualType": "ANNOTATION" }, "geometry": { "type": "Polygon", "coordinates": [ [ [ 115.151656709611814, -33.751998687205493 ], [ 115.151878071505791, -33.752086593886517 ], [ 115.152721588453232, -33.750626046519628 ], [ 115.152497857056744, -33.750546790438094 ], [ 115.151656709611814, -33.751998687205493 ] ] ] } },
{ "type": "Feature", "properties": { "attachmentName": [ ], "attachmentPath": [ ], "color": "#ffab40", "creationDate": "2026-07-10T08:16:23Z", "description": "4 Rows", "fill": 1.0, "name": "Block I - Chardonnay - 0.296 ha", "visualType": "ANNOTATION" }, "geometry": { "type": "Polygon", "coordinates": [ [ [ 115.153217827095091, -33.749980426294506 ], [ 115.152012139979377, -33.752076870545118 ], [ 115.152155969628154, -33.752059670107712 ], [ 115.153359667086136, -33.749981658466616 ], [ 115.153217827095091, -33.749980426294506 ] ] ] } },
{ "type": "Feature", "properties": { "attachmentName": [ ], "attachmentPath": [ ], "color": "#e040fb", "creationDate": "2026-07-10T08:16:23Z", "description": "7 Rows", "fill": 1.0, "name": "Block I - Merlot - 0.516 ha", "visualType": "ANNOTATION" }, "geometry": { "type": "Polygon", "coordinates": [ [ [ 115.15336951978054, -33.749980532045029 ], [ 115.152164614787125, -33.75205714348359 ], [ 115.152439950286237, -33.752015064067507 ], [ 115.153604805314501, -33.74998614051146 ], [ 115.15336951978054, -33.749980532045029 ] ] ] } },
{ "type": "Feature", "properties": { "attachmentName": [ ], "attachmentPath": [ ], "color": "#69f0ae", "creationDate": "2026-07-10T08:16:23Z", "description": "8 Rows", "fill": 1.0, "name": "Block I - Verdelho - 0.560", "visualType": "ANNOTATION" }, "geometry": { "type": "Polygon", "coordinates": [ [ [ 115.152451548989973, -33.752013038482339 ], [ 115.152763190484904, -33.751953335078333 ], [ 115.153134432667173, -33.751309491693931 ], [ 115.153111558168973, -33.751300137989745 ], [ 115.153193823034599, -33.751151119173407 ], [ 115.153219612585076, -33.751159397782978 ], [ 115.153750985932788, -33.750242367628225 ], [ 115.153723314348724, -33.750231306068208 ], [ 115.153853852448094, -33.750005663823444 ], [ 115.153843443034646, -33.749997489522968 ], [ 115.153809901518514, -33.749987231604081 ], [ 115.153615784846409, -33.749985949345216 ], [ 115.152451548989973, -33.752013038482339 ] ] ] } }
]
}
