{
"type": "FeatureCollection",
"name": "block7boundary",
"crs": { "type": "name", "properties": { "name": "urn:ogc:def:crs:OGC:1.3:CRS84" } },
"features": [
{ "type": "Feature", "properties": { "name": "Brookland Valley 18 Feb 26" }, "geometry": { "type": "MultiPolygon", "coordinates": [ [ [ [ 115.026459925127369, -33.793323800102961 ], [ 115.026463059024877, -33.793307463407103 ], [ 115.026481862194203, -33.79323619754053 ], [ 115.026497531573852, -33.793163747856923 ], [ 115.026546818758959, -33.792944267337653 ], [ 115.029165307638721, -33.7936330126226 ], [ 115.028504631350017, -33.793948143118172 ], [ 115.026427477091829, -33.793400096974885 ], [ 115.026459925127369, -33.793323800102961 ] ] ] ] } }
]
}
