{
"type": "FeatureCollection",
"name": "NDVI 702 Zone3_Rx",
"features": [
{ "type": "Feature", "properties": { "appName": "Brookland Valley 18 Feb 26", "rate": 1.0, "rateInt": 1, "unit": "l/ha", "zone": 1 }, "geometry": { "type": "MultiPolygon", "coordinates": [ [ [ [ 115.0299761, -33.7923661 ], [ 115.0299535, -33.7923662 ], [ 115.0299533, -33.7923464 ], [ 115.0299296, -33.7923465 ], [ 115.0299287, -33.7922474 ], [ 115.0299524, -33.7922472 ], [ 115.0299517, -33.7921679 ], [ 115.029928, -33.792168 ], [ 115.0299265, -33.7920094 ], [ 115.0299028, -33.7920095 ], [ 115.0299024, -33.7919699 ], [ 115.0299262, -33.7919697 ], [ 115.0299258, -33.79193 ], [ 115.029902, -33.7919302 ], [ 115.0299003, -33.7917319 ], [ 115.029924, -33.7917317 ], [ 115.0299217, -33.7914739 ], [ 115.0298979, -33.791474 ], [ 115.0298952, -33.7911765 ], [ 115.0298715, -33.7911767 ], [ 115.0298711, -33.791137 ], [ 115.0298473, -33.7911371 ], [ 115.0298455, -33.7909388 ], [ 115.0298433, -33.7909388 ], [ 115.0298263, -33.7909596 ], [ 115.029822, -33.7909624 ], [ 115.0298221, -33.7909786 ], [ 115.0297976, -33.7909788 ], [ 115.0297933, -33.7909817 ], [ 115.0297599, -33.7909945 ], [ 115.029751, -33.7909965 ], [ 115.0297511, -33.7909989 ], [ 115.0297395, -33.790999 ], [ 115.0297098, -33.7910054 ], [ 115.0296562, -33.791018 ], [ 115.0296562, -33.7910193 ], [ 115.0296504, -33.7910194 ], [ 115.0296455, -33.7910206 ], [ 115.0296464, -33.7911979 ], [ 115.0296578, -33.7911979 ], [ 115.0296582, -33.7912375 ], [ 115.029682, -33.7912374 ], [ 115.0296829, -33.7913365 ], [ 115.0296591, -33.7913367 ], [ 115.0296593, -33.7913565 ], [ 115.0296472, -33.7913566 ], [ 115.0296498, -33.7918524 ], [ 115.0296875, -33.7918522 ], [ 115.0296879, -33.7918919 ], [ 115.0297117, -33.7918917 ], [ 115.0297118, -33.7919116 ], [ 115.0296881, -33.7919117 ], [ 115.0296886, -33.7919712 ], [ 115.0296649, -33.7919714 ], [ 115.029665, -33.7919912 ], [ 115.0296505, -33.7919913 ], [ 115.0296507, -33.792031 ], [ 115.0296654, -33.7920309 ], [ 115.0296656, -33.7920507 ], [ 115.0296893, -33.7920505 ], [ 115.0296901, -33.7921299 ], [ 115.0296663, -33.79213 ], [ 115.0296665, -33.7921499 ], [ 115.0296514, -33.79215 ], [ 115.0296525, -33.7923694 ], [ 115.0296784, -33.7923878 ], [ 115.0296924, -33.7923877 ], [ 115.0296925, -33.7923978 ], [ 115.0296938, -33.7923988 ], [ 115.0297523, -33.7924168 ], [ 115.0298164, -33.7924134 ], [ 115.0298351, -33.7924075 ], [ 115.0298351, -33.7924066 ], [ 115.0298378, -33.7924066 ], [ 115.0298603, -33.7923995 ], [ 115.0298825, -33.7923935 ], [ 115.0298824, -33.7923865 ], [ 115.0299087, -33.7923863 ], [ 115.0299398, -33.7923779 ], [ 115.0299761, -33.7923661 ] ] ], [ [ [ 115.0312008, -33.7910636 ], [ 115.0312012, -33.7911087 ], [ 115.0311774, -33.7911089 ], [ 115.0311776, -33.7911287 ], [ 115.0310826, -33.7911293 ], [ 115.0310824, -33.7911095 ], [ 115.0309399, -33.7911104 ], [ 115.0309401, -33.7911302 ], [ 115.0309163, -33.7911304 ], [ 115.0309168, -33.7911899 ], [ 115.0309406, -33.7911897 ], [ 115.0309408, -33.7912096 ], [ 115.0309645, -33.7912094 ], [ 115.0309647, -33.7912293 ], [ 115.0309885, -33.7912291 ], [ 115.0309886, -33.7912489 ], [ 115.0309411, -33.7912492 ], [ 115.0309415, -33.7912889 ], [ 115.030989, -33.7912886 ], [ 115.0309892, -33.7913084 ], [ 115.0311555, -33.7913074 ], [ 115.0311558, -33.791347 ], [ 115.0311796, -33.7913469 ], [ 115.0311799, -33.7913866 ], [ 115.0311807, -33.7913866 ], [ 115.0312033, -33.7913458 ], [ 115.0312032, -33.7913269 ], [ 115.0312139, -33.7913268 ], [ 115.031214, -33.7913266 ], [ 115.0312086, -33.791065 ], [ 115.0312008, -33.7910636 ] ] ], [ [ [ 115.0307981, -33.7911906 ], [ 115.0307979, -33.7911708 ], [ 115.0307741, -33.791171 ], [ 115.0307743, -33.7911908 ], [ 115.0307981, -33.7911906 ] ] ], [ [ [ 115.0309667, -33.7914474 ], [ 115.030966, -33.7913681 ], [ 115.0309185, -33.7913684 ], [ 115.0309194, -33.7914676 ], [ 115.0309431, -33.7914674 ], [ 115.0309429, -33.7914476 ], [ 115.0309667, -33.7914474 ] ] ], [ [ [ 115.0311587, -33.7914264 ], [ 115.03118, -33.791388 ], [ 115.0311799, -33.7913866 ], [ 115.0311562, -33.7913867 ], [ 115.0311565, -33.7914264 ], [ 115.0311587, -33.7914264 ] ] ], [ [ [ 115.0311332, -33.7914723 ], [ 115.0311476, -33.7914463 ], [ 115.031133, -33.7914464 ], [ 115.0311332, -33.7914723 ] ] ], [ [ [ 115.0307779, -33.7915875 ], [ 115.0307304, -33.7915878 ], [ 115.0307308, -33.7916274 ], [ 115.0307783, -33.7916271 ], [ 115.0307779, -33.7915875 ] ] ], [ [ [ 115.0309691, -33.7917093 ], [ 115.030969, -33.7917053 ], [ 115.0309215, -33.7917056 ], [ 115.0309213, -33.7916857 ], [ 115.0308976, -33.7916859 ], [ 115.0308972, -33.7916462 ], [ 115.030826, -33.7916467 ], [ 115.0308258, -33.7916268 ], [ 115.0307783, -33.7916271 ], [ 115.0307788, -33.7916866 ], [ 115.0307551, -33.7916868 ], [ 115.0307552, -33.7917066 ], [ 115.0307315, -33.7917068 ], [ 115.0307322, -33.7917861 ], [ 115.030756, -33.7917859 ], [ 115.0307561, -33.7918058 ], [ 115.0308036, -33.7918055 ], [ 115.030804, -33.7918451 ], [ 115.0308278, -33.791845 ], [ 115.0308279, -33.7918625 ], [ 115.0308523, -33.7918413 ], [ 115.030875, -33.7918156 ], [ 115.0308749, -33.791805 ], [ 115.0308845, -33.791805 ], [ 115.0308985, -33.7917891 ], [ 115.0308985, -33.791785 ], [ 115.0309021, -33.791785 ], [ 115.0309156, -33.7917698 ], [ 115.0309456, -33.7917359 ], [ 115.0309455, -33.7917252 ], [ 115.030955, -33.7917252 ], [ 115.0309691, -33.7917093 ] ] ], [ [ [ 115.0309727, -33.7917052 ], [ 115.0310096, -33.7916634 ], [ 115.0310354, -33.7916255 ], [ 115.0310158, -33.7916256 ], [ 115.031016, -33.7916455 ], [ 115.0309922, -33.7916456 ], [ 115.0309924, -33.7916654 ], [ 115.0309687, -33.7916656 ], [ 115.030969, -33.7917053 ], [ 115.0309727, -33.7917052 ] ] ], [ [ [ 115.0305665, -33.7918467 ], [ 115.030519, -33.791847 ], [ 115.0305197, -33.7919263 ], [ 115.0305672, -33.791926 ], [ 115.0305665, -33.7918467 ] ] ] ] } },
{ "type": "Feature", "properties": { "appName": "Brookland Valley 18 Feb 26", "rate": 2.0, "rateInt": 2, "unit": "l/ha", "zone": 2 }, "geometry": { "type": "MultiPolygon", "coordinates": [ [ [ [ 115.0308279, -33.7918625 ], [ 115.0308278, -33.791845 ], [ 115.030804, -33.7918451 ], [ 115.0308036, -33.7918055 ], [ 115.0307561, -33.7918058 ], [ 115.030756, -33.7917859 ], [ 115.0307322, -33.7917861 ], [ 115.0307315, -33.7917068 ], [ 115.0307552, -33.7917066 ], [ 115.0307551, -33.7916868 ], [ 115.0307788, -33.7916866 ], [ 115.0307783, -33.7916271 ], [ 115.0308258, -33.7916268 ], [ 115.030826, -33.7916467 ], [ 115.0308972, -33.7916462 ], [ 115.0308976, -33.7916859 ], [ 115.0309213, -33.7916857 ], [ 115.0309215, -33.7917056 ], [ 115.030969, -33.7917053 ], [ 115.0309687, -33.7916656 ], [ 115.0309924, -33.7916654 ], [ 115.0309922, -33.7916456 ], [ 115.031016, -33.7916455 ], [ 115.0310158, -33.7916256 ], [ 115.0310354, -33.7916255 ], [ 115.0311054, -33.7915225 ], [ 115.0311332, -33.7914723 ], [ 115.031133, -33.7914464 ], [ 115.0311476, -33.7914463 ], [ 115.0311566, -33.7914302 ], [ 115.0311562, -33.7913867 ], [ 115.0311799, -33.7913866 ], [ 115.0311796, -33.7913469 ], [ 115.0311558, -33.791347 ], [ 115.0311555, -33.7913074 ], [ 115.0309892, -33.7913084 ], [ 115.030989, -33.7912886 ], [ 115.0309415, -33.7912889 ], [ 115.0309411, -33.7912492 ], [ 115.0309886, -33.7912489 ], [ 115.0309885, -33.7912291 ], [ 115.0309647, -33.7912293 ], [ 115.0309645, -33.7912094 ], [ 115.0309408, -33.7912096 ], [ 115.0309406, -33.7911897 ], [ 115.0309168, -33.7911899 ], [ 115.0309163, -33.7911304 ], [ 115.0309401, -33.7911302 ], [ 115.0309399, -33.7911104 ], [ 115.0310824, -33.7911095 ], [ 115.0310826, -33.7911293 ], [ 115.0311776, -33.7911287 ], [ 115.0311774, -33.7911089 ], [ 115.0312012, -33.7911087 ], [ 115.0312008, -33.7910636 ], [ 115.031126, -33.7910497 ], [ 115.0311056, -33.7910498 ], [ 115.0311056, -33.7910459 ], [ 115.0306089, -33.7909538 ], [ 115.0305821, -33.790954 ], [ 115.0305821, -33.7909488 ], [ 115.0305583, -33.7909444 ], [ 115.0305587, -33.7909938 ], [ 115.0305825, -33.7909937 ], [ 115.0305827, -33.7910135 ], [ 115.0306064, -33.7910133 ], [ 115.0306062, -33.7909935 ], [ 115.03063, -33.7909934 ], [ 115.0306298, -33.7909735 ], [ 115.0307011, -33.7909731 ], [ 115.0307012, -33.7909929 ], [ 115.0307488, -33.7909926 ], [ 115.0307489, -33.7910124 ], [ 115.0308202, -33.791012 ], [ 115.0308204, -33.7910318 ], [ 115.0308679, -33.7910315 ], [ 115.0308684, -33.791091 ], [ 115.0308209, -33.7910913 ], [ 115.0308207, -33.7910715 ], [ 115.030797, -33.7910716 ], [ 115.0307968, -33.7910518 ], [ 115.0307493, -33.7910521 ], [ 115.0307495, -33.7910719 ], [ 115.0306545, -33.7910725 ], [ 115.0306543, -33.7910527 ], [ 115.0306305, -33.7910529 ], [ 115.0306303, -33.791033 ], [ 115.0305828, -33.7910333 ], [ 115.030583, -33.7910532 ], [ 115.0305355, -33.7910535 ], [ 115.0305357, -33.7910733 ], [ 115.0304644, -33.7910737 ], [ 115.0304646, -33.7910936 ], [ 115.0304408, -33.7910937 ], [ 115.0304414, -33.7911532 ], [ 115.0304176, -33.7911534 ], [ 115.0304185, -33.7912525 ], [ 115.0303948, -33.7912527 ], [ 115.030395, -33.7912725 ], [ 115.0303712, -33.7912727 ], [ 115.030371, -33.7912528 ], [ 115.0303473, -33.791253 ], [ 115.0303467, -33.7911935 ], [ 115.0303705, -33.7911933 ], [ 115.0303703, -33.7911735 ], [ 115.0303941, -33.7911734 ], [ 115.0303932, -33.7910742 ], [ 115.0303219, -33.7910746 ], [ 115.0303221, -33.7910945 ], [ 115.0302983, -33.7910946 ], [ 115.030299, -33.791174 ], [ 115.0302278, -33.7911744 ], [ 115.030228, -33.7911942 ], [ 115.0302042, -33.7911944 ], [ 115.0302046, -33.7912341 ], [ 115.0301808, -33.7912342 ], [ 115.0301813, -33.7912937 ], [ 115.0300388, -33.7912946 ], [ 115.0300385, -33.7912549 ], [ 115.0300147, -33.7912551 ], [ 115.0300145, -33.7912353 ], [ 115.0299908, -33.7912354 ], [ 115.0299906, -33.7912156 ], [ 115.0299668, -33.7912157 ], [ 115.0299667, -33.7911959 ], [ 115.0299429, -33.791196 ], [ 115.0299425, -33.7911564 ], [ 115.0299188, -33.7911565 ], [ 115.0299184, -33.7911169 ], [ 115.0298947, -33.791117 ], [ 115.0298936, -33.790998 ], [ 115.0299173, -33.7909979 ], [ 115.0299159, -33.7908392 ], [ 115.0299872, -33.7908387 ], [ 115.0299872, -33.7908385 ], [ 115.0299058, -33.7908234 ], [ 115.0298946, -33.7908734 ], [ 115.0298925, -33.7908767 ], [ 115.0298925, -33.790879 ], [ 115.029891, -33.790879 ], [ 115.029871, -33.7909103 ], [ 115.0298691, -33.7909123 ], [ 115.0298691, -33.7909188 ], [ 115.0298625, -33.7909189 ], [ 115.0298475, -33.7909338 ], [ 115.0298455, -33.7909362 ], [ 115.0298473, -33.7911371 ], [ 115.0298711, -33.791137 ], [ 115.0298715, -33.7911767 ], [ 115.0298952, -33.7911765 ], [ 115.0298979, -33.791474 ], [ 115.0299217, -33.7914739 ], [ 115.029924, -33.7917317 ], [ 115.0299003, -33.7917319 ], [ 115.029902, -33.7919302 ], [ 115.0299258, -33.79193 ], [ 115.0299262, -33.7919697 ], [ 115.0299024, -33.7919699 ], [ 115.0299028, -33.7920095 ], [ 115.0299265, -33.7920094 ], [ 115.029928, -33.792168 ], [ 115.0299517, -33.7921679 ], [ 115.0299524, -33.7922472 ], [ 115.0299287, -33.7922474 ], [ 115.0299296, -33.7923465 ], [ 115.0299533, -33.7923464 ], [ 115.0299535, -33.7923662 ], [ 115.0299761, -33.7923661 ], [ 115.030001, -33.792358 ], [ 115.0300008, -33.7923461 ], [ 115.0300246, -33.7923459 ], [ 115.0300246, -33.7923503 ], [ 115.0300496, -33.7923421 ], [ 115.0301904, -33.7922858 ], [ 115.0301903, -33.7922854 ], [ 115.0301914, -33.7922854 ], [ 115.0302254, -33.7922718 ], [ 115.0302377, -33.7922661 ], [ 115.0302377, -33.7922653 ], [ 115.0302394, -33.7922652 ], [ 115.0303489, -33.792214 ], [ 115.030356, -33.7922097 ], [ 115.0303559, -33.792205 ], [ 115.0303637, -33.792205 ], [ 115.0304268, -33.7921666 ], [ 115.0304268, -33.7921649 ], [ 115.0304296, -33.7921649 ], [ 115.0304505, -33.7921522 ], [ 115.0304504, -33.7921449 ], [ 115.0304626, -33.7921448 ], [ 115.0305213, -33.7921091 ], [ 115.0305213, -33.7921048 ], [ 115.0305285, -33.7921047 ], [ 115.0305339, -33.7921015 ], [ 115.0306365, -33.7920285 ], [ 115.0306394, -33.792026 ], [ 115.0306393, -33.7920247 ], [ 115.0306409, -33.7920247 ], [ 115.0306629, -33.7920056 ], [ 115.0306629, -33.7920047 ], [ 115.0306639, -33.7920047 ], [ 115.0306865, -33.7919851 ], [ 115.0306865, -33.7919847 ], [ 115.0306869, -33.7919847 ], [ 115.0308279, -33.7918625 ] ], [ [ 115.0300401, -33.7914335 ], [ 115.0300163, -33.7914336 ], [ 115.0300165, -33.7914534 ], [ 115.029969, -33.7914537 ], [ 115.0299688, -33.7914339 ], [ 115.0299451, -33.7914341 ], [ 115.0299447, -33.7913944 ], [ 115.0299685, -33.7913942 ], [ 115.0299683, -33.7913744 ], [ 115.0300158, -33.7913741 ], [ 115.030016, -33.7913939 ], [ 115.0300397, -33.7913938 ], [ 115.0300401, -33.7914335 ] ], [ [ 115.0305672, -33.791926 ], [ 115.0305197, -33.7919263 ], [ 115.030519, -33.791847 ], [ 115.0305665, -33.7918467 ], [ 115.0305672, -33.791926 ] ], [ [ 115.0310626, -33.791546 ], [ 115.0310389, -33.7915461 ], [ 115.031039, -33.791566 ], [ 115.0309915, -33.7915663 ], [ 115.0309908, -33.7914869 ], [ 115.0310146, -33.7914868 ], [ 115.0310142, -33.7914471 ], [ 115.0310617, -33.7914468 ], [ 115.0310619, -33.7914667 ], [ 115.0310856, -33.7914665 ], [ 115.031086, -33.7915062 ], [ 115.0310622, -33.7915063 ], [ 115.0310626, -33.791546 ] ], [ [ 115.0303255, -33.7914713 ], [ 115.0303492, -33.7914712 ], [ 115.0303491, -33.7914513 ], [ 115.0303728, -33.7914512 ], [ 115.030373, -33.791471 ], [ 115.0303968, -33.7914709 ], [ 115.0303969, -33.7914907 ], [ 115.0303732, -33.7914908 ], [ 115.0303734, -33.7915107 ], [ 115.0303259, -33.791511 ], [ 115.0303255, -33.7914713 ] ], [ [ 115.0309667, -33.7914474 ], [ 115.0309429, -33.7914476 ], [ 115.0309431, -33.7914674 ], [ 115.0309194, -33.7914676 ], [ 115.0309185, -33.7913684 ], [ 115.030966, -33.7913681 ], [ 115.0309667, -33.7914474 ] ], [ [ 115.0307981, -33.7911906 ], [ 115.0307743, -33.7911908 ], [ 115.0307741, -33.791171 ], [ 115.0307979, -33.7911708 ], [ 115.0307981, -33.7911906 ] ], [ [ 115.0306572, -33.79137 ], [ 115.0307284, -33.7913696 ], [ 115.0307286, -33.7913894 ], [ 115.0307524, -33.7913893 ], [ 115.0307527, -33.7914289 ], [ 115.030729, -33.7914291 ], [ 115.0307291, -33.7914489 ], [ 115.0306579, -33.7914494 ], [ 115.0306575, -33.7914097 ], [ 115.0306338, -33.7914099 ], [ 115.0306336, -33.79139 ], [ 115.0306573, -33.7913899 ], [ 115.0306572, -33.79137 ] ], [ [ 115.0305884, -33.7916482 ], [ 115.0305881, -33.7916085 ], [ 115.0306356, -33.7916082 ], [ 115.0306357, -33.791628 ], [ 115.030612, -33.7916282 ], [ 115.0306122, -33.791648 ], [ 115.0305884, -33.7916482 ] ], [ [ 115.0301903, -33.7922854 ], [ 115.0300953, -33.792286 ], [ 115.0300955, -33.7923058 ], [ 115.030048, -33.7923061 ], [ 115.0300482, -33.792326 ], [ 115.0300007, -33.7923263 ], [ 115.0300005, -33.7923064 ], [ 115.0299767, -33.7923066 ], [ 115.0299764, -33.7922669 ], [ 115.0300001, -33.7922668 ], [ 115.029999, -33.7921478 ], [ 115.0299753, -33.7921479 ], [ 115.029973, -33.7918901 ], [ 115.0299492, -33.7918902 ], [ 115.0299483, -33.7917911 ], [ 115.0299721, -33.7917909 ], [ 115.0299712, -33.7916917 ], [ 115.0299949, -33.7916916 ], [ 115.0299947, -33.7916718 ], [ 115.0300185, -33.7916716 ], [ 115.0300183, -33.7916518 ], [ 115.0300658, -33.7916515 ], [ 115.030066, -33.7916713 ], [ 115.0300897, -33.7916712 ], [ 115.0300905, -33.7917505 ], [ 115.0300667, -33.7917506 ], [ 115.0300669, -33.7917705 ], [ 115.0300431, -33.7917706 ], [ 115.0300435, -33.7918103 ], [ 115.0300673, -33.7918101 ], [ 115.0300674, -33.79183 ], [ 115.0300912, -33.7918298 ], [ 115.0300914, -33.7918497 ], [ 115.0301151, -33.7918495 ], [ 115.0301153, -33.7918693 ], [ 115.0301628, -33.791869 ], [ 115.0301625, -33.7918294 ], [ 115.0301862, -33.7918292 ], [ 115.030186, -33.7918094 ], [ 115.0302098, -33.7918092 ], [ 115.0302096, -33.7917894 ], [ 115.0302334, -33.7917893 ], [ 115.0302328, -33.7917298 ], [ 115.0302091, -33.7917299 ], [ 115.0302087, -33.7916902 ], [ 115.0302562, -33.7916899 ], [ 115.030256, -33.7916701 ], [ 115.0303986, -33.7916692 ], [ 115.0303987, -33.791689 ], [ 115.0304225, -33.7916889 ], [ 115.0304227, -33.7917087 ], [ 115.0304464, -33.7917086 ], [ 115.0304468, -33.7917482 ], [ 115.030423, -33.7917484 ], [ 115.0304239, -33.7918476 ], [ 115.0304477, -33.7918474 ], [ 115.0304479, -33.7918672 ], [ 115.0304241, -33.7918674 ], [ 115.0304245, -33.7919071 ], [ 115.0304007, -33.7919072 ], [ 115.0304013, -33.7919667 ], [ 115.030425, -33.7919666 ], [ 115.0304254, -33.7920062 ], [ 115.0304491, -33.7920061 ], [ 115.03045, -33.7921052 ], [ 115.0304263, -33.7921054 ], [ 115.0304266, -33.7921451 ], [ 115.0303791, -33.7921454 ], [ 115.0303793, -33.7921652 ], [ 115.0302843, -33.7921658 ], [ 115.0302845, -33.7921856 ], [ 115.0302607, -33.7921858 ], [ 115.0302611, -33.7922254 ], [ 115.0302373, -33.7922256 ], [ 115.0302375, -33.7922454 ], [ 115.0302137, -33.7922456 ], [ 115.0302139, -33.7922654 ], [ 115.0301902, -33.7922656 ], [ 115.0301903, -33.7922854 ] ], [ [ 115.030395, -33.7912725 ], [ 115.0304187, -33.7912724 ], [ 115.0304189, -33.7912922 ], [ 115.0304426, -33.7912921 ], [ 115.030443, -33.7913317 ], [ 115.0304668, -33.7913316 ], [ 115.0304673, -33.7913911 ], [ 115.0304435, -33.7913912 ], [ 115.0304437, -33.7914111 ], [ 115.0303962, -33.7914114 ], [ 115.0303959, -33.7913717 ], [ 115.0303721, -33.7913718 ], [ 115.0303717, -33.7913322 ], [ 115.0303955, -33.791332 ], [ 115.030395, -33.7912725 ] ], [ [ 115.0307783, -33.7916271 ], [ 115.0307308, -33.7916274 ], [ 115.0307304, -33.7915878 ], [ 115.0307779, -33.7915875 ], [ 115.0307783, -33.7916271 ] ] ], [ [ [ 115.0300824, -33.7908562 ], [ 115.030011, -33.7908429 ], [ 115.0300111, -33.7908584 ], [ 115.0300824, -33.790858 ], [ 115.0300824, -33.7908562 ] ] ], [ [ [ 115.0304631, -33.7909268 ], [ 115.0302987, -33.7908963 ], [ 115.0302965, -33.7908963 ], [ 115.0302965, -33.7908959 ], [ 115.0301299, -33.790865 ], [ 115.0301301, -33.7908775 ], [ 115.0301538, -33.7908774 ], [ 115.030154, -33.7908972 ], [ 115.0302015, -33.7908969 ], [ 115.0302017, -33.7909167 ], [ 115.0303442, -33.7909158 ], [ 115.0303444, -33.7909357 ], [ 115.0303919, -33.7909354 ], [ 115.0303921, -33.7909552 ], [ 115.0304633, -33.7909547 ], [ 115.0304631, -33.7909268 ] ] ], [ [ [ 115.0296464, -33.7911979 ], [ 115.0296472, -33.7913566 ], [ 115.0296593, -33.7913565 ], [ 115.0296591, -33.7913367 ], [ 115.0296829, -33.7913365 ], [ 115.029682, -33.7912374 ], [ 115.0296582, -33.7912375 ], [ 115.0296578, -33.7911979 ], [ 115.0296464, -33.7911979 ] ] ], [ [ [ 115.0296498, -33.7918524 ], [ 115.0296505, -33.7919913 ], [ 115.029665, -33.7919912 ], [ 115.0296649, -33.7919714 ], [ 115.0296886, -33.7919712 ], [ 115.0296881, -33.7919117 ], [ 115.0297118, -33.7919116 ], [ 115.0297117, -33.7918917 ], [ 115.0296879, -33.7918919 ], [ 115.0296875, -33.7918522 ], [ 115.0296498, -33.7918524 ] ] ], [ [ [ 115.0296514, -33.79215 ], [ 115.0296665, -33.7921499 ], [ 115.0296663, -33.79213 ], [ 115.0296901, -33.7921299 ], [ 115.0296893, -33.7920505 ], [ 115.0296656, -33.7920507 ], [ 115.0296654, -33.7920309 ], [ 115.0296507, -33.792031 ], [ 115.0296514, -33.79215 ] ] ] ] } },
{ "type": "Feature", "properties": { "appName": "Brookland Valley 18 Feb 26", "rate": 3.0, "rateInt": 3, "unit": "l/ha", "zone": 3 }, "geometry": { "type": "MultiPolygon", "coordinates": [ [ [ [ 115.0305055, -33.7909346 ], [ 115.0304632, -33.7909349 ], [ 115.0304633, -33.7909547 ], [ 115.0303921, -33.7909552 ], [ 115.0303919, -33.7909354 ], [ 115.0303444, -33.7909357 ], [ 115.0303442, -33.7909158 ], [ 115.0302017, -33.7909167 ], [ 115.0302015, -33.7908969 ], [ 115.030154, -33.7908972 ], [ 115.0301538, -33.7908774 ], [ 115.0301301, -33.7908775 ], [ 115.0301299, -33.790865 ], [ 115.0300918, -33.7908579 ], [ 115.0300111, -33.7908584 ], [ 115.030011, -33.7908429 ], [ 115.0299884, -33.7908387 ], [ 115.0299159, -33.7908392 ], [ 115.0299173, -33.7909979 ], [ 115.0298936, -33.790998 ], [ 115.0298947, -33.791117 ], [ 115.0299184, -33.7911169 ], [ 115.0299188, -33.7911565 ], [ 115.0299425, -33.7911564 ], [ 115.0299429, -33.791196 ], [ 115.0299667, -33.7911959 ], [ 115.0299668, -33.7912157 ], [ 115.0299906, -33.7912156 ], [ 115.0299908, -33.7912354 ], [ 115.0300145, -33.7912353 ], [ 115.0300147, -33.7912551 ], [ 115.0300385, -33.7912549 ], [ 115.0300388, -33.7912946 ], [ 115.0301813, -33.7912937 ], [ 115.0301808, -33.7912342 ], [ 115.0302046, -33.7912341 ], [ 115.0302042, -33.7911944 ], [ 115.030228, -33.7911942 ], [ 115.0302278, -33.7911744 ], [ 115.030299, -33.791174 ], [ 115.0302983, -33.7910946 ], [ 115.0303221, -33.7910945 ], [ 115.0303219, -33.7910746 ], [ 115.0303932, -33.7910742 ], [ 115.0303941, -33.7911734 ], [ 115.0303703, -33.7911735 ], [ 115.0303705, -33.7911933 ], [ 115.0303467, -33.7911935 ], [ 115.0303473, -33.791253 ], [ 115.030371, -33.7912528 ], [ 115.0303712, -33.7912727 ], [ 115.030395, -33.7912725 ], [ 115.0303948, -33.7912527 ], [ 115.0304185, -33.7912525 ], [ 115.0304176, -33.7911534 ], [ 115.0304414, -33.7911532 ], [ 115.0304408, -33.7910937 ], [ 115.0304646, -33.7910936 ], [ 115.0304644, -33.7910737 ], [ 115.0305357, -33.7910733 ], [ 115.0305355, -33.7910535 ], [ 115.030583, -33.7910532 ], [ 115.0305828, -33.7910333 ], [ 115.0306303, -33.791033 ], [ 115.0306305, -33.7910529 ], [ 115.0306543, -33.7910527 ], [ 115.0306545, -33.7910725 ], [ 115.0307495, -33.7910719 ], [ 115.0307493, -33.7910521 ], [ 115.0307968, -33.7910518 ], [ 115.030797, -33.7910716 ], [ 115.0308207, -33.7910715 ], [ 115.0308209, -33.7910913 ], [ 115.0308684, -33.791091 ], [ 115.0308679, -33.7910315 ], [ 115.0308204, -33.7910318 ], [ 115.0308202, -33.791012 ], [ 115.0307489, -33.7910124 ], [ 115.0307488, -33.7909926 ], [ 115.0307012, -33.7909929 ], [ 115.0307011, -33.7909731 ], [ 115.0306298, -33.7909735 ], [ 115.03063, -33.7909934 ], [ 115.0306062, -33.7909935 ], [ 115.0306064, -33.7910133 ], [ 115.0305827, -33.7910135 ], [ 115.0305825, -33.7909937 ], [ 115.0305587, -33.7909938 ], [ 115.0305583, -33.7909444 ], [ 115.0305055, -33.7909346 ] ] ], [ [ [ 115.0303955, -33.791332 ], [ 115.0303717, -33.7913322 ], [ 115.0303721, -33.7913718 ], [ 115.0303959, -33.7913717 ], [ 115.0303962, -33.7914114 ], [ 115.0304437, -33.7914111 ], [ 115.0304435, -33.7913912 ], [ 115.0304673, -33.7913911 ], [ 115.0304668, -33.7913316 ], [ 115.030443, -33.7913317 ], [ 115.0304426, -33.7912921 ], [ 115.0304189, -33.7912922 ], [ 115.0304187, -33.7912724 ], [ 115.030395, -33.7912725 ], [ 115.0303955, -33.791332 ] ] ], [ [ [ 115.0299688, -33.7914339 ], [ 115.029969, -33.7914537 ], [ 115.0300165, -33.7914534 ], [ 115.0300163, -33.7914336 ], [ 115.0300401, -33.7914335 ], [ 115.0300397, -33.7913938 ], [ 115.030016, -33.7913939 ], [ 115.0300158, -33.7913741 ], [ 115.0299683, -33.7913744 ], [ 115.0299685, -33.7913942 ], [ 115.0299447, -33.7913944 ], [ 115.0299451, -33.7914341 ], [ 115.0299688, -33.7914339 ] ] ], [ [ [ 115.0306575, -33.7914097 ], [ 115.0306579, -33.7914494 ], [ 115.0307291, -33.7914489 ], [ 115.030729, -33.7914291 ], [ 115.0307527, -33.7914289 ], [ 115.0307524, -33.7913893 ], [ 115.0307286, -33.7913894 ], [ 115.0307284, -33.7913696 ], [ 115.0306572, -33.79137 ], [ 115.0306573, -33.7913899 ], [ 115.0306336, -33.79139 ], [ 115.0306338, -33.7914099 ], [ 115.0306575, -33.7914097 ] ] ], [ [ [ 115.030373, -33.791471 ], [ 115.0303728, -33.7914512 ], [ 115.0303491, -33.7914513 ], [ 115.0303492, -33.7914712 ], [ 115.0303255, -33.7914713 ], [ 115.0303259, -33.791511 ], [ 115.0303734, -33.7915107 ], [ 115.0303732, -33.7914908 ], [ 115.0303969, -33.7914907 ], [ 115.0303968, -33.7914709 ], [ 115.030373, -33.791471 ] ] ], [ [ [ 115.0309908, -33.7914869 ], [ 115.0309915, -33.7915663 ], [ 115.031039, -33.791566 ], [ 115.0310389, -33.7915461 ], [ 115.0310626, -33.791546 ], [ 115.0310622, -33.7915063 ], [ 115.031086, -33.7915062 ], [ 115.0310856, -33.7914665 ], [ 115.0310619, -33.7914667 ], [ 115.0310617, -33.7914468 ], [ 115.0310142, -33.7914471 ], [ 115.0310146, -33.7914868 ], [ 115.0309908, -33.7914869 ] ] ], [ [ [ 115.0306356, -33.7916082 ], [ 115.0305881, -33.7916085 ], [ 115.0305884, -33.7916482 ], [ 115.0306122, -33.791648 ], [ 115.030612, -33.7916282 ], [ 115.0306357, -33.791628 ], [ 115.0306356, -33.7916082 ] ] ], [ [ [ 115.029999, -33.7921478 ], [ 115.0300001, -33.7922668 ], [ 115.0299764, -33.7922669 ], [ 115.0299767, -33.7923066 ], [ 115.0300005, -33.7923064 ], [ 115.0300007, -33.7923263 ], [ 115.0300482, -33.792326 ], [ 115.030048, -33.7923061 ], [ 115.0300955, -33.7923058 ], [ 115.0300953, -33.792286 ], [ 115.0301903, -33.7922854 ], [ 115.0301902, -33.7922656 ], [ 115.0302139, -33.7922654 ], [ 115.0302137, -33.7922456 ], [ 115.0302375, -33.7922454 ], [ 115.0302373, -33.7922256 ], [ 115.0302611, -33.7922254 ], [ 115.0302607, -33.7921858 ], [ 115.0302845, -33.7921856 ], [ 115.0302843, -33.7921658 ], [ 115.0303793, -33.7921652 ], [ 115.0303791, -33.7921454 ], [ 115.0304266, -33.7921451 ], [ 115.0304263, -33.7921054 ], [ 115.03045, -33.7921052 ], [ 115.0304491, -33.7920061 ], [ 115.0304254, -33.7920062 ], [ 115.030425, -33.7919666 ], [ 115.0304013, -33.7919667 ], [ 115.0304007, -33.7919072 ], [ 115.0304245, -33.7919071 ], [ 115.0304241, -33.7918674 ], [ 115.0304479, -33.7918672 ], [ 115.0304477, -33.7918474 ], [ 115.0304239, -33.7918476 ], [ 115.030423, -33.7917484 ], [ 115.0304468, -33.7917482 ], [ 115.0304464, -33.7917086 ], [ 115.0304227, -33.7917087 ], [ 115.0304225, -33.7916889 ], [ 115.0303987, -33.791689 ], [ 115.0303986, -33.7916692 ], [ 115.030256, -33.7916701 ], [ 115.0302562, -33.7916899 ], [ 115.0302087, -33.7916902 ], [ 115.0302091, -33.7917299 ], [ 115.0302328, -33.7917298 ], [ 115.0302334, -33.7917893 ], [ 115.0302096, -33.7917894 ], [ 115.0302098, -33.7918092 ], [ 115.030186, -33.7918094 ], [ 115.0301862, -33.7918292 ], [ 115.0301625, -33.7918294 ], [ 115.0301628, -33.791869 ], [ 115.0301153, -33.7918693 ], [ 115.0301151, -33.7918495 ], [ 115.0300914, -33.7918497 ], [ 115.0300912, -33.7918298 ], [ 115.0300674, -33.79183 ], [ 115.0300673, -33.7918101 ], [ 115.0300435, -33.7918103 ], [ 115.0300431, -33.7917706 ], [ 115.0300669, -33.7917705 ], [ 115.0300667, -33.7917506 ], [ 115.0300905, -33.7917505 ], [ 115.0300897, -33.7916712 ], [ 115.030066, -33.7916713 ], [ 115.0300658, -33.7916515 ], [ 115.0300183, -33.7916518 ], [ 115.0300185, -33.7916716 ], [ 115.0299947, -33.7916718 ], [ 115.0299949, -33.7916916 ], [ 115.0299712, -33.7916917 ], [ 115.0299721, -33.7917909 ], [ 115.0299483, -33.7917911 ], [ 115.0299492, -33.7918902 ], [ 115.029973, -33.7918901 ], [ 115.0299753, -33.7921479 ], [ 115.029999, -33.7921478 ] ] ] ] } }
]
}
