{
"type": "FeatureCollection",
"name": "NDVI - Block E 3 zones_Rx",
"features": [
{ "type": "Feature", "properties": { "appName": "Island Brook 080125", "rate": 1.0, "rateInt": 1, "unit": "l/ha", "zone": 1 }, "geometry": { "type": "MultiPolygon", "coordinates": [ [ [ [ 115.1501256, -33.7537892 ], [ 115.150195, -33.7537893 ], [ 115.1501951, -33.75376 ], [ 115.1502652, -33.7537601 ], [ 115.1502653, -33.7537042 ], [ 115.1501277, -33.7537037 ], [ 115.1501256, -33.7537892 ] ] ], [ [ [ 115.1507906, -33.753876 ], [ 115.1509074, -33.7538764 ], [ 115.150917, -33.753849 ], [ 115.1507907, -33.7538488 ], [ 115.1507906, -33.753876 ] ] ] ] } },
{ "type": "Feature", "properties": { "appName": "Island Brook 080125", "rate": 2.0, "rateInt": 2, "unit": "l/ha", "zone": 2 }, "geometry": { "type": "Polygon", "coordinates": [ [ [ 115.1501256, -33.7537892 ], [ 115.1501249, -33.7538181 ], [ 115.1501247, -33.7538742 ], [ 115.1503701, -33.7538749 ], [ 115.1503701, -33.7538481 ], [ 115.1505454, -33.7538484 ], [ 115.1505454, -33.7538191 ], [ 115.1506856, -33.7538194 ], [ 115.1506855, -33.7538757 ], [ 115.1507906, -33.753876 ], [ 115.1507907, -33.7538488 ], [ 115.150917, -33.753849 ], [ 115.150931, -33.7538096 ], [ 115.150931, -33.7537905 ], [ 115.1509377, -33.7537905 ], [ 115.1509662, -33.7537098 ], [ 115.1509662, -33.7537067 ], [ 115.1502653, -33.7537042 ], [ 115.1502652, -33.7537601 ], [ 115.1501951, -33.75376 ], [ 115.150195, -33.7537893 ], [ 115.1501256, -33.7537892 ] ] ] } },
{ "type": "Feature", "properties": { "appName": "Island Brook 080125", "rate": 3.0, "rateInt": 3, "unit": "l/ha", "zone": 3 }, "geometry": { "type": "Polygon", "coordinates": [ [ [ 115.1503701, -33.7538749 ], [ 115.1506855, -33.7538757 ], [ 115.1506856, -33.7538194 ], [ 115.1505454, -33.7538191 ], [ 115.1505454, -33.7538484 ], [ 115.1503701, -33.7538481 ], [ 115.1503701, -33.7538749 ] ] ] } }
]
}
