{
"type": "FeatureCollection",
"name": "B6_Rx",
"features": [
{ "type": "Feature", "properties": { "appName": "Fishbone NW", "rate": 1.0, "rateInt": 1, "unit": "l/ha", "zone": 1 }, "geometry": { "type": "MultiPolygon", "coordinates": [ [ [ [ 115.0726004, -33.7918462 ], [ 115.0727057, -33.7918463 ], [ 115.0727057, -33.7918771 ], [ 115.0727427, -33.7918771 ], [ 115.0727426, -33.7919388 ], [ 115.0727796, -33.7919389 ], [ 115.0727795, -33.7920006 ], [ 115.0728165, -33.7920006 ], [ 115.0728165, -33.7920314 ], [ 115.0728904, -33.7920315 ], [ 115.0728903, -33.7920623 ], [ 115.0730381, -33.7920624 ], [ 115.0730382, -33.7920315 ], [ 115.0730751, -33.7920316 ], [ 115.0730751, -33.7920007 ], [ 115.0731121, -33.7920007 ], [ 115.0731121, -33.7919699 ], [ 115.0731491, -33.7919699 ], [ 115.0731491, -33.7919082 ], [ 115.0731861, -33.7919082 ], [ 115.0731861, -33.7918774 ], [ 115.073223, -33.7918774 ], [ 115.073223, -33.7918465 ], [ 115.0732969, -33.7918466 ], [ 115.073297, -33.7918157 ], [ 115.0733339, -33.7918157 ], [ 115.0733339, -33.7918143 ], [ 115.0731861, -33.7918142 ], [ 115.0731861, -33.7918156 ], [ 115.0726688, -33.7918154 ], [ 115.0726688, -33.7918139 ], [ 115.0726319, -33.7918139 ], [ 115.0726318, -33.7918154 ], [ 115.0726007, -33.7918154 ], [ 115.0726004, -33.7918462 ] ] ], [ [ [ 115.0741468, -33.7918161 ], [ 115.0739251, -33.791816 ], [ 115.0739251, -33.7918468 ], [ 115.0739621, -33.7918469 ], [ 115.073962, -33.7918777 ], [ 115.073999, -33.7918777 ], [ 115.073999, -33.7919086 ], [ 115.0740729, -33.7919086 ], [ 115.0740729, -33.7919395 ], [ 115.0741098, -33.7919395 ], [ 115.0741098, -33.7919086 ], [ 115.0741468, -33.7919086 ], [ 115.0741468, -33.7918161 ] ] ], [ [ [ 115.0719297, -33.791936 ], [ 115.0719297, -33.7919385 ], [ 115.0718558, -33.7919384 ], [ 115.0718558, -33.7919693 ], [ 115.0719297, -33.7919693 ], [ 115.0719297, -33.7920002 ], [ 115.0718558, -33.7920001 ], [ 115.0718556, -33.7921852 ], [ 115.0718926, -33.7921853 ], [ 115.0718926, -33.7921544 ], [ 115.0720034, -33.7921545 ], [ 115.0720035, -33.7921236 ], [ 115.0720404, -33.7921236 ], [ 115.0720405, -33.7920619 ], [ 115.0720774, -33.7920619 ], [ 115.0720775, -33.7919385 ], [ 115.0721145, -33.7919386 ], [ 115.0721144, -33.7919694 ], [ 115.0721883, -33.7919694 ], [ 115.0721884, -33.7919386 ], [ 115.0722253, -33.7919386 ], [ 115.0722253, -33.7919348 ], [ 115.0719297, -33.791936 ] ] ], [ [ [ 115.0726685, -33.7922165 ], [ 115.0725577, -33.7922164 ], [ 115.0725576, -33.7922781 ], [ 115.0726315, -33.7922782 ], [ 115.0726316, -33.7922473 ], [ 115.0726685, -33.7922473 ], [ 115.0726685, -33.7922165 ] ] ], [ [ [ 115.0724468, -33.7923089 ], [ 115.0724467, -33.7923398 ], [ 115.0725206, -33.7923398 ], [ 115.0725207, -33.7922781 ], [ 115.072299, -33.792278 ], [ 115.072299, -33.7923089 ], [ 115.0724468, -33.7923089 ] ] ] ] } },
{ "type": "Feature", "properties": { "appName": "Fishbone NW", "rate": 2.0, "rateInt": 2, "unit": "l/ha", "zone": 2 }, "geometry": { "type": "MultiPolygon", "coordinates": [ [ [ [ 115.0720033, -33.7923207 ], [ 115.0720033, -33.7923087 ], [ 115.072299, -33.7923089 ], [ 115.072299, -33.792278 ], [ 115.0725207, -33.7922781 ], [ 115.0725207, -33.792309 ], [ 115.0725946, -33.792309 ], [ 115.0725945, -33.7923398 ], [ 115.0729271, -33.79234 ], [ 115.0729271, -33.7923642 ], [ 115.072964, -33.7923657 ], [ 115.0729641, -33.7922783 ], [ 115.0730011, -33.7922783 ], [ 115.0730011, -33.7922166 ], [ 115.0729641, -33.7922166 ], [ 115.0729642, -33.7921858 ], [ 115.0728903, -33.7921857 ], [ 115.0728903, -33.7921549 ], [ 115.0730381, -33.7921549 ], [ 115.073038, -33.7922167 ], [ 115.073075, -33.7922167 ], [ 115.073075, -33.7921858 ], [ 115.073112, -33.7921858 ], [ 115.073112, -33.7921241 ], [ 115.073149, -33.7921241 ], [ 115.073149, -33.7920933 ], [ 115.0731859, -33.7920933 ], [ 115.0731859, -33.7921242 ], [ 115.0732598, -33.7921242 ], [ 115.0732598, -33.7921859 ], [ 115.0732967, -33.7921859 ], [ 115.0732967, -33.7922476 ], [ 115.0734075, -33.7922477 ], [ 115.0734075, -33.7922785 ], [ 115.0734445, -33.7922785 ], [ 115.0734444, -33.7923711 ], [ 115.0736292, -33.7923712 ], [ 115.0736292, -33.7923774 ], [ 115.0736661, -33.7923774 ], [ 115.0736661, -33.7923712 ], [ 115.0737031, -33.7923712 ], [ 115.0737031, -33.7923404 ], [ 115.0736661, -33.7923403 ], [ 115.0736662, -33.7923095 ], [ 115.0736292, -33.7923095 ], [ 115.0736292, -33.7922478 ], [ 115.0739249, -33.7922479 ], [ 115.0739249, -33.7922171 ], [ 115.0739988, -33.7922171 ], [ 115.0739988, -33.7921862 ], [ 115.0742205, -33.7921863 ], [ 115.0742205, -33.792248 ], [ 115.0742574, -33.7922481 ], [ 115.0742574, -33.7923098 ], [ 115.0739618, -33.7923096 ], [ 115.0739618, -33.7922788 ], [ 115.0738879, -33.7922787 ], [ 115.0738879, -33.7923096 ], [ 115.0738509, -33.7923096 ], [ 115.0738509, -33.7923713 ], [ 115.0741095, -33.7923714 ], [ 115.0741095, -33.7923777 ], [ 115.0741465, -33.7923777 ], [ 115.0741465, -33.7923714 ], [ 115.0742573, -33.7923715 ], [ 115.0742573, -33.7923778 ], [ 115.0742943, -33.7923778 ], [ 115.0742944, -33.7921799 ], [ 115.0742798, -33.7918162 ], [ 115.0741468, -33.7918161 ], [ 115.0741468, -33.7919086 ], [ 115.0741098, -33.7919086 ], [ 115.0741098, -33.7919395 ], [ 115.0740729, -33.7919395 ], [ 115.0740729, -33.7919086 ], [ 115.073999, -33.7919086 ], [ 115.073999, -33.7918777 ], [ 115.073962, -33.7918777 ], [ 115.0739621, -33.7918469 ], [ 115.0739251, -33.7918468 ], [ 115.0739251, -33.791816 ], [ 115.0734817, -33.7918158 ], [ 115.0734817, -33.7918144 ], [ 115.0734448, -33.7918144 ], [ 115.0734448, -33.7918158 ], [ 115.0734078, -33.7918158 ], [ 115.0734078, -33.7918143 ], [ 115.0733339, -33.7918143 ], [ 115.0733339, -33.7918157 ], [ 115.073297, -33.7918157 ], [ 115.0732969, -33.7918466 ], [ 115.073223, -33.7918465 ], [ 115.073223, -33.7918774 ], [ 115.0731861, -33.7918774 ], [ 115.0731861, -33.7919082 ], [ 115.0731491, -33.7919082 ], [ 115.0731491, -33.7919699 ], [ 115.0731121, -33.7919699 ], [ 115.0731121, -33.7920007 ], [ 115.0730751, -33.7920007 ], [ 115.0730751, -33.7920316 ], [ 115.0730382, -33.7920315 ], [ 115.0730381, -33.7920624 ], [ 115.0728903, -33.7920623 ], [ 115.0728904, -33.7920315 ], [ 115.0728165, -33.7920314 ], [ 115.0728165, -33.7920006 ], [ 115.0727795, -33.7920006 ], [ 115.0727796, -33.7919389 ], [ 115.0727426, -33.7919388 ], [ 115.0727427, -33.7918771 ], [ 115.0727057, -33.7918771 ], [ 115.0727057, -33.7918463 ], [ 115.0726004, -33.7918462 ], [ 115.0725995, -33.7919333 ], [ 115.072447, -33.7919339 ], [ 115.072447, -33.7919387 ], [ 115.0723731, -33.7919387 ], [ 115.0723731, -33.7919342 ], [ 115.0722992, -33.7919345 ], [ 115.0722992, -33.7919386 ], [ 115.0722623, -33.7919386 ], [ 115.0722623, -33.7919346 ], [ 115.0722253, -33.7919348 ], [ 115.0722253, -33.7919386 ], [ 115.0721884, -33.7919386 ], [ 115.0721883, -33.7919694 ], [ 115.0721144, -33.7919694 ], [ 115.0721145, -33.7919386 ], [ 115.0720775, -33.7919385 ], [ 115.0720774, -33.7920619 ], [ 115.0720405, -33.7920619 ], [ 115.0720404, -33.7921236 ], [ 115.0720035, -33.7921236 ], [ 115.0720034, -33.7921545 ], [ 115.0718926, -33.7921544 ], [ 115.0718926, -33.7921853 ], [ 115.0718556, -33.7921852 ], [ 115.0718555, -33.7923086 ], [ 115.0719664, -33.7923087 ], [ 115.0719664, -33.7923189 ], [ 115.0720033, -33.7923207 ] ], [ [ 115.0725577, -33.7922164 ], [ 115.0726685, -33.7922165 ], [ 115.0726685, -33.7922473 ], [ 115.0726316, -33.7922473 ], [ 115.0726315, -33.7922782 ], [ 115.0725576, -33.7922781 ], [ 115.0725577, -33.7922164 ] ], [ [ 115.0738142, -33.7919393 ], [ 115.0739251, -33.7919394 ], [ 115.073925, -33.7919702 ], [ 115.0739989, -33.7919703 ], [ 115.0739989, -33.7920011 ], [ 115.0740359, -33.7920012 ], [ 115.0740358, -33.792032 ], [ 115.0739989, -33.792032 ], [ 115.0739989, -33.7920628 ], [ 115.0738141, -33.7920628 ], [ 115.0738142, -33.7919393 ] ], [ [ 115.0736294, -33.7919701 ], [ 115.0737033, -33.7919701 ], [ 115.0737033, -33.7920318 ], [ 115.0736663, -33.7920318 ], [ 115.0736663, -33.7920627 ], [ 115.0736294, -33.7920627 ], [ 115.0736294, -33.7920318 ], [ 115.0735555, -33.7920318 ], [ 115.0735555, -33.7920009 ], [ 115.0734447, -33.7920009 ], [ 115.0734447, -33.7918775 ], [ 115.0734817, -33.7918775 ], [ 115.0734817, -33.7918466 ], [ 115.0735187, -33.7918467 ], [ 115.0735186, -33.7918775 ], [ 115.0735556, -33.7918775 ], [ 115.0735556, -33.7919084 ], [ 115.0735925, -33.7919084 ], [ 115.0735925, -33.7919392 ], [ 115.0736294, -33.7919393 ], [ 115.0736294, -33.7919701 ] ] ], [ [ [ 115.0732966, -33.7923093 ], [ 115.0731488, -33.7923093 ], [ 115.0731488, -33.792371 ], [ 115.0733336, -33.792371 ], [ 115.0733336, -33.7923402 ], [ 115.0732966, -33.7923402 ], [ 115.0732966, -33.7923093 ] ] ], [ [ [ 115.0730958, -33.7923709 ], [ 115.0731118, -33.7923709 ], [ 115.0731119, -33.7923401 ], [ 115.0730749, -33.7923401 ], [ 115.0730749, -33.7923701 ], [ 115.0730958, -33.7923709 ] ] ] ] } },
{ "type": "Feature", "properties": { "appName": "Fishbone NW", "rate": 3.0, "rateInt": 3, "unit": "l/ha", "zone": 3 }, "geometry": { "type": "MultiPolygon", "coordinates": [ [ [ [ 115.0735925, -33.7919392 ], [ 115.0735925, -33.7919084 ], [ 115.0735556, -33.7919084 ], [ 115.0735556, -33.7918775 ], [ 115.0735186, -33.7918775 ], [ 115.0735187, -33.7918467 ], [ 115.0734817, -33.7918466 ], [ 115.0734817, -33.7918775 ], [ 115.0734447, -33.7918775 ], [ 115.0734447, -33.7920009 ], [ 115.0735555, -33.7920009 ], [ 115.0735555, -33.7920318 ], [ 115.0736294, -33.7920318 ], [ 115.0736294, -33.7920627 ], [ 115.0736663, -33.7920627 ], [ 115.0736663, -33.7920318 ], [ 115.0737033, -33.7920318 ], [ 115.0737033, -33.7919701 ], [ 115.0736294, -33.7919701 ], [ 115.0736294, -33.7919393 ], [ 115.0735925, -33.7919392 ] ] ], [ [ [ 115.0739989, -33.7919703 ], [ 115.073925, -33.7919702 ], [ 115.0739251, -33.7919394 ], [ 115.0738142, -33.7919393 ], [ 115.0738141, -33.7920628 ], [ 115.0739989, -33.7920628 ], [ 115.0739989, -33.792032 ], [ 115.0740358, -33.792032 ], [ 115.0740359, -33.7920012 ], [ 115.0739989, -33.7920011 ], [ 115.0739989, -33.7919703 ] ] ], [ [ [ 115.073149, -33.7921241 ], [ 115.073112, -33.7921241 ], [ 115.073112, -33.7921858 ], [ 115.073075, -33.7921858 ], [ 115.073075, -33.7922167 ], [ 115.073038, -33.7922167 ], [ 115.0730381, -33.7921549 ], [ 115.0728903, -33.7921549 ], [ 115.0728903, -33.7921857 ], [ 115.0729642, -33.7921858 ], [ 115.0729641, -33.7922166 ], [ 115.0730011, -33.7922166 ], [ 115.0730011, -33.7922783 ], [ 115.0729641, -33.7922783 ], [ 115.0729641, -33.79234 ], [ 115.0731488, -33.7923401 ], [ 115.0731488, -33.7923093 ], [ 115.0732966, -33.7923093 ], [ 115.0732966, -33.7923402 ], [ 115.0733336, -33.7923402 ], [ 115.0733336, -33.792371 ], [ 115.0734444, -33.7923711 ], [ 115.0734445, -33.7922785 ], [ 115.0734075, -33.7922785 ], [ 115.0734075, -33.7922477 ], [ 115.0732967, -33.7922476 ], [ 115.0732967, -33.7921859 ], [ 115.0732598, -33.7921859 ], [ 115.0732598, -33.7921242 ], [ 115.0731859, -33.7921242 ], [ 115.0731859, -33.7920933 ], [ 115.073149, -33.7920933 ], [ 115.073149, -33.7921241 ] ] ], [ [ [ 115.0739249, -33.7922479 ], [ 115.0736292, -33.7922478 ], [ 115.0736292, -33.7923095 ], [ 115.0736662, -33.7923095 ], [ 115.0736661, -33.7923403 ], [ 115.0737031, -33.7923404 ], [ 115.0737031, -33.7923712 ], [ 115.0738509, -33.7923713 ], [ 115.0738509, -33.7923096 ], [ 115.0738879, -33.7923096 ], [ 115.0738879, -33.7922787 ], [ 115.0739618, -33.7922788 ], [ 115.0739618, -33.7923096 ], [ 115.0742574, -33.7923098 ], [ 115.0742574, -33.7922481 ], [ 115.0742205, -33.792248 ], [ 115.0742205, -33.7921863 ], [ 115.0739988, -33.7921862 ], [ 115.0739988, -33.7922171 ], [ 115.0739249, -33.7922171 ], [ 115.0739249, -33.7922479 ] ] ] ] } }
]
}
