{
"type": "FeatureCollection",
"name": "NDVI - Block 7 3 zone_Rx",
"features": [
{ "type": "Feature", "properties": { "appName": "Fishbone NW", "rate": 1.0, "rateInt": 1, "unit": "l/ha", "zone": 1 }, "geometry": { "type": "MultiPolygon", "coordinates": [ [ [ [ 115.0743655, -33.7918671 ], [ 115.0744044, -33.7918677 ], [ 115.0744051, -33.7918346 ], [ 115.0744448, -33.7918352 ], [ 115.0744462, -33.791769 ], [ 115.0744066, -33.7917684 ], [ 115.0744081, -33.7917022 ], [ 115.0744477, -33.7917028 ], [ 115.0744499, -33.7916035 ], [ 115.0744103, -33.7916029 ], [ 115.0744125, -33.7915036 ], [ 115.0744522, -33.7915042 ], [ 115.0744534, -33.7914474 ], [ 115.0743646, -33.7914467 ], [ 115.0743651, -33.7917015 ], [ 115.0743684, -33.7917016 ], [ 115.074367, -33.7917678 ], [ 115.0743653, -33.7917678 ], [ 115.0743653, -33.7918009 ], [ 115.0743662, -33.7918009 ], [ 115.0743654, -33.791837 ], [ 115.0743655, -33.7918671 ] ] ], [ [ [ 115.0749543, -33.7915121 ], [ 115.0749526, -33.7914508 ], [ 115.0748896, -33.7914503 ], [ 115.074889, -33.7914779 ], [ 115.0749286, -33.7914786 ], [ 115.0749279, -33.7915117 ], [ 115.0749543, -33.7915121 ] ] ], [ [ [ 115.074984, -33.7915456 ], [ 115.0749842, -33.7915282 ], [ 115.0749672, -33.7915275 ], [ 115.0749668, -33.7915454 ], [ 115.074984, -33.7915456 ] ] ], [ [ [ 115.0749832, -33.7916119 ], [ 115.074886, -33.7916103 ], [ 115.0748853, -33.7916434 ], [ 115.0748456, -33.7916428 ], [ 115.0748442, -33.791709 ], [ 115.0748838, -33.7917096 ], [ 115.0748831, -33.7917427 ], [ 115.0749227, -33.7917434 ], [ 115.0749205, -33.7918427 ], [ 115.0749601, -33.7918433 ], [ 115.0749572, -33.7919757 ], [ 115.0749175, -33.7919751 ], [ 115.074916, -33.7920413 ], [ 115.0748764, -33.7920406 ], [ 115.0748742, -33.7921399 ], [ 115.0749138, -33.7921406 ], [ 115.0749123, -33.7922068 ], [ 115.074952, -33.7922074 ], [ 115.0749512, -33.7922405 ], [ 115.0749754, -33.7922409 ], [ 115.0749832, -33.7916119 ] ] ], [ [ [ 115.0749746, -33.7923071 ], [ 115.0749497, -33.7923067 ], [ 115.0749483, -33.7923729 ], [ 115.0749086, -33.7923723 ], [ 115.0749079, -33.7924054 ], [ 115.0748682, -33.7924047 ], [ 115.0748678, -33.7924222 ], [ 115.074973, -33.7924344 ], [ 115.0749746, -33.7923071 ] ] ], [ [ [ 115.0743932, -33.7923671 ], [ 115.0744327, -33.7923717 ], [ 115.0744329, -33.7923648 ], [ 115.0743933, -33.7923642 ], [ 115.0743932, -33.7923671 ] ] ] ] } },
{ "type": "Feature", "properties": { "appName": "Fishbone NW", "rate": 2.0, "rateInt": 2, "unit": "l/ha", "zone": 2 }, "geometry": { "type": "Polygon", "coordinates": [ [ [ 115.0748896, -33.7914503 ], [ 115.0744534, -33.7914474 ], [ 115.0744522, -33.7915042 ], [ 115.0744125, -33.7915036 ], [ 115.0744103, -33.7916029 ], [ 115.0744499, -33.7916035 ], [ 115.0744477, -33.7917028 ], [ 115.0744081, -33.7917022 ], [ 115.0744066, -33.7917684 ], [ 115.0744462, -33.791769 ], [ 115.0744448, -33.7918352 ], [ 115.0744051, -33.7918346 ], [ 115.0744044, -33.7918677 ], [ 115.0743655, -33.7918671 ], [ 115.0743656, -33.7919664 ], [ 115.0744021, -33.791967 ], [ 115.0743992, -33.7920994 ], [ 115.0743659, -33.7920989 ], [ 115.0743664, -33.7923638 ], [ 115.0744329, -33.7923648 ], [ 115.0744327, -33.7923717 ], [ 115.0746941, -33.792402 ], [ 115.0747493, -33.7924029 ], [ 115.0747492, -33.7924084 ], [ 115.0748678, -33.7924222 ], [ 115.0748682, -33.7924047 ], [ 115.0749079, -33.7924054 ], [ 115.0749086, -33.7923723 ], [ 115.0749483, -33.7923729 ], [ 115.0749497, -33.7923067 ], [ 115.0749746, -33.7923071 ], [ 115.0749754, -33.7922409 ], [ 115.0749512, -33.7922405 ], [ 115.074952, -33.7922074 ], [ 115.0749123, -33.7922068 ], [ 115.0749138, -33.7921406 ], [ 115.0748742, -33.7921399 ], [ 115.0748764, -33.7920406 ], [ 115.074916, -33.7920413 ], [ 115.0749175, -33.7919751 ], [ 115.0749572, -33.7919757 ], [ 115.0749601, -33.7918433 ], [ 115.0749205, -33.7918427 ], [ 115.0749227, -33.7917434 ], [ 115.0748831, -33.7917427 ], [ 115.0748838, -33.7917096 ], [ 115.0748442, -33.791709 ], [ 115.0748456, -33.7916428 ], [ 115.0748853, -33.7916434 ], [ 115.074886, -33.7916103 ], [ 115.0749832, -33.7916119 ], [ 115.074984, -33.7915456 ], [ 115.0749668, -33.7915454 ], [ 115.0749672, -33.7915275 ], [ 115.0749547, -33.7915269 ], [ 115.0749543, -33.7915121 ], [ 115.0749279, -33.7915117 ], [ 115.0749286, -33.7914786 ], [ 115.074889, -33.7914779 ], [ 115.0748896, -33.7914503 ] ], [ [ 115.0746378, -33.79207 ], [ 115.0746393, -33.7920038 ], [ 115.0746789, -33.7920044 ], [ 115.0746797, -33.7919713 ], [ 115.0747589, -33.7919726 ], [ 115.0747545, -33.7921712 ], [ 115.0747941, -33.7921718 ], [ 115.0747927, -33.792238 ], [ 115.0748323, -33.7922386 ], [ 115.0748308, -33.7923048 ], [ 115.0747912, -33.7923042 ], [ 115.0747904, -33.7923373 ], [ 115.0745526, -33.7923336 ], [ 115.0745533, -33.7923005 ], [ 115.074474, -33.7922992 ], [ 115.0744748, -33.7922661 ], [ 115.0744351, -33.7922655 ], [ 115.0744373, -33.7921662 ], [ 115.074477, -33.7921668 ], [ 115.0744777, -33.7921337 ], [ 115.0745174, -33.7921344 ], [ 115.0745181, -33.7921013 ], [ 115.0745974, -33.7921025 ], [ 115.0745981, -33.7920694 ], [ 115.0746378, -33.79207 ] ] ] } },
{ "type": "Feature", "properties": { "appName": "Fishbone NW", "rate": 3.0, "rateInt": 3, "unit": "l/ha", "zone": 3 }, "geometry": { "type": "MultiPolygon", "coordinates": [ [ [ [ 115.0743659, -33.7920989 ], [ 115.0743992, -33.7920994 ], [ 115.0744021, -33.791967 ], [ 115.0743656, -33.7919664 ], [ 115.0743659, -33.7920989 ] ] ], [ [ [ 115.0745533, -33.7923005 ], [ 115.0745526, -33.7923336 ], [ 115.0747904, -33.7923373 ], [ 115.0747912, -33.7923042 ], [ 115.0748308, -33.7923048 ], [ 115.0748323, -33.7922386 ], [ 115.0747927, -33.792238 ], [ 115.0747941, -33.7921718 ], [ 115.0747545, -33.7921712 ], [ 115.0747589, -33.7919726 ], [ 115.0746797, -33.7919713 ], [ 115.0746789, -33.7920044 ], [ 115.0746393, -33.7920038 ], [ 115.0746378, -33.79207 ], [ 115.0745981, -33.7920694 ], [ 115.0745974, -33.7921025 ], [ 115.0745181, -33.7921013 ], [ 115.0745174, -33.7921344 ], [ 115.0744777, -33.7921337 ], [ 115.074477, -33.7921668 ], [ 115.0744373, -33.7921662 ], [ 115.0744351, -33.7922655 ], [ 115.0744748, -33.7922661 ], [ 115.074474, -33.7922992 ], [ 115.0745533, -33.7923005 ] ] ] ] } }
]
}
