{
"type": "FeatureCollection",
"name": "block4boundary",
"crs": { "type": "name", "properties": { "name": "urn:ogc:def:crs:OGC:1.3:CRS84" } },
"features": [
{ "type": "Feature", "properties": { "name": "Brookland Valley 18 Feb 26" }, "geometry": { "type": "MultiPolygon", "coordinates": [ [ [ [ 115.029905752711045, -33.790823405946711 ], [ 115.031208590795529, -33.791065031759601 ], [ 115.031214006738594, -33.79132656742091 ], [ 115.031105401944671, -33.791522481685988 ], [ 115.031009624361502, -33.791663435481347 ], [ 115.030915557195385, -33.791769802136244 ], [ 115.030852275648272, -33.791841344868715 ], [ 115.030636491138011, -33.792028492899213 ], [ 115.030533872372189, -33.792101456787087 ], [ 115.030348873588764, -33.792213982196337 ], [ 115.03022544609729, -33.792271784646687 ], [ 115.030049568944833, -33.792342142501745 ], [ 115.029939823872724, -33.792377913591515 ], [ 115.02986029438847, -33.792399471046771 ], [ 115.029816396327305, -33.792413447846663 ], [ 115.029752259625582, -33.792416764353078 ], [ 115.029693823936441, -33.79239876036349 ], [ 115.029652491392937, -33.792369385389598 ], [ 115.029645482672947, -33.791020553140761 ], [ 115.029709781769668, -33.791005445258392 ], [ 115.029759941796499, -33.790994534000973 ], [ 115.029793269592744, -33.790981664324541 ], [ 115.02982626075584, -33.79095956203583 ], [ 115.029847469344702, -33.790933822644064 ], [ 115.029871034461223, -33.790910321456956 ], [ 115.029894599545855, -33.790873391037302 ], [ 115.029905752711045, -33.790823405946711 ] ] ] ] } }
]
}
