{
"type": "FeatureCollection",
"name": "NDVI 306 Zone3_Rx",
"features": [
{ "type": "Feature", "properties": { "appName": "Brookland Valley 18 Feb 26", "rate": 1.0, "rateInt": 1, "unit": "l/ha", "zone": 1 }, "geometry": { "type": "MultiPolygon", "coordinates": [ [ [ [ 115.0265787, -33.7929527 ], [ 115.0265468, -33.7929443 ], [ 115.0265274, -33.7930309 ], [ 115.0265471, -33.7930361 ], [ 115.0265787, -33.7929527 ] ] ], [ [ [ 115.0272173, -33.7931206 ], [ 115.0272116, -33.7931357 ], [ 115.0272321, -33.7931411 ], [ 115.0272379, -33.793126 ], [ 115.0272173, -33.7931206 ] ] ], [ [ [ 115.0273614, -33.7931585 ], [ 115.0273203, -33.7931477 ], [ 115.0273145, -33.7931628 ], [ 115.0273351, -33.7931683 ], [ 115.0273286, -33.7931855 ], [ 115.0273698, -33.7931963 ], [ 115.0273633, -33.7932135 ], [ 115.0273839, -33.793219 ], [ 115.0273904, -33.7932018 ], [ 115.0274316, -33.7932126 ], [ 115.0274381, -33.7931954 ], [ 115.0274587, -33.7932009 ], [ 115.0274644, -33.7931856 ], [ 115.0274026, -33.7931694 ], [ 115.0273969, -33.7931846 ], [ 115.0273557, -33.7931737 ], [ 115.0273614, -33.7931585 ] ] ], [ [ [ 115.0278146, -33.7932777 ], [ 115.0277528, -33.7932615 ], [ 115.027747, -33.7932769 ], [ 115.0278088, -33.7932932 ], [ 115.0278146, -33.7932777 ] ] ], [ [ [ 115.0278764, -33.793294 ], [ 115.0278705, -33.7933095 ], [ 115.0280353, -33.7933529 ], [ 115.0280288, -33.7933701 ], [ 115.0280494, -33.7933755 ], [ 115.0280559, -33.7933583 ], [ 115.0280971, -33.7933692 ], [ 115.028103, -33.7933536 ], [ 115.0278764, -33.793294 ] ] ], [ [ [ 115.0281236, -33.793359 ], [ 115.0281177, -33.7933746 ], [ 115.0281383, -33.7933801 ], [ 115.0281318, -33.7933973 ], [ 115.0280906, -33.7933864 ], [ 115.0280841, -33.7934036 ], [ 115.0281047, -33.793409 ], [ 115.0280982, -33.7934262 ], [ 115.0281188, -33.7934316 ], [ 115.0280992, -33.7934832 ], [ 115.0281198, -33.7934887 ], [ 115.0281133, -33.7935058 ], [ 115.0281339, -33.7935113 ], [ 115.0281274, -33.7935285 ], [ 115.028148, -33.7935339 ], [ 115.0281415, -33.7935511 ], [ 115.0281621, -33.7935565 ], [ 115.0281556, -33.7935737 ], [ 115.0281762, -33.7935791 ], [ 115.0281697, -33.7935963 ], [ 115.0282109, -33.7936072 ], [ 115.0282044, -33.7936244 ], [ 115.0282456, -33.7936353 ], [ 115.0282391, -33.7936524 ], [ 115.0282597, -33.7936579 ], [ 115.0282531, -33.7936751 ], [ 115.0283149, -33.7936914 ], [ 115.0283084, -33.7937086 ], [ 115.028329, -33.793714 ], [ 115.028303, -33.7937828 ], [ 115.0283236, -33.7937882 ], [ 115.0283171, -33.7938054 ], [ 115.0283377, -33.7938108 ], [ 115.0283312, -33.793828 ], [ 115.0283724, -33.7938389 ], [ 115.0283659, -33.7938561 ], [ 115.0283865, -33.7938615 ], [ 115.0283674, -33.7939119 ], [ 115.0285046, -33.7939481 ], [ 115.0285415, -33.7939305 ], [ 115.0285447, -33.7939221 ], [ 115.028554, -33.7939246 ], [ 115.0285692, -33.7939174 ], [ 115.0285718, -33.7939104 ], [ 115.0285795, -33.7939124 ], [ 115.0285968, -33.7939042 ], [ 115.0285989, -33.7938986 ], [ 115.0286051, -33.7939002 ], [ 115.0286244, -33.793891 ], [ 115.028626, -33.7938868 ], [ 115.0286306, -33.7938881 ], [ 115.0286521, -33.7938778 ], [ 115.0286596, -33.7938579 ], [ 115.0286817, -33.7938637 ], [ 115.0289284, -33.793746 ], [ 115.0289306, -33.7937402 ], [ 115.028937, -33.7937419 ], [ 115.028956, -33.7937328 ], [ 115.0289577, -33.7937285 ], [ 115.0289625, -33.7937298 ], [ 115.0289837, -33.7937197 ], [ 115.0289848, -33.7937167 ], [ 115.028988, -33.7937176 ], [ 115.0290113, -33.7937065 ], [ 115.0290119, -33.793705 ], [ 115.0290136, -33.7937054 ], [ 115.0290389, -33.7936933 ], [ 115.029052, -33.7936588 ], [ 115.0290901, -33.7936689 ], [ 115.0290942, -33.7936669 ], [ 115.0290997, -33.7936525 ], [ 115.0290585, -33.7936416 ], [ 115.029065, -33.7936244 ], [ 115.0290444, -33.793619 ], [ 115.0290505, -33.7936028 ], [ 115.0289063, -33.7935649 ], [ 115.0289002, -33.793581 ], [ 115.0289208, -33.7935864 ], [ 115.0289078, -33.7936208 ], [ 115.0288872, -33.7936154 ], [ 115.0288937, -33.7935982 ], [ 115.0288731, -33.7935927 ], [ 115.0288601, -33.7936271 ], [ 115.0288395, -33.7936217 ], [ 115.028833, -33.7936389 ], [ 115.0288124, -33.7936335 ], [ 115.0288059, -33.7936507 ], [ 115.0287647, -33.7936398 ], [ 115.0287712, -33.7936226 ], [ 115.0287301, -33.7936117 ], [ 115.0287236, -33.7936289 ], [ 115.028703, -33.7936235 ], [ 115.0286965, -33.7936407 ], [ 115.0286553, -33.7936298 ], [ 115.0286488, -33.793647 ], [ 115.028587, -33.7936307 ], [ 115.0285935, -33.7936135 ], [ 115.0285111, -33.7935918 ], [ 115.0285176, -33.7935746 ], [ 115.028497, -33.7935692 ], [ 115.0285035, -33.793552 ], [ 115.0284829, -33.7935466 ], [ 115.0285024, -33.793495 ], [ 115.0282553, -33.7934298 ], [ 115.0282618, -33.7934126 ], [ 115.0282412, -33.7934072 ], [ 115.0282347, -33.7934244 ], [ 115.0281524, -33.7934027 ], [ 115.0281648, -33.7933698 ], [ 115.0281236, -33.793359 ] ], [ [ 115.0284797, -33.7937348 ], [ 115.0285057, -33.793666 ], [ 115.0286087, -33.7936932 ], [ 115.0286022, -33.7937104 ], [ 115.0286228, -33.7937158 ], [ 115.0286097, -33.7937502 ], [ 115.0286303, -33.7937556 ], [ 115.0286238, -33.7937728 ], [ 115.0286444, -33.7937782 ], [ 115.0286379, -33.7937954 ], [ 115.0285144, -33.7937629 ], [ 115.0285209, -33.7937457 ], [ 115.0284797, -33.7937348 ] ], [ [ 115.0288764, -33.7937638 ], [ 115.0288352, -33.7937529 ], [ 115.0288417, -33.7937357 ], [ 115.0288211, -33.7937303 ], [ 115.0288341, -33.7936959 ], [ 115.0288753, -33.7937068 ], [ 115.0288688, -33.793724 ], [ 115.0288894, -33.7937294 ], [ 115.0288764, -33.7937638 ] ], [ [ 115.0287745, -33.7937936 ], [ 115.0287539, -33.7937882 ], [ 115.0287604, -33.793771 ], [ 115.028781, -33.7937764 ], [ 115.0287745, -33.7937936 ] ], [ [ 115.0290032, -33.7936081 ], [ 115.0289967, -33.7936253 ], [ 115.0289555, -33.7936145 ], [ 115.028962, -33.7935973 ], [ 115.0290032, -33.7936081 ] ], [ [ 115.0285295, -33.7938425 ], [ 115.0285089, -33.7938371 ], [ 115.0285154, -33.7938199 ], [ 115.028536, -33.7938253 ], [ 115.0285295, -33.7938425 ] ], [ [ 115.0285295, -33.7938425 ], [ 115.0285501, -33.7938479 ], [ 115.0285436, -33.7938651 ], [ 115.028523, -33.7938597 ], [ 115.0285295, -33.7938425 ] ], [ [ 115.0290444, -33.793619 ], [ 115.0290379, -33.7936362 ], [ 115.0290173, -33.7936307 ], [ 115.0290238, -33.7936136 ], [ 115.0290444, -33.793619 ] ] ], [ [ [ 115.028309, -33.7934078 ], [ 115.028303, -33.7934235 ], [ 115.0283236, -33.7934289 ], [ 115.0283296, -33.7934132 ], [ 115.028309, -33.7934078 ] ] ], [ [ [ 115.0285149, -33.7934619 ], [ 115.0284737, -33.7934511 ], [ 115.0284678, -33.7934669 ], [ 115.0285089, -33.7934778 ], [ 115.0285149, -33.7934619 ] ] ], [ [ [ 115.0287003, -33.7935107 ], [ 115.0286943, -33.7935267 ], [ 115.0287149, -33.7935321 ], [ 115.0287209, -33.7935161 ], [ 115.0287003, -33.7935107 ] ] ], [ [ [ 115.0288857, -33.7935595 ], [ 115.0288445, -33.7935486 ], [ 115.0288384, -33.7935647 ], [ 115.0288796, -33.7935755 ], [ 115.0288857, -33.7935595 ] ] ], [ [ [ 115.0291157, -33.7936567 ], [ 115.0291653, -33.793633 ], [ 115.0291329, -33.7936245 ], [ 115.0291268, -33.7936407 ], [ 115.0291062, -33.7936353 ], [ 115.0290997, -33.7936525 ], [ 115.0291157, -33.7936567 ] ] ], [ [ [ 115.0276874, -33.7933746 ], [ 115.0276744, -33.793409 ], [ 115.0277155, -33.7934199 ], [ 115.0277286, -33.7933855 ], [ 115.0276874, -33.7933746 ] ] ], [ [ [ 115.0269053, -33.7935262 ], [ 115.0269113, -33.7935103 ], [ 115.0269319, -33.7935158 ], [ 115.0269449, -33.7934814 ], [ 115.0269243, -33.7934759 ], [ 115.0269308, -33.7934588 ], [ 115.026869, -33.7934425 ], [ 115.0268625, -33.7934597 ], [ 115.0268213, -33.7934488 ], [ 115.0268278, -33.7934316 ], [ 115.0268073, -33.7934262 ], [ 115.0268203, -33.7933918 ], [ 115.0267791, -33.7933809 ], [ 115.0267726, -33.7933981 ], [ 115.0267314, -33.7933873 ], [ 115.0267249, -33.7934045 ], [ 115.0267043, -33.793399 ], [ 115.0266788, -33.7934664 ], [ 115.0269053, -33.7935262 ] ] ], [ [ [ 115.0275643, -33.7937 ], [ 115.0275703, -33.7936841 ], [ 115.0275497, -33.7936787 ], [ 115.0275562, -33.7936615 ], [ 115.0275356, -33.7936561 ], [ 115.0275291, -33.7936732 ], [ 115.0275085, -33.7936678 ], [ 115.0275025, -33.7936837 ], [ 115.0275643, -33.7937 ] ] ], [ [ [ 115.0276672, -33.7937272 ], [ 115.0277702, -33.7937544 ], [ 115.0277762, -33.7937384 ], [ 115.027735, -33.7937275 ], [ 115.0277416, -33.7937104 ], [ 115.0276798, -33.7936941 ], [ 115.0276672, -33.7937272 ] ] ] ] } },
{ "type": "Feature", "properties": { "appName": "Brookland Valley 18 Feb 26", "rate": 2.0, "rateInt": 2, "unit": "l/ha", "zone": 2 }, "geometry": { "type": "MultiPolygon", "coordinates": [ [ [ [ 115.0265274, -33.7930309 ], [ 115.0264975, -33.7931637 ], [ 115.0264876, -33.7932095 ], [ 115.0265233, -33.7932189 ], [ 115.0265168, -33.7932361 ], [ 115.0265786, -33.7932524 ], [ 115.0265851, -33.7932352 ], [ 115.0266057, -33.7932407 ], [ 115.0266187, -33.7932063 ], [ 115.0266393, -33.7932117 ], [ 115.0266328, -33.7932289 ], [ 115.0266534, -33.7932343 ], [ 115.0266468, -33.7932515 ], [ 115.0266674, -33.7932569 ], [ 115.0266609, -33.7932741 ], [ 115.0266815, -33.7932796 ], [ 115.0266555, -33.7933483 ], [ 115.0266349, -33.7933429 ], [ 115.0266219, -33.7933773 ], [ 115.0265807, -33.7933664 ], [ 115.0265872, -33.7933492 ], [ 115.0265666, -33.7933438 ], [ 115.0265927, -33.793275 ], [ 115.0265721, -33.7932696 ], [ 115.0265656, -33.7932868 ], [ 115.0264748, -33.7932629 ], [ 115.0264631, -33.7933075 ], [ 115.0264599, -33.7933238 ], [ 115.0264558, -33.7933335 ], [ 115.0264572, -33.7933339 ], [ 115.0264507, -33.7933511 ], [ 115.0264713, -33.7933565 ], [ 115.0264648, -33.7933737 ], [ 115.0264853, -33.7933791 ], [ 115.0264729, -33.7934121 ], [ 115.0266788, -33.7934664 ], [ 115.0267043, -33.793399 ], [ 115.0267249, -33.7934045 ], [ 115.0267314, -33.7933873 ], [ 115.0267726, -33.7933981 ], [ 115.0267791, -33.7933809 ], [ 115.0268203, -33.7933918 ], [ 115.0268073, -33.7934262 ], [ 115.0268278, -33.7934316 ], [ 115.0268213, -33.7934488 ], [ 115.0268625, -33.7934597 ], [ 115.026869, -33.7934425 ], [ 115.0269308, -33.7934588 ], [ 115.0269243, -33.7934759 ], [ 115.0269449, -33.7934814 ], [ 115.0269319, -33.7935158 ], [ 115.0269113, -33.7935103 ], [ 115.0269053, -33.7935262 ], [ 115.0275025, -33.7936837 ], [ 115.0275085, -33.7936678 ], [ 115.0275291, -33.7936732 ], [ 115.0275356, -33.7936561 ], [ 115.0275562, -33.7936615 ], [ 115.0275497, -33.7936787 ], [ 115.0275703, -33.7936841 ], [ 115.0275643, -33.7937 ], [ 115.0276672, -33.7937272 ], [ 115.0276798, -33.7936941 ], [ 115.0277416, -33.7937104 ], [ 115.027735, -33.7937275 ], [ 115.0277762, -33.7937384 ], [ 115.0277702, -33.7937544 ], [ 115.0283674, -33.7939119 ], [ 115.0283865, -33.7938615 ], [ 115.0283659, -33.7938561 ], [ 115.0283724, -33.7938389 ], [ 115.0283312, -33.793828 ], [ 115.0283377, -33.7938108 ], [ 115.0283171, -33.7938054 ], [ 115.0283236, -33.7937882 ], [ 115.028303, -33.7937828 ], [ 115.028329, -33.793714 ], [ 115.0283084, -33.7937086 ], [ 115.0283149, -33.7936914 ], [ 115.0282531, -33.7936751 ], [ 115.0282597, -33.7936579 ], [ 115.0282391, -33.7936524 ], [ 115.0282456, -33.7936353 ], [ 115.0282044, -33.7936244 ], [ 115.0282109, -33.7936072 ], [ 115.0281697, -33.7935963 ], [ 115.0281762, -33.7935791 ], [ 115.0281556, -33.7935737 ], [ 115.0281621, -33.7935565 ], [ 115.0281415, -33.7935511 ], [ 115.028148, -33.7935339 ], [ 115.0281274, -33.7935285 ], [ 115.0281339, -33.7935113 ], [ 115.0281133, -33.7935058 ], [ 115.0281198, -33.7934887 ], [ 115.0280992, -33.7934832 ], [ 115.0281188, -33.7934316 ], [ 115.0280982, -33.7934262 ], [ 115.0281047, -33.793409 ], [ 115.0280841, -33.7934036 ], [ 115.0280906, -33.7933864 ], [ 115.0280288, -33.7933701 ], [ 115.0280353, -33.7933529 ], [ 115.0279941, -33.793342 ], [ 115.0279876, -33.7933592 ], [ 115.027967, -33.7933538 ], [ 115.0279735, -33.7933366 ], [ 115.0279323, -33.7933258 ], [ 115.0279258, -33.7933429 ], [ 115.0279052, -33.7933375 ], [ 115.0279117, -33.7933203 ], [ 115.0278705, -33.7933095 ], [ 115.027864, -33.7933267 ], [ 115.0278434, -33.7933212 ], [ 115.02785, -33.793304 ], [ 115.0278294, -33.7932986 ], [ 115.0278229, -33.7933158 ], [ 115.0277611, -33.7932995 ], [ 115.0277676, -33.7932823 ], [ 115.0277264, -33.7932715 ], [ 115.0277199, -33.7932886 ], [ 115.0276581, -33.7932724 ], [ 115.0276646, -33.7932552 ], [ 115.0276852, -33.7932606 ], [ 115.027691, -33.7932452 ], [ 115.0276498, -33.7932344 ], [ 115.027644, -33.7932497 ], [ 115.0276234, -33.7932443 ], [ 115.0276292, -33.793229 ], [ 115.0274644, -33.7931856 ], [ 115.0274587, -33.7932009 ], [ 115.0274381, -33.7931954 ], [ 115.0274316, -33.7932126 ], [ 115.0273904, -33.7932018 ], [ 115.0273839, -33.793219 ], [ 115.0273633, -33.7932135 ], [ 115.0273698, -33.7931963 ], [ 115.0273286, -33.7931855 ], [ 115.0273351, -33.7931683 ], [ 115.0273145, -33.7931628 ], [ 115.0273203, -33.7931477 ], [ 115.0272379, -33.793126 ], [ 115.0272321, -33.7931411 ], [ 115.0272116, -33.7931357 ], [ 115.0272173, -33.7931206 ], [ 115.0271761, -33.7931098 ], [ 115.0271704, -33.7931248 ], [ 115.0271498, -33.7931194 ], [ 115.0271555, -33.7931044 ], [ 115.0271143, -33.7930935 ], [ 115.0271086, -33.7931085 ], [ 115.0270468, -33.7930923 ], [ 115.0270525, -33.7930773 ], [ 115.0269907, -33.793061 ], [ 115.026985, -33.793076 ], [ 115.0269644, -33.7930705 ], [ 115.0269701, -33.7930556 ], [ 115.0269495, -33.7930502 ], [ 115.0269438, -33.7930651 ], [ 115.0269027, -33.7930542 ], [ 115.0269083, -33.7930393 ], [ 115.0268877, -33.7930339 ], [ 115.0268821, -33.7930488 ], [ 115.0268615, -33.7930434 ], [ 115.0268671, -33.7930285 ], [ 115.0268053, -33.7930123 ], [ 115.0267997, -33.7930271 ], [ 115.0267791, -33.7930217 ], [ 115.0267847, -33.7930068 ], [ 115.0266405, -33.7929689 ], [ 115.0266349, -33.7929836 ], [ 115.0265938, -33.7929728 ], [ 115.0265993, -33.7929581 ], [ 115.0265787, -33.7929527 ], [ 115.0265471, -33.7930361 ], [ 115.0265274, -33.7930309 ] ], [ [ 115.027812, -33.7934642 ], [ 115.027825, -33.7934298 ], [ 115.0278044, -33.7934244 ], [ 115.0278109, -33.7934072 ], [ 115.0277903, -33.7934018 ], [ 115.0278033, -33.7933674 ], [ 115.0278239, -33.7933728 ], [ 115.0278304, -33.7933556 ], [ 115.027851, -33.793361 ], [ 115.0278575, -33.7933439 ], [ 115.0278987, -33.7933547 ], [ 115.0278922, -33.7933719 ], [ 115.0279952, -33.7933991 ], [ 115.0279887, -33.7934163 ], [ 115.0280093, -33.7934217 ], [ 115.0280028, -33.7934389 ], [ 115.0280234, -33.7934443 ], [ 115.0280169, -33.7934615 ], [ 115.0280375, -33.7934669 ], [ 115.028031, -33.7934841 ], [ 115.0280515, -33.7934896 ], [ 115.0280385, -33.7935239 ], [ 115.0280591, -33.7935294 ], [ 115.0280526, -33.7935466 ], [ 115.0280938, -33.7935574 ], [ 115.0280873, -33.7935746 ], [ 115.0281079, -33.7935801 ], [ 115.0281014, -33.7935972 ], [ 115.028122, -33.7936027 ], [ 115.028109, -33.7936371 ], [ 115.0280678, -33.7936262 ], [ 115.0280613, -33.7936434 ], [ 115.0280407, -33.793638 ], [ 115.0280472, -33.7936208 ], [ 115.0280266, -33.7936153 ], [ 115.0280201, -33.7936325 ], [ 115.0279789, -33.7936217 ], [ 115.0279724, -33.7936389 ], [ 115.0279518, -33.7936334 ], [ 115.0279453, -33.7936506 ], [ 115.0279247, -33.7936452 ], [ 115.0279182, -33.7936624 ], [ 115.0278976, -33.793657 ], [ 115.0278846, -33.7936914 ], [ 115.0279052, -33.7936968 ], [ 115.0278987, -33.793714 ], [ 115.0278781, -33.7937085 ], [ 115.0278716, -33.7937257 ], [ 115.0278304, -33.7937149 ], [ 115.0278369, -33.7936977 ], [ 115.0278163, -33.7936923 ], [ 115.0278228, -33.7936751 ], [ 115.0277817, -33.7936642 ], [ 115.0277882, -33.793647 ], [ 115.027747, -33.7936361 ], [ 115.0277535, -33.793619 ], [ 115.0277329, -33.7936135 ], [ 115.0277589, -33.7935447 ], [ 115.0277795, -33.7935502 ], [ 115.027786, -33.793533 ], [ 115.0278066, -33.7935384 ], [ 115.0278326, -33.7934696 ], [ 115.027812, -33.7934642 ] ], [ [ 115.0272885, -33.7932316 ], [ 115.027282, -33.7932488 ], [ 115.0273644, -33.7932705 ], [ 115.0273709, -33.7932533 ], [ 115.0274121, -33.7932642 ], [ 115.0274186, -33.793247 ], [ 115.0274598, -33.7932579 ], [ 115.0274663, -33.7932407 ], [ 115.0275074, -33.7932515 ], [ 115.027514, -33.7932343 ], [ 115.0275345, -33.7932398 ], [ 115.027528, -33.793257 ], [ 115.0275692, -33.7932678 ], [ 115.0275367, -33.7933538 ], [ 115.0275161, -33.7933484 ], [ 115.0275031, -33.7933828 ], [ 115.0274825, -33.7933773 ], [ 115.0274695, -33.7934117 ], [ 115.0274489, -33.7934063 ], [ 115.0274424, -33.7934235 ], [ 115.0274218, -33.793418 ], [ 115.0274153, -33.7934352 ], [ 115.0273947, -33.7934298 ], [ 115.0273882, -33.793447 ], [ 115.0273676, -33.7934416 ], [ 115.0273546, -33.793476 ], [ 115.0272722, -33.7934542 ], [ 115.0272787, -33.793437 ], [ 115.0272581, -33.7934316 ], [ 115.0272712, -33.7933972 ], [ 115.0272506, -33.7933918 ], [ 115.0272571, -33.7933746 ], [ 115.0272365, -33.7933692 ], [ 115.027243, -33.793352 ], [ 115.0272018, -33.7933411 ], [ 115.0272083, -33.7933239 ], [ 115.0271877, -33.7933185 ], [ 115.0272007, -33.7932841 ], [ 115.0271389, -33.7932678 ], [ 115.0271324, -33.793285 ], [ 115.0271118, -33.7932796 ], [ 115.0271053, -33.7932968 ], [ 115.0270435, -33.7932805 ], [ 115.0270501, -33.7932633 ], [ 115.0270089, -33.7932524 ], [ 115.0270024, -33.7932696 ], [ 115.0269818, -33.7932642 ], [ 115.0269623, -33.7933158 ], [ 115.0269417, -33.7933103 ], [ 115.0269352, -33.7933275 ], [ 115.0269146, -33.7933221 ], [ 115.0269081, -33.7933393 ], [ 115.0268875, -33.7933339 ], [ 115.026894, -33.7933167 ], [ 115.0268528, -33.7933058 ], [ 115.0268593, -33.7932886 ], [ 115.0268387, -33.7932832 ], [ 115.0268452, -33.793266 ], [ 115.0268246, -33.7932606 ], [ 115.0268376, -33.7932262 ], [ 115.0268582, -33.7932316 ], [ 115.0268647, -33.7932144 ], [ 115.0269059, -33.7932253 ], [ 115.0269189, -33.7931909 ], [ 115.0268983, -33.7931855 ], [ 115.0269048, -33.7931683 ], [ 115.0268636, -33.7931574 ], [ 115.0268701, -33.7931402 ], [ 115.0268495, -33.7931348 ], [ 115.0268691, -33.7930832 ], [ 115.0270544, -33.7931321 ], [ 115.0270609, -33.7931149 ], [ 115.0271639, -33.793142 ], [ 115.0271574, -33.7931592 ], [ 115.0272809, -33.7931918 ], [ 115.0272679, -33.7932262 ], [ 115.0272885, -33.7932316 ] ], [ [ 115.0266035, -33.7931266 ], [ 115.0266241, -33.7931321 ], [ 115.0266176, -33.7931493 ], [ 115.026597, -33.7931438 ], [ 115.0266035, -33.7931266 ] ], [ [ 115.0267726, -33.7930389 ], [ 115.0267661, -33.793056 ], [ 115.0267867, -33.7930615 ], [ 115.0267737, -33.7930959 ], [ 115.0267325, -33.793085 ], [ 115.026739, -33.7930678 ], [ 115.0266566, -33.7930461 ], [ 115.0266696, -33.7930117 ], [ 115.0267726, -33.7930389 ] ], [ [ 115.0281122, -33.7938081 ], [ 115.028071, -33.7937972 ], [ 115.0280776, -33.79378 ], [ 115.028057, -33.7937746 ], [ 115.0280635, -33.7937574 ], [ 115.0280841, -33.7937629 ], [ 115.0280906, -33.7937457 ], [ 115.0281112, -33.7937511 ], [ 115.0281177, -33.7937339 ], [ 115.0281588, -33.7937448 ], [ 115.0281393, -33.7937963 ], [ 115.0281187, -33.7937909 ], [ 115.0281122, -33.7938081 ] ], [ [ 115.0277286, -33.7933855 ], [ 115.0277155, -33.7934199 ], [ 115.0276744, -33.793409 ], [ 115.0276874, -33.7933746 ], [ 115.0277286, -33.7933855 ] ], [ [ 115.0273904, -33.793561 ], [ 115.0273969, -33.7935438 ], [ 115.0273763, -33.7935384 ], [ 115.0273828, -33.7935212 ], [ 115.0274034, -33.7935266 ], [ 115.0274099, -33.7935094 ], [ 115.0274717, -33.7935257 ], [ 115.0274522, -33.7935773 ], [ 115.0273904, -33.793561 ] ], [ [ 115.0272256, -33.7935176 ], [ 115.0271433, -33.7934959 ], [ 115.0271628, -33.7934443 ], [ 115.0271834, -33.7934497 ], [ 115.0271899, -33.7934325 ], [ 115.0272516, -33.7934488 ], [ 115.0272256, -33.7935176 ] ], [ [ 115.0272256, -33.7935176 ], [ 115.0272462, -33.793523 ], [ 115.0272397, -33.7935402 ], [ 115.0272191, -33.7935348 ], [ 115.0272256, -33.7935176 ] ], [ [ 115.0272397, -33.7935402 ], [ 115.0272603, -33.7935456 ], [ 115.0272538, -33.7935628 ], [ 115.0272332, -33.7935574 ], [ 115.0272397, -33.7935402 ] ] ], [ [ [ 115.0278558, -33.7932886 ], [ 115.02785, -33.793304 ], [ 115.0278705, -33.7933095 ], [ 115.0278764, -33.793294 ], [ 115.0278558, -33.7932886 ] ] ], [ [ [ 115.0286591, -33.7934999 ], [ 115.0286179, -33.793489 ], [ 115.0286054, -33.7935221 ], [ 115.028626, -33.7935276 ], [ 115.0286325, -33.7935104 ], [ 115.0286531, -33.7935158 ], [ 115.0286591, -33.7934999 ] ] ], [ [ [ 115.0286797, -33.7935053 ], [ 115.0286737, -33.7935212 ], [ 115.0286943, -33.7935267 ], [ 115.0287003, -33.7935107 ], [ 115.0286797, -33.7935053 ] ] ], [ [ [ 115.0285024, -33.793495 ], [ 115.0284829, -33.7935466 ], [ 115.0285035, -33.793552 ], [ 115.028497, -33.7935692 ], [ 115.0285176, -33.7935746 ], [ 115.0285111, -33.7935918 ], [ 115.0285935, -33.7936135 ], [ 115.028587, -33.7936307 ], [ 115.0286488, -33.793647 ], [ 115.0286553, -33.7936298 ], [ 115.0286965, -33.7936407 ], [ 115.028703, -33.7936235 ], [ 115.0287236, -33.7936289 ], [ 115.0287301, -33.7936117 ], [ 115.0287712, -33.7936226 ], [ 115.0287647, -33.7936398 ], [ 115.0288059, -33.7936507 ], [ 115.0288124, -33.7936335 ], [ 115.028833, -33.7936389 ], [ 115.0288395, -33.7936217 ], [ 115.0288601, -33.7936271 ], [ 115.0288731, -33.7935927 ], [ 115.0286466, -33.793533 ], [ 115.0286401, -33.7935502 ], [ 115.0286607, -33.7935556 ], [ 115.0286542, -33.7935728 ], [ 115.0285718, -33.7935511 ], [ 115.0285783, -33.7935339 ], [ 115.0285577, -33.7935285 ], [ 115.0285642, -33.7935113 ], [ 115.0285024, -33.793495 ] ] ], [ [ [ 115.0288753, -33.7937068 ], [ 115.0288341, -33.7936959 ], [ 115.0288211, -33.7937303 ], [ 115.0288417, -33.7937357 ], [ 115.0288352, -33.7937529 ], [ 115.0288764, -33.7937638 ], [ 115.0288894, -33.7937294 ], [ 115.0288688, -33.793724 ], [ 115.0288753, -33.7937068 ] ] ], [ [ [ 115.0285144, -33.7937629 ], [ 115.0286379, -33.7937954 ], [ 115.0286444, -33.7937782 ], [ 115.0286238, -33.7937728 ], [ 115.0286303, -33.7937556 ], [ 115.0286097, -33.7937502 ], [ 115.0286228, -33.7937158 ], [ 115.0286022, -33.7937104 ], [ 115.0286087, -33.7936932 ], [ 115.0285057, -33.793666 ], [ 115.0284797, -33.7937348 ], [ 115.0285209, -33.7937457 ], [ 115.0285144, -33.7937629 ] ] ], [ [ [ 115.0285295, -33.7938425 ], [ 115.028536, -33.7938253 ], [ 115.0285154, -33.7938199 ], [ 115.0285089, -33.7938371 ], [ 115.0285295, -33.7938425 ] ] ], [ [ [ 115.0285436, -33.7938651 ], [ 115.0285501, -33.7938479 ], [ 115.0285295, -33.7938425 ], [ 115.028523, -33.7938597 ], [ 115.0285436, -33.7938651 ] ] ] ] } },
{ "type": "Feature", "properties": { "appName": "Brookland Valley 18 Feb 26", "rate": 3.0, "rateInt": 3, "unit": "l/ha", "zone": 3 }, "geometry": { "type": "MultiPolygon", "coordinates": [ [ [ [ 115.0267726, -33.7930389 ], [ 115.0266696, -33.7930117 ], [ 115.0266566, -33.7930461 ], [ 115.026739, -33.7930678 ], [ 115.0267325, -33.793085 ], [ 115.0267737, -33.7930959 ], [ 115.0267867, -33.7930615 ], [ 115.0267661, -33.793056 ], [ 115.0267726, -33.7930389 ] ] ], [ [ [ 115.0269189, -33.7931909 ], [ 115.0269059, -33.7932253 ], [ 115.0268647, -33.7932144 ], [ 115.0268582, -33.7932316 ], [ 115.0268376, -33.7932262 ], [ 115.0268246, -33.7932606 ], [ 115.0268452, -33.793266 ], [ 115.0268387, -33.7932832 ], [ 115.0268593, -33.7932886 ], [ 115.0268528, -33.7933058 ], [ 115.026894, -33.7933167 ], [ 115.0268875, -33.7933339 ], [ 115.0269081, -33.7933393 ], [ 115.0269146, -33.7933221 ], [ 115.0269352, -33.7933275 ], [ 115.0269417, -33.7933103 ], [ 115.0269623, -33.7933158 ], [ 115.0269818, -33.7932642 ], [ 115.0270024, -33.7932696 ], [ 115.0270089, -33.7932524 ], [ 115.0270501, -33.7932633 ], [ 115.0270435, -33.7932805 ], [ 115.0271053, -33.7932968 ], [ 115.0271118, -33.7932796 ], [ 115.0271324, -33.793285 ], [ 115.0271389, -33.7932678 ], [ 115.0272007, -33.7932841 ], [ 115.0271877, -33.7933185 ], [ 115.0272083, -33.7933239 ], [ 115.0272018, -33.7933411 ], [ 115.027243, -33.793352 ], [ 115.0272365, -33.7933692 ], [ 115.0272571, -33.7933746 ], [ 115.0272506, -33.7933918 ], [ 115.0272712, -33.7933972 ], [ 115.0272581, -33.7934316 ], [ 115.0272787, -33.793437 ], [ 115.0272722, -33.7934542 ], [ 115.0273546, -33.793476 ], [ 115.0273676, -33.7934416 ], [ 115.0273882, -33.793447 ], [ 115.0273947, -33.7934298 ], [ 115.0274153, -33.7934352 ], [ 115.0274218, -33.793418 ], [ 115.0274424, -33.7934235 ], [ 115.0274489, -33.7934063 ], [ 115.0274695, -33.7934117 ], [ 115.0274825, -33.7933773 ], [ 115.0275031, -33.7933828 ], [ 115.0275161, -33.7933484 ], [ 115.0275367, -33.7933538 ], [ 115.0275692, -33.7932678 ], [ 115.027528, -33.793257 ], [ 115.0275345, -33.7932398 ], [ 115.027514, -33.7932343 ], [ 115.0275074, -33.7932515 ], [ 115.0274663, -33.7932407 ], [ 115.0274598, -33.7932579 ], [ 115.0274186, -33.793247 ], [ 115.0274121, -33.7932642 ], [ 115.0273709, -33.7932533 ], [ 115.0273644, -33.7932705 ], [ 115.027282, -33.7932488 ], [ 115.0272885, -33.7932316 ], [ 115.0272679, -33.7932262 ], [ 115.0272809, -33.7931918 ], [ 115.0271574, -33.7931592 ], [ 115.0271639, -33.793142 ], [ 115.0270609, -33.7931149 ], [ 115.0270544, -33.7931321 ], [ 115.0268691, -33.7930832 ], [ 115.0268495, -33.7931348 ], [ 115.0268701, -33.7931402 ], [ 115.0268636, -33.7931574 ], [ 115.0269048, -33.7931683 ], [ 115.0268983, -33.7931855 ], [ 115.0269189, -33.7931909 ] ] ], [ [ [ 115.0285718, -33.7935511 ], [ 115.0286542, -33.7935728 ], [ 115.0286607, -33.7935556 ], [ 115.0286401, -33.7935502 ], [ 115.0286466, -33.793533 ], [ 115.0285642, -33.7935113 ], [ 115.0285577, -33.7935285 ], [ 115.0285783, -33.7935339 ], [ 115.0285718, -33.7935511 ] ] ], [ [ [ 115.0280678, -33.7936262 ], [ 115.028109, -33.7936371 ], [ 115.028122, -33.7936027 ], [ 115.0281014, -33.7935972 ], [ 115.0281079, -33.7935801 ], [ 115.0280873, -33.7935746 ], [ 115.0280938, -33.7935574 ], [ 115.0280526, -33.7935466 ], [ 115.0280591, -33.7935294 ], [ 115.0280385, -33.7935239 ], [ 115.0280515, -33.7934896 ], [ 115.028031, -33.7934841 ], [ 115.0280375, -33.7934669 ], [ 115.0280169, -33.7934615 ], [ 115.0280234, -33.7934443 ], [ 115.0280028, -33.7934389 ], [ 115.0280093, -33.7934217 ], [ 115.0279887, -33.7934163 ], [ 115.0279952, -33.7933991 ], [ 115.0278922, -33.7933719 ], [ 115.0278987, -33.7933547 ], [ 115.0278575, -33.7933439 ], [ 115.027851, -33.793361 ], [ 115.0278304, -33.7933556 ], [ 115.0278239, -33.7933728 ], [ 115.0278033, -33.7933674 ], [ 115.0277903, -33.7934018 ], [ 115.0278109, -33.7934072 ], [ 115.0278044, -33.7934244 ], [ 115.027825, -33.7934298 ], [ 115.027812, -33.7934642 ], [ 115.0278326, -33.7934696 ], [ 115.0278066, -33.7935384 ], [ 115.027786, -33.793533 ], [ 115.0277795, -33.7935502 ], [ 115.0277589, -33.7935447 ], [ 115.0277329, -33.7936135 ], [ 115.0277535, -33.793619 ], [ 115.027747, -33.7936361 ], [ 115.0277882, -33.793647 ], [ 115.0277817, -33.7936642 ], [ 115.0278228, -33.7936751 ], [ 115.0278163, -33.7936923 ], [ 115.0278369, -33.7936977 ], [ 115.0278304, -33.7937149 ], [ 115.0278716, -33.7937257 ], [ 115.0278781, -33.7937085 ], [ 115.0278987, -33.793714 ], [ 115.0279052, -33.7936968 ], [ 115.0278846, -33.7936914 ], [ 115.0278976, -33.793657 ], [ 115.0279182, -33.7936624 ], [ 115.0279247, -33.7936452 ], [ 115.0279453, -33.7936506 ], [ 115.0279518, -33.7936334 ], [ 115.0279724, -33.7936389 ], [ 115.0279789, -33.7936217 ], [ 115.0280201, -33.7936325 ], [ 115.0280266, -33.7936153 ], [ 115.0280472, -33.7936208 ], [ 115.0280407, -33.793638 ], [ 115.0280613, -33.7936434 ], [ 115.0280678, -33.7936262 ] ] ], [ [ [ 115.0266176, -33.7931493 ], [ 115.0266241, -33.7931321 ], [ 115.0266035, -33.7931266 ], [ 115.026597, -33.7931438 ], [ 115.0266176, -33.7931493 ] ] ], [ [ [ 115.0264876, -33.7932095 ], [ 115.0264819, -33.7932362 ], [ 115.0264748, -33.7932629 ], [ 115.0265656, -33.7932868 ], [ 115.0265721, -33.7932696 ], [ 115.0265927, -33.793275 ], [ 115.0265666, -33.7933438 ], [ 115.0265872, -33.7933492 ], [ 115.0265807, -33.7933664 ], [ 115.0266219, -33.7933773 ], [ 115.0266349, -33.7933429 ], [ 115.0266555, -33.7933483 ], [ 115.0266815, -33.7932796 ], [ 115.0266609, -33.7932741 ], [ 115.0266674, -33.7932569 ], [ 115.0266468, -33.7932515 ], [ 115.0266534, -33.7932343 ], [ 115.0266328, -33.7932289 ], [ 115.0266393, -33.7932117 ], [ 115.0266187, -33.7932063 ], [ 115.0266057, -33.7932407 ], [ 115.0265851, -33.7932352 ], [ 115.0265786, -33.7932524 ], [ 115.0265168, -33.7932361 ], [ 115.0265233, -33.7932189 ], [ 115.0264876, -33.7932095 ] ] ], [ [ [ 115.0272256, -33.7935176 ], [ 115.0272516, -33.7934488 ], [ 115.0271899, -33.7934325 ], [ 115.0271834, -33.7934497 ], [ 115.0271628, -33.7934443 ], [ 115.0271433, -33.7934959 ], [ 115.0272256, -33.7935176 ] ] ], [ [ [ 115.0273969, -33.7935438 ], [ 115.0273904, -33.793561 ], [ 115.0274522, -33.7935773 ], [ 115.0274717, -33.7935257 ], [ 115.0274099, -33.7935094 ], [ 115.0274034, -33.7935266 ], [ 115.0273828, -33.7935212 ], [ 115.0273763, -33.7935384 ], [ 115.0273969, -33.7935438 ] ] ], [ [ [ 115.0281588, -33.7937448 ], [ 115.0281177, -33.7937339 ], [ 115.0281112, -33.7937511 ], [ 115.0280906, -33.7937457 ], [ 115.0280841, -33.7937629 ], [ 115.0280635, -33.7937574 ], [ 115.028057, -33.7937746 ], [ 115.0280776, -33.79378 ], [ 115.028071, -33.7937972 ], [ 115.0281122, -33.7938081 ], [ 115.0281187, -33.7937909 ], [ 115.0281393, -33.7937963 ], [ 115.0281588, -33.7937448 ] ] ], [ [ [ 115.0272397, -33.7935402 ], [ 115.0272462, -33.793523 ], [ 115.0272256, -33.7935176 ], [ 115.0272191, -33.7935348 ], [ 115.0272397, -33.7935402 ] ] ], [ [ [ 115.0264558, -33.7933335 ], [ 115.0264275, -33.7934001 ], [ 115.0264729, -33.7934121 ], [ 115.0264853, -33.7933791 ], [ 115.0264648, -33.7933737 ], [ 115.0264713, -33.7933565 ], [ 115.0264507, -33.7933511 ], [ 115.0264572, -33.7933339 ], [ 115.0264558, -33.7933335 ] ] ], [ [ [ 115.0272538, -33.7935628 ], [ 115.0272603, -33.7935456 ], [ 115.0272397, -33.7935402 ], [ 115.0272332, -33.7935574 ], [ 115.0272538, -33.7935628 ] ] ] ] } }
]
}
