{
"type": "FeatureCollection",
"name": "NDVI - Block D 3 zones_Boundary",
"features": [
{ "type": "Feature", "properties": { "name": "Island Brook 080125" }, "geometry": { "type": "Polygon", "coordinates": [ [ [ 115.1557548, -33.7509786 ], [ 115.1552131, -33.7507327 ], [ 115.1551822, -33.7507791 ], [ 115.1546287, -33.7505296 ], [ 115.1542858, -33.751025 ], [ 115.1543595, -33.7510606 ], [ 115.1543326, -33.7510917 ], [ 115.1543212, -33.7511202 ], [ 115.1543338, -33.7511997 ], [ 115.1552962, -33.7516352 ], [ 115.1557548, -33.7509786 ] ] ] } }
]
}
