{
"type": "FeatureCollection",
"name": "NDVI - Block D 3 zones_Rx",
"features": [
{ "type": "Feature", "properties": { "appName": "Island Brook 080125", "rate": 1.0, "rateInt": 1, "unit": "l/ha", "zone": 1 }, "geometry": { "type": "MultiPolygon", "coordinates": [ [ [ [ 115.154402, -33.7508571 ], [ 115.1544755, -33.7508907 ], [ 115.154429, -33.7509619 ], [ 115.1544574, -33.7509748 ], [ 115.1544108, -33.7510461 ], [ 115.1544677, -33.751072 ], [ 115.1544522, -33.7510957 ], [ 115.1544806, -33.7511087 ], [ 115.1544495, -33.7511562 ], [ 115.154478, -33.7511691 ], [ 115.1544935, -33.7511454 ], [ 115.1545219, -33.7511583 ], [ 115.1545684, -33.7510871 ], [ 115.15454, -33.7510742 ], [ 115.1545711, -33.7510267 ], [ 115.1545426, -33.7510137 ], [ 115.1545737, -33.7509662 ], [ 115.1545453, -33.7509533 ], [ 115.1546539, -33.7507871 ], [ 115.1546823, -33.7508001 ], [ 115.1547599, -33.7506814 ], [ 115.1547883, -33.7506943 ], [ 115.1548038, -33.7506706 ], [ 115.1548607, -33.7506965 ], [ 115.1548451, -33.7507203 ], [ 115.1549304, -33.7507591 ], [ 115.1549149, -33.7507829 ], [ 115.1549433, -33.7507958 ], [ 115.1549278, -33.7508196 ], [ 115.1549562, -33.7508325 ], [ 115.1549407, -33.7508563 ], [ 115.1549975, -33.7508822 ], [ 115.154982, -33.750906 ], [ 115.1550104, -33.7509189 ], [ 115.155026, -33.7508952 ], [ 115.1550544, -33.7509081 ], [ 115.1550389, -33.7509319 ], [ 115.1550957, -33.7509578 ], [ 115.1551112, -33.7509341 ], [ 115.1551396, -33.750947 ], [ 115.1552017, -33.7508521 ], [ 115.1552301, -33.750865 ], [ 115.1552922, -33.7507701 ], [ 115.1552125, -33.7507337 ], [ 115.1551822, -33.7507791 ], [ 115.1551771, -33.7507768 ], [ 115.1551759, -33.7507787 ], [ 115.1550054, -33.7507009 ], [ 115.1550061, -33.7506997 ], [ 115.1549776, -33.7506869 ], [ 115.154977, -33.7506879 ], [ 115.1549485, -33.750675 ], [ 115.1549491, -33.7506741 ], [ 115.1548352, -33.7506227 ], [ 115.1548349, -33.7506231 ], [ 115.1548064, -33.7506101 ], [ 115.1548067, -33.7506098 ], [ 115.1547782, -33.750597 ], [ 115.154778, -33.7505972 ], [ 115.1547224, -33.7505718 ], [ 115.1546287, -33.7505296 ], [ 115.154402, -33.7508571 ] ], [ [ 115.1548349, -33.7506231 ], [ 115.1548633, -33.7506361 ], [ 115.1548478, -33.7506598 ], [ 115.1548193, -33.7506469 ], [ 115.1548349, -33.7506231 ] ] ], [ [ [ 115.1554238, -33.7510766 ], [ 115.1554083, -33.7511004 ], [ 115.155522, -33.7511522 ], [ 115.155553, -33.7511048 ], [ 115.1555246, -33.7510918 ], [ 115.1555556, -33.7510443 ], [ 115.1555272, -33.7510314 ], [ 115.1555427, -33.7510076 ], [ 115.1554575, -33.7509687 ], [ 115.155442, -33.7509925 ], [ 115.1554135, -33.7509795 ], [ 115.155398, -33.7510032 ], [ 115.1554264, -33.7510162 ], [ 115.1553954, -33.7510637 ], [ 115.1554238, -33.7510766 ] ] ], [ [ [ 115.1543288, -33.7511011 ], [ 115.1543212, -33.7511202 ], [ 115.154322, -33.7511255 ], [ 115.1543359, -33.7511043 ], [ 115.1543288, -33.7511011 ] ] ], [ [ [ 115.1544581, -33.751256 ], [ 115.1544598, -33.7512533 ], [ 115.1544314, -33.7512403 ], [ 115.1544469, -33.7512166 ], [ 115.1544185, -33.7512036 ], [ 115.154434, -33.7511799 ], [ 115.1543226, -33.7511291 ], [ 115.1543338, -33.7511997 ], [ 115.1544581, -33.751256 ] ] ], [ [ [ 115.1551414, -33.7515652 ], [ 115.1551419, -33.7515644 ], [ 115.1551987, -33.7515903 ], [ 115.1552143, -33.7515666 ], [ 115.1552427, -33.7515796 ], [ 115.1552582, -33.7515558 ], [ 115.1551729, -33.7515169 ], [ 115.1551574, -33.7515407 ], [ 115.1550722, -33.7515018 ], [ 115.1550566, -33.7515255 ], [ 115.1550851, -33.7515385 ], [ 115.1550845, -33.7515394 ], [ 115.1551414, -33.7515652 ] ] ], [ [ [ 115.1551983, -33.7515909 ], [ 115.1552268, -33.7516038 ], [ 115.1552272, -33.7516033 ], [ 115.1551987, -33.7515903 ], [ 115.1551983, -33.7515909 ] ] ] ] } },
{ "type": "Feature", "properties": { "appName": "Island Brook 080125", "rate": 2.0, "rateInt": 2, "unit": "l/ha", "zone": 2 }, "geometry": { "type": "MultiPolygon", "coordinates": [ [ [ [ 115.1556195, -33.7511724 ], [ 115.1556538, -33.7511199 ], [ 115.1556254, -33.7511069 ], [ 115.1556564, -33.7510595 ], [ 115.155628, -33.7510465 ], [ 115.1556435, -33.7510228 ], [ 115.1556151, -33.7510098 ], [ 115.1556306, -33.7509861 ], [ 115.1554601, -33.7509083 ], [ 115.1554756, -33.7508845 ], [ 115.1554188, -33.7508586 ], [ 115.1554343, -33.7508349 ], [ 115.1552922, -33.7507701 ], [ 115.1552301, -33.750865 ], [ 115.1552017, -33.7508521 ], [ 115.1551396, -33.750947 ], [ 115.1551112, -33.7509341 ], [ 115.1550957, -33.7509578 ], [ 115.1550389, -33.7509319 ], [ 115.1550544, -33.7509081 ], [ 115.155026, -33.7508952 ], [ 115.1550104, -33.7509189 ], [ 115.154982, -33.750906 ], [ 115.1549975, -33.7508822 ], [ 115.1549407, -33.7508563 ], [ 115.1549562, -33.7508325 ], [ 115.1549278, -33.7508196 ], [ 115.1549433, -33.7507958 ], [ 115.1549149, -33.7507829 ], [ 115.1549304, -33.7507591 ], [ 115.1548451, -33.7507203 ], [ 115.1548607, -33.7506965 ], [ 115.1548038, -33.7506706 ], [ 115.1547883, -33.7506943 ], [ 115.1547599, -33.7506814 ], [ 115.1546823, -33.7508001 ], [ 115.1546539, -33.7507871 ], [ 115.1545453, -33.7509533 ], [ 115.1545737, -33.7509662 ], [ 115.1545426, -33.7510137 ], [ 115.1545711, -33.7510267 ], [ 115.15454, -33.7510742 ], [ 115.1545684, -33.7510871 ], [ 115.1545219, -33.7511583 ], [ 115.1544935, -33.7511454 ], [ 115.154478, -33.7511691 ], [ 115.1544495, -33.7511562 ], [ 115.1544806, -33.7511087 ], [ 115.1544522, -33.7510957 ], [ 115.1544677, -33.751072 ], [ 115.1544108, -33.7510461 ], [ 115.1544574, -33.7509748 ], [ 115.154429, -33.7509619 ], [ 115.1544755, -33.7508907 ], [ 115.154402, -33.7508571 ], [ 115.1542858, -33.751025 ], [ 115.1543595, -33.7510606 ], [ 115.1543326, -33.7510917 ], [ 115.1543288, -33.7511011 ], [ 115.1543359, -33.7511043 ], [ 115.154322, -33.7511255 ], [ 115.1543226, -33.7511291 ], [ 115.154434, -33.7511799 ], [ 115.1544185, -33.7512036 ], [ 115.1544469, -33.7512166 ], [ 115.1544314, -33.7512403 ], [ 115.1544598, -33.7512533 ], [ 115.1544581, -33.751256 ], [ 115.1544866, -33.7512688 ], [ 115.1544882, -33.7512663 ], [ 115.1545167, -33.7512792 ], [ 115.1545477, -33.7512318 ], [ 115.1545761, -33.7512447 ], [ 115.1545916, -33.751221 ], [ 115.1547053, -33.7512728 ], [ 115.1547208, -33.7512491 ], [ 115.1547492, -33.751262 ], [ 115.1547648, -33.7512383 ], [ 115.1547932, -33.7512513 ], [ 115.1548242, -33.7512038 ], [ 115.1551084, -33.7513334 ], [ 115.1550929, -33.7513572 ], [ 115.1550645, -33.7513442 ], [ 115.155049, -33.7513679 ], [ 115.1550774, -33.7513809 ], [ 115.1550308, -33.7514521 ], [ 115.1550024, -33.7514392 ], [ 115.1549869, -33.7514629 ], [ 115.1549301, -33.751437 ], [ 115.1549145, -33.7514607 ], [ 115.1548577, -33.7514348 ], [ 115.1548567, -33.7514363 ], [ 115.154999, -33.7515007 ], [ 115.1549998, -33.7514996 ], [ 115.1550566, -33.7515255 ], [ 115.1550722, -33.7515018 ], [ 115.155129, -33.7515277 ], [ 115.1551445, -33.751504 ], [ 115.1552582, -33.7515558 ], [ 115.1552272, -33.7516033 ], [ 115.1552965, -33.7516349 ], [ 115.1553944, -33.7514947 ], [ 115.1553203, -33.7514609 ], [ 115.1553047, -33.7514846 ], [ 115.1551911, -33.7514327 ], [ 115.1552066, -33.751409 ], [ 115.1551782, -33.751396 ], [ 115.1552092, -33.7513486 ], [ 115.1552376, -33.7513615 ], [ 115.1552531, -33.7513378 ], [ 115.1552816, -33.7513507 ], [ 115.1553281, -33.7512795 ], [ 115.1554134, -33.7513184 ], [ 115.1554289, -33.7512947 ], [ 115.1554573, -33.7513076 ], [ 115.1554728, -33.7512839 ], [ 115.1555012, -33.7512969 ], [ 115.1555478, -33.7512256 ], [ 115.155574, -33.7512376 ], [ 115.1556195, -33.7511724 ] ], [ [ 115.1547547, -33.7508023 ], [ 115.1548399, -33.7508411 ], [ 115.1548244, -33.7508649 ], [ 115.1548528, -33.7508778 ], [ 115.1548373, -33.7509016 ], [ 115.1548657, -33.7509145 ], [ 115.1548347, -33.750962 ], [ 115.1548631, -33.750975 ], [ 115.1548476, -33.7509987 ], [ 115.1548192, -33.7509858 ], [ 115.1548037, -33.7510095 ], [ 115.15469, -33.7509577 ], [ 115.1546745, -33.7509814 ], [ 115.154646, -33.7509684 ], [ 115.1546616, -33.7509447 ], [ 115.1546331, -33.7509317 ], [ 115.1546642, -33.7508842 ], [ 115.1546926, -33.7508972 ], [ 115.1547547, -33.7508023 ] ], [ [ 115.155398, -33.7510032 ], [ 115.1554135, -33.7509795 ], [ 115.155442, -33.7509925 ], [ 115.1554575, -33.7509687 ], [ 115.1555427, -33.7510076 ], [ 115.1555272, -33.7510314 ], [ 115.1555556, -33.7510443 ], [ 115.1555246, -33.7510918 ], [ 115.155553, -33.7511048 ], [ 115.155522, -33.7511522 ], [ 115.1554083, -33.7511004 ], [ 115.1554238, -33.7510766 ], [ 115.1553954, -33.7510637 ], [ 115.1554264, -33.7510162 ], [ 115.155398, -33.7510032 ] ], [ [ 115.1553307, -33.7512191 ], [ 115.155217, -33.7511672 ], [ 115.1552326, -33.7511435 ], [ 115.1551757, -33.7511176 ], [ 115.1551912, -33.7510938 ], [ 115.1551628, -33.7510809 ], [ 115.1551939, -33.7510334 ], [ 115.1553075, -33.7510852 ], [ 115.155292, -33.751109 ], [ 115.1553489, -33.7511349 ], [ 115.1553333, -33.7511586 ], [ 115.1553618, -33.7511716 ], [ 115.1553462, -33.7511953 ], [ 115.1553747, -33.7512083 ], [ 115.1553436, -33.7512558 ], [ 115.1553152, -33.7512428 ], [ 115.1553307, -33.7512191 ] ], [ [ 115.1553021, -33.751545 ], [ 115.1552737, -33.7515321 ], [ 115.1552892, -33.7515083 ], [ 115.1553176, -33.7515213 ], [ 115.1553021, -33.751545 ] ], [ [ 115.1550308, -33.7514521 ], [ 115.1550593, -33.7514651 ], [ 115.1550437, -33.7514888 ], [ 115.1550153, -33.7514759 ], [ 115.1550308, -33.7514521 ] ], [ [ 115.1551911, -33.7514327 ], [ 115.1551755, -33.7514565 ], [ 115.1551471, -33.7514435 ], [ 115.1551626, -33.7514198 ], [ 115.1551911, -33.7514327 ] ] ], [ [ [ 115.1548478, -33.7506598 ], [ 115.1548633, -33.7506361 ], [ 115.1548349, -33.7506231 ], [ 115.1548193, -33.7506469 ], [ 115.1548478, -33.7506598 ] ] ], [ [ [ 115.1554597, -33.7514012 ], [ 115.1554923, -33.7513544 ], [ 115.1554702, -33.7513443 ], [ 115.1554392, -33.7513918 ], [ 115.1554597, -33.7514012 ] ] ] ] } },
{ "type": "Feature", "properties": { "appName": "Island Brook 080125", "rate": 3.0, "rateInt": 3, "unit": "l/ha", "zone": 3 }, "geometry": { "type": "MultiPolygon", "coordinates": [ [ [ [ 115.1557372, -33.7510039 ], [ 115.1557314, -33.7510012 ], [ 115.1557469, -33.7509775 ], [ 115.1554343, -33.7508349 ], [ 115.1554188, -33.7508586 ], [ 115.1554756, -33.7508845 ], [ 115.1554601, -33.7509083 ], [ 115.1556306, -33.7509861 ], [ 115.1556151, -33.7510098 ], [ 115.1556435, -33.7510228 ], [ 115.155628, -33.7510465 ], [ 115.1556564, -33.7510595 ], [ 115.1556254, -33.7511069 ], [ 115.1556538, -33.7511199 ], [ 115.1556693, -33.7510962 ], [ 115.1556719, -33.7510973 ], [ 115.1556882, -33.751074 ], [ 115.1556848, -33.7510724 ], [ 115.1557159, -33.7510249 ], [ 115.1557209, -33.7510272 ], [ 115.1557372, -33.7510039 ] ] ], [ [ [ 115.1548399, -33.7508411 ], [ 115.1547547, -33.7508023 ], [ 115.1546926, -33.7508972 ], [ 115.1546642, -33.7508842 ], [ 115.1546331, -33.7509317 ], [ 115.1546616, -33.7509447 ], [ 115.154646, -33.7509684 ], [ 115.1546745, -33.7509814 ], [ 115.15469, -33.7509577 ], [ 115.1548037, -33.7510095 ], [ 115.1548192, -33.7509858 ], [ 115.1548476, -33.7509987 ], [ 115.1548631, -33.750975 ], [ 115.1548347, -33.750962 ], [ 115.1548657, -33.7509145 ], [ 115.1548373, -33.7509016 ], [ 115.1548528, -33.7508778 ], [ 115.1548244, -33.7508649 ], [ 115.1548399, -33.7508411 ] ] ], [ [ [ 115.1553075, -33.7510852 ], [ 115.1551939, -33.7510334 ], [ 115.1551628, -33.7510809 ], [ 115.1551912, -33.7510938 ], [ 115.1551757, -33.7511176 ], [ 115.1552326, -33.7511435 ], [ 115.155217, -33.7511672 ], [ 115.1553307, -33.7512191 ], [ 115.1553152, -33.7512428 ], [ 115.1553436, -33.7512558 ], [ 115.1553747, -33.7512083 ], [ 115.1553462, -33.7511953 ], [ 115.1553618, -33.7511716 ], [ 115.1553333, -33.7511586 ], [ 115.1553489, -33.7511349 ], [ 115.155292, -33.751109 ], [ 115.1553075, -33.7510852 ] ] ], [ [ [ 115.155574, -33.7512376 ], [ 115.1555478, -33.7512256 ], [ 115.1555012, -33.7512969 ], [ 115.1554728, -33.7512839 ], [ 115.1554573, -33.7513076 ], [ 115.1554289, -33.7512947 ], [ 115.1554134, -33.7513184 ], [ 115.1553281, -33.7512795 ], [ 115.1552816, -33.7513507 ], [ 115.1552531, -33.7513378 ], [ 115.1552376, -33.7513615 ], [ 115.1552092, -33.7513486 ], [ 115.1551782, -33.751396 ], [ 115.1552918, -33.7514479 ], [ 115.1552763, -33.7514716 ], [ 115.1553047, -33.7514846 ], [ 115.1553203, -33.7514609 ], [ 115.1553944, -33.7514947 ], [ 115.1554597, -33.7514012 ], [ 115.1554392, -33.7513918 ], [ 115.1554702, -33.7513443 ], [ 115.1554923, -33.7513544 ], [ 115.155574, -33.7512376 ] ] ], [ [ [ 115.1545477, -33.7512318 ], [ 115.1545167, -33.7512792 ], [ 115.1549145, -33.7514607 ], [ 115.1549301, -33.751437 ], [ 115.1549869, -33.7514629 ], [ 115.1550179, -33.7514154 ], [ 115.1550463, -33.7514284 ], [ 115.1550774, -33.7513809 ], [ 115.155049, -33.7513679 ], [ 115.1550645, -33.7513442 ], [ 115.1550929, -33.7513572 ], [ 115.1551084, -33.7513334 ], [ 115.1548242, -33.7512038 ], [ 115.1547932, -33.7512513 ], [ 115.1547648, -33.7512383 ], [ 115.1547492, -33.751262 ], [ 115.1547208, -33.7512491 ], [ 115.1547053, -33.7512728 ], [ 115.1545916, -33.751221 ], [ 115.1545761, -33.7512447 ], [ 115.1545477, -33.7512318 ] ] ] ] } }
]
}
