{
"type": "FeatureCollection",
"name": "block5boundary",
"crs": { "type": "name", "properties": { "name": "urn:ogc:def:crs:OGC:1.3:CRS84" } },
"features": [
{ "type": "Feature", "properties": { "name": "Brindle 17 Jan 2026" }, "geometry": { "type": "MultiPolygon", "coordinates": [ [ [ [ 115.028061708738676, -33.788073768596639 ], [ 115.028044782207814, -33.789814699401781 ], [ 115.025866569896323, -33.789808354461726 ], [ 115.025877007693964, -33.787611612686753 ], [ 115.02606851181514, -33.787622961014826 ], [ 115.026235267207255, -33.787626365506135 ], [ 115.026470636347881, -33.78763714638842 ], [ 115.026672210652293, -33.787648210973948 ], [ 115.026877881281052, -33.787657289625784 ], [ 115.026978583093637, -33.787622535457736 ], [ 115.026982679438674, -33.787554587456682 ], [ 115.02766779968789, -33.787481578560012 ], [ 115.027793189365582, -33.787448866224977 ], [ 115.027793470505401, -33.78752807677045 ], [ 115.027821022489206, -33.787528777741223 ], [ 115.027820460209398, -33.78760121209686 ], [ 115.027850823626295, -33.78760121209686 ], [ 115.027850542469366, -33.787668505890487 ], [ 115.027884279599277, -33.787670375157063 ], [ 115.027883717319412, -33.787733930366088 ], [ 115.027915486452969, -33.787735799645418 ], [ 115.027912393879831, -33.787803560645678 ], [ 115.027940789300374, -33.787805196253096 ], [ 115.027939102443838, -33.787872723542478 ], [ 115.027972558433873, -33.787873658180615 ], [ 115.027971433857147, -33.78794235370917 ], [ 115.028001234994349, -33.787943288332372 ], [ 115.027998985858005, -33.788008245286825 ], [ 115.02802681898163, -33.788008245272579 ], [ 115.028026256701821, -33.78807600605721 ], [ 115.028061708738676, -33.788073768596639 ] ] ] ] } }
]
}
