{
"type": "FeatureCollection",
"name": "block5rx",
"crs": { "type": "name", "properties": { "name": "urn:ogc:def:crs:OGC:1.3:CRS84" } },
"features": [
{ "type": "Feature", "properties": { "appName": "Brindle 17 Jan 2026", "rate": 1.0, "rateInt": 1, "unit": "l/ha", "zone": 1 }, "geometry": { "type": "MultiPolygon", "coordinates": [ [ [ [ 115.02668172997852, -33.787648631173219 ], [ 115.026740026529311, -33.787651204482259 ], [ 115.026740006461921, -33.78765660804163 ], [ 115.026827464792746, -33.787656834453252 ], [ 115.026827374418147, -33.787681176242636 ], [ 115.026856527204146, -33.787681251699716 ], [ 115.02685634647024, -33.787729935278833 ], [ 115.026885499273163, -33.787730010729653 ], [ 115.026885408913856, -33.787754352519393 ], [ 115.026914561725434, -33.787754427963627 ], [ 115.02691438102211, -33.787803111543468 ], [ 115.026885228194033, -33.787803036098587 ], [ 115.026885047472575, -33.78785171967742 ], [ 115.026826741784603, -33.787851568765724 ], [ 115.026826651406751, -33.787875910554369 ], [ 115.026797498555126, -33.787875835087867 ], [ 115.026797588941221, -33.787851493299549 ], [ 115.026739283255665, -33.787851342346492 ], [ 115.026739192853086, -33.787875684134193 ], [ 115.026680887152651, -33.787875533152942 ], [ 115.026680796733146, -33.787899874939896 ], [ 115.026622491017847, -33.787899723930465 ], [ 115.026622400581388, -33.787924065716695 ], [ 115.026593247716107, -33.787923990201321 ], [ 115.026593157271009, -33.787948331987145 ], [ 115.026564004397869, -33.787948256464546 ], [ 115.02656382348998, -33.787996940035299 ], [ 115.026592976379604, -33.787997015558538 ], [ 115.026592433695683, -33.78814306627045 ], [ 115.026563280756505, -33.788142990745328 ], [ 115.026563099842107, -33.788191674314604 ], [ 115.026533946886829, -33.78819159878195 ], [ 115.026533675487428, -33.788264624134214 ], [ 115.026504522507793, -33.788264548593723 ], [ 115.026504432032254, -33.788288890377295 ], [ 115.026475279044774, -33.788288814829599 ], [ 115.026475188560582, -33.788313156612787 ], [ 115.026446035565257, -33.788313081057858 ], [ 115.026445945072425, -33.788337422840627 ], [ 115.026416792069227, -33.788337347278514 ], [ 115.026416701567712, -33.788361689060864 ], [ 115.026387548556684, -33.788361613491531 ], [ 115.026387458046528, -33.78838595527349 ], [ 115.026329152009168, -33.78838580411351 ], [ 115.026329242535851, -33.788361462332205 ], [ 115.026300089526046, -33.788361386742189 ], [ 115.026300180060588, -33.788337044961111 ], [ 115.026271027059423, -33.788336969364529 ], [ 115.026271298685344, -33.788263944021665 ], [ 115.02630045166174, -33.788264019617287 ], [ 115.026300723259226, -33.78819099427264 ], [ 115.02632987621125, -33.788191069860424 ], [ 115.026329966734693, -33.78816672807838 ], [ 115.026359119678872, -33.78816680365896 ], [ 115.026359210193647, -33.78814246187649 ], [ 115.026388363129968, -33.788142537449865 ], [ 115.026388544141795, -33.788093853884028 ], [ 115.026417697062044, -33.788093929449865 ], [ 115.026418059047785, -33.787996562315818 ], [ 115.026388906160577, -33.787996486751254 ], [ 115.026389177670382, -33.787923461400702 ], [ 115.026301719085453, -33.78792323466849 ], [ 115.026301628557832, -33.787947576451145 ], [ 115.026272475688728, -33.787947500859644 ], [ 115.026272385152467, -33.787971842641888 ], [ 115.026184926522873, -33.787971615825079 ], [ 115.026185017083904, -33.787947274043781 ], [ 115.026214169951785, -33.787947349655958 ], [ 115.026214260504176, -33.787923007874262 ], [ 115.026243413364199, -33.787923083479228 ], [ 115.026243594451245, -33.787874399914912 ], [ 115.026272747295181, -33.787874475512353 ], [ 115.026272837829836, -33.787850133729727 ], [ 115.026301990665914, -33.787850209319956 ], [ 115.026302081191901, -33.787825867536938 ], [ 115.026331234020134, -33.787825943119962 ], [ 115.02633132453748, -33.787801601336533 ], [ 115.026389630178627, -33.787801752481272 ], [ 115.026389720679077, -33.787777410697103 ], [ 115.026418873491991, -33.787777486258825 ], [ 115.026418963983758, -33.787753144474252 ], [ 115.02644811678887, -33.787753220028755 ], [ 115.026448207271983, -33.787728878243783 ], [ 115.026477360069208, -33.787728953791067 ], [ 115.026477450543666, -33.787704612005683 ], [ 115.026506603333047, -33.787704687545784 ], [ 115.026506693798837, -33.787680345759973 ], [ 115.026535846580387, -33.787680421292848 ], [ 115.026535756122868, -33.78770476307897 ], [ 115.026623214494677, -33.787704989637227 ], [ 115.026623304927469, -33.787680647850159 ], [ 115.026681610494194, -33.787680798853891 ], [ 115.02668172997852, -33.787648631173219 ] ] ], [ [ [ 115.027914518353057, -33.787757011566804 ], [ 115.027905757560404, -33.787756988967338 ], [ 115.027905838066559, -33.787735231939372 ], [ 115.027915486452969, -33.787735799645418 ], [ 115.027914518353057, -33.787757011566804 ] ] ], [ [ [ 115.027147513375155, -33.787828056646696 ], [ 115.027147423088508, -33.787852398438915 ], [ 115.027089117393245, -33.787852247651266 ], [ 115.027089207696392, -33.787827905859686 ], [ 115.027147513375155, -33.787828056646696 ] ] ], [ [ [ 115.028026477439923, -33.788049404734771 ], [ 115.027992135459286, -33.788049316169968 ], [ 115.02799222550982, -33.788024974369293 ], [ 115.027963072592456, -33.788024899176555 ], [ 115.027963252708787, -33.787976215575554 ], [ 115.027934099808348, -33.787976140376564 ], [ 115.027934189874173, -33.787951798576245 ], [ 115.027905036982375, -33.787951723370689 ], [ 115.027905307202175, -33.787878697970122 ], [ 115.027934460069218, -33.787878773174747 ], [ 115.027934550133409, -33.787854431374051 ], [ 115.027939559066184, -33.787854444294183 ], [ 115.027939102443838, -33.787872723542478 ], [ 115.027963633060992, -33.787873408838301 ], [ 115.027963612936659, -33.787878848372465 ], [ 115.027972473093996, -33.787878871224514 ], [ 115.027971433857147, -33.78794235370917 ], [ 115.028001234994349, -33.787943288332372 ], [ 115.027998985858005, -33.788008245286825 ], [ 115.02802681898163, -33.788008245272579 ], [ 115.028026477439923, -33.788049404734771 ] ] ], [ [ [ 115.025874375684921, -33.788165546037732 ], [ 115.025874838322579, -33.788068179188144 ], [ 115.025893035205556, -33.788068226432642 ], [ 115.025893488427542, -33.787946517542949 ], [ 115.025922641291345, -33.787946593224049 ], [ 115.025922913194904, -33.787873567888177 ], [ 115.026010371714491, -33.787873794887247 ], [ 115.026010190495398, -33.787922478446504 ], [ 115.026039343352565, -33.787922554099708 ], [ 115.02603925275065, -33.787946895879514 ], [ 115.026068405616485, -33.787946971526154 ], [ 115.026068315022428, -33.787971313306173 ], [ 115.026097467896932, -33.787971388946247 ], [ 115.026097286724081, -33.788020072506647 ], [ 115.026068133833078, -33.788019996865948 ], [ 115.0260680432378, -33.788044338645697 ], [ 115.026038890338953, -33.788044262997801 ], [ 115.026038165496047, -33.788238997229939 ], [ 115.025950706603851, -33.788238770237257 ], [ 115.025950797235382, -33.788214428459511 ], [ 115.025921644280373, -33.788214352781814 ], [ 115.025921734919777, -33.788190011004303 ], [ 115.025892581973423, -33.788189935320027 ], [ 115.025892672620657, -33.788165593542736 ], [ 115.025874375684921, -33.788165546037732 ] ] ], [ [ [ 115.027293097087991, -33.787877117081145 ], [ 115.027293006841802, -33.787901458874764 ], [ 115.027322159708589, -33.787901534224432 ], [ 115.027322069470245, -33.787925876018271 ], [ 115.027234610846364, -33.78792564994766 ], [ 115.027234791372152, -33.787876966361772 ], [ 115.027293097087991, -33.787877117081145 ] ] ], [ [ [ 115.027606608804859, -33.789813423041366 ], [ 115.027431687910735, -33.78981291351225 ], [ 115.027432185125249, -33.78967878635487 ], [ 115.027519645540522, -33.789679012349218 ], [ 115.027519735750289, -33.789654670559791 ], [ 115.027578042679309, -33.789654821187597 ], [ 115.027578223064594, -33.789606137607215 ], [ 115.027549069616384, -33.789606062297395 ], [ 115.027549159816687, -33.789581720507385 ], [ 115.027520006377131, -33.789581645190985 ], [ 115.027520186792998, -33.789532961611322 ], [ 115.027491033370353, -33.789532886288683 ], [ 115.027491574657759, -33.789386835549365 ], [ 115.027462421285065, -33.789386760221717 ], [ 115.02746260172745, -33.789338076641862 ], [ 115.027433448371639, -33.789338001307939 ], [ 115.027433538600491, -33.789313659518186 ], [ 115.027404385253377, -33.789313584177719 ], [ 115.027404565726371, -33.789264900598553 ], [ 115.02737541239614, -33.78926482525182 ], [ 115.027375502640282, -33.789240483462422 ], [ 115.027200582717001, -33.789240031239167 ], [ 115.027200492423347, -33.789264373026668 ], [ 115.027171339095958, -33.789264297631682 ], [ 115.027170887580269, -33.789386006566204 ], [ 115.027141734212023, -33.789385931162762 ], [ 115.027141643899441, -33.789410272949077 ], [ 115.027112490523336, -33.789410197538395 ], [ 115.027112761484688, -33.789337172180147 ], [ 115.027083608133779, -33.789337096763539 ], [ 115.027084330745595, -33.789142362473321 ], [ 115.027055177461108, -33.789142287052336 ], [ 115.027055538790293, -33.789044919906289 ], [ 115.027084692041768, -33.789044995325987 ], [ 115.027084872687425, -33.788996311751767 ], [ 115.027055719452463, -33.7889962363327 ], [ 115.027056261429209, -33.788850185609732 ], [ 115.02708541461466, -33.788850261026894 ], [ 115.027085504934419, -33.788825919239095 ], [ 115.027114658112012, -33.788825994649045 ], [ 115.027114748423145, -33.788801652860833 ], [ 115.027173054763026, -33.788801803659425 ], [ 115.027172964468406, -33.788826145448262 ], [ 115.027231270826434, -33.788826296219924 ], [ 115.027230999989683, -33.788899321587813 ], [ 115.027260153194064, -33.78889939696424 ], [ 115.027260062922565, -33.788923738753681 ], [ 115.027318369349061, -33.788923889486512 ], [ 115.027318459604018, -33.788899547696452 ], [ 115.027347612809621, -33.788899623052217 ], [ 115.027347793301828, -33.788850939471189 ], [ 115.027376946491316, -33.788851014819429 ], [ 115.027377036728566, -33.788826673028453 ], [ 115.027435343092264, -33.788826823703623 ], [ 115.027435252871527, -33.788851165495231 ], [ 115.027464406062222, -33.788851240822801 ], [ 115.027464315849357, -33.788875582614622 ], [ 115.027493469048721, -33.788875657935606 ], [ 115.027493378843687, -33.788899999727676 ], [ 115.027522532051705, -33.788900075042079 ], [ 115.027522441854501, -33.788924416834362 ], [ 115.027580748288301, -33.788924567443139 ], [ 115.027580477743811, -33.788997592821332 ], [ 115.027609630986078, -33.788997668116338 ], [ 115.027609270287456, -33.789095035287225 ], [ 115.027580117012164, -33.789094959990955 ], [ 115.027579756274037, -33.789192327159093 ], [ 115.027725522819566, -33.789192703577882 ], [ 115.027725793249957, -33.78911967819716 ], [ 115.027696639964802, -33.789119602928132 ], [ 115.027696820266215, -33.789070919341157 ], [ 115.02775512680391, -33.789071069871056 ], [ 115.027755216937493, -33.789046728076791 ], [ 115.027784370198717, -33.789046803331068 ], [ 115.02778527142975, -33.788803385380227 ], [ 115.027756118251091, -33.788803310129097 ], [ 115.027756208380225, -33.78877896833383 ], [ 115.027727055210221, -33.788778893076127 ], [ 115.027727145347214, -33.788754551281073 ], [ 115.027697992185864, -33.788754476016805 ], [ 115.02769826261914, -33.788681450632041 ], [ 115.027669109482957, -33.788681375361833 ], [ 115.027669199634829, -33.788657033567041 ], [ 115.027640046507287, -33.788656958290261 ], [ 115.027640136667017, -33.788632616495697 ], [ 115.027581830429725, -33.788632465922092 ], [ 115.027581920605542, -33.788608124128061 ], [ 115.027552767495735, -33.788608048831243 ], [ 115.027552857679396, -33.788583707037454 ], [ 115.027377939078704, -33.78858325511365 ], [ 115.027378119543854, -33.788534571529588 ], [ 115.027407272626462, -33.788534646866815 ], [ 115.027407453073494, -33.788485963281744 ], [ 115.027465759206876, -33.788486113934248 ], [ 115.027465849413275, -33.788461772140948 ], [ 115.027495002472321, -33.788461847456546 ], [ 115.02749509267008, -33.78843750566282 ], [ 115.027524245721281, -33.78843758097122 ], [ 115.027524786849682, -33.788291530205072 ], [ 115.027553939851757, -33.788291605504661 ], [ 115.02755403003016, -33.78826726370967 ], [ 115.027612336019033, -33.788267414287553 ], [ 115.027612426180497, -33.788243072491838 ], [ 115.027641579167309, -33.788243147770132 ], [ 115.027641669320133, -33.788218805973983 ], [ 115.027670822299072, -33.788218881245072 ], [ 115.027670912443213, -33.788194539448533 ], [ 115.027700065414322, -33.788194614712403 ], [ 115.027700155549823, -33.788170272915444 ], [ 115.027729308513059, -33.788170348172109 ], [ 115.027729398639906, -33.788146006374745 ], [ 115.027758551595312, -33.788146081624205 ], [ 115.027758641713504, -33.788121739826437 ], [ 115.027787794661052, -33.788121815068678 ], [ 115.027787884770561, -33.788097473270497 ], [ 115.027817037710278, -33.788097548505547 ], [ 115.027817127811133, -33.788073206706947 ], [ 115.027846280743006, -33.788073281934771 ], [ 115.027846370835192, -33.788048940135774 ], [ 115.027904676683619, -33.788049090570127 ], [ 115.027904586607917, -33.788073432369764 ], [ 115.027933739540984, -33.788073507576911 ], [ 115.027933469336219, -33.788146532976207 ], [ 115.027962622294453, -33.788146608177421 ], [ 115.027962442172424, -33.788195291777122 ], [ 115.027991595147569, -33.788195366972076 ], [ 115.027991234931662, -33.788292734171627 ], [ 115.027962081923476, -33.788292658975415 ], [ 115.027961991860252, -33.788317000774747 ], [ 115.027874532813428, -33.788316775143791 ], [ 115.027874442725036, -33.788341116942085 ], [ 115.027816136679306, -33.788340966486359 ], [ 115.027816046573989, -33.788365308283922 ], [ 115.027699434454462, -33.788365007288476 ], [ 115.027699344315707, -33.788389349084689 ], [ 115.027670191278574, -33.788389273818282 ], [ 115.02766974053749, -33.788510982796382 ], [ 115.027757199773902, -33.788511208579685 ], [ 115.027757109649215, -33.788535550375983 ], [ 115.027786262737095, -33.788535625623602 ], [ 115.027786352853497, -33.788511283826999 ], [ 115.027815505933532, -33.788511359067414 ], [ 115.027815596041293, -33.788487017270391 ], [ 115.02784474911347, -33.78848709250363 ], [ 115.027844839212548, -33.788462750706188 ], [ 115.027873992276881, -33.7884628259322 ], [ 115.027873902186016, -33.788487167729933 ], [ 115.027903055259003, -33.78848724294938 ], [ 115.027902875092622, -33.788535926545215 ], [ 115.027873722003122, -33.78853585132515 ], [ 115.027873631911064, -33.78856019312262 ], [ 115.027902785008806, -33.788560268343005 ], [ 115.027902694924606, -33.788584610140695 ], [ 115.027931848031002, -33.788584685354508 ], [ 115.027931938106946, -33.788560343556497 ], [ 115.027990244304476, -33.788560493962805 ], [ 115.027990334363508, -33.788536152164077 ], [ 115.028048640546146, -33.788536302542177 ], [ 115.028048730588253, -33.788511960742717 ], [ 115.028057448113628, -33.788511983222996 ], [ 115.028050584855166, -33.789217884400848 ], [ 115.027987812557072, -33.789217722493738 ], [ 115.027987632415872, -33.78926640608595 ], [ 115.028016785754616, -33.789266481287953 ], [ 115.028016695691676, -33.789290823084244 ], [ 115.02804987486293, -33.789290908659574 ], [ 115.028048928206644, -33.789388274332659 ], [ 115.028016335435808, -33.789388190268433 ], [ 115.028016425500397, -33.789363848472512 ], [ 115.027987272128641, -33.789363773269251 ], [ 115.02798736220106, -33.789339431473564 ], [ 115.027929055475283, -33.789339281046985 ], [ 115.027928965386351, -33.789363622842032 ], [ 115.027899812015818, -33.78936354761808 ], [ 115.027899721918232, -33.789387889412737 ], [ 115.027870568539839, -33.789387814181573 ], [ 115.027870208112418, -33.789485181357961 ], [ 115.027899361523808, -33.789485256590382 ], [ 115.027899181324187, -33.789533940178657 ], [ 115.027928334752517, -33.789534015404826 ], [ 115.027928244660316, -33.789558357199141 ], [ 115.028044858410667, -33.789558658036135 ], [ 115.028044588230756, -33.789631683422328 ], [ 115.027927974381385, -33.789631382581533 ], [ 115.027928064474779, -33.789607040787487 ], [ 115.027840604116747, -33.789606815085463 ], [ 115.027840513998612, -33.789631156878549 ], [ 115.027782207078801, -33.789631006375444 ], [ 115.027782116943726, -33.789655348167798 ], [ 115.027723810009007, -33.789655197636485 ], [ 115.027723719857022, -33.789679539428128 ], [ 115.027694566382024, -33.78967946415181 ], [ 115.027694476221384, -33.789703805943034 ], [ 115.027665322738542, -33.789703730659518 ], [ 115.027665142399542, -33.789752414241057 ], [ 115.027635988900585, -33.789752338950017 ], [ 115.027635898722224, -33.789776680740331 ], [ 115.027606745215408, -33.789776605442079 ], [ 115.027606608804859, -33.789813423041366 ] ], [ [ 115.02728831348108, -33.789167232015906 ], [ 115.027346620073445, -33.789167382741297 ], [ 115.027346710324224, -33.789143040951849 ], [ 115.027375863612775, -33.789143116303883 ], [ 115.027375953854886, -33.789118774514023 ], [ 115.027346800574577, -33.789118699162287 ], [ 115.027346890824546, -33.789094357372662 ], [ 115.02731773755292, -33.789094282014347 ], [ 115.027317647294709, -33.789118623803681 ], [ 115.027288494015238, -33.789118548438161 ], [ 115.02728831348108, -33.789167232015906 ] ], [ [ 115.027724621358558, -33.78943612150762 ], [ 115.027637161182412, -33.789435895667523 ], [ 115.027637071009309, -33.789460237459032 ], [ 115.027666224409202, -33.789460312746279 ], [ 115.027666134243958, -33.789484654538022 ], [ 115.027724441061508, -33.789484805092464 ], [ 115.027724621358558, -33.78943612150762 ] ] ], [ [ [ 115.026679078685206, -33.788362368874701 ], [ 115.026679259539264, -33.788313685304175 ], [ 115.026854177536777, -33.788314138199475 ], [ 115.026854087159492, -33.78833847998667 ], [ 115.026912393178407, -33.788338630897272 ], [ 115.026912302817223, -33.788362972685022 ], [ 115.026941455835555, -33.7883630481303 ], [ 115.026941365482202, -33.78838738991827 ], [ 115.026970518509188, -33.788387465356983 ], [ 115.026970428163693, -33.78841180714516 ], [ 115.026999581199334, -33.7884118825773 ], [ 115.026999490861684, -33.788436224365718 ], [ 115.026766266521832, -33.78843562071318 ], [ 115.026766356925521, -33.788411278927299 ], [ 115.026678897829527, -33.788411052444843 ], [ 115.026678988257558, -33.788386710659815 ], [ 115.02664983523465, -33.788386635152193 ], [ 115.026649925670526, -33.788362293367392 ], [ 115.026679078685206, -33.788362368874701 ] ] ], [ [ [ 115.027174679996776, -33.788363651444406 ], [ 115.02717458970946, -33.788387993234913 ], [ 115.02726204880139, -33.78838821936494 ], [ 115.027261507217531, -33.788534270111754 ], [ 115.027203201056807, -33.788534119361486 ], [ 115.027203110774906, -33.788558461151673 ], [ 115.027173957686912, -33.788558385765882 ], [ 115.027173506230042, -33.788680094713811 ], [ 115.027144353101164, -33.788680019319543 ], [ 115.027144443401582, -33.788655677530457 ], [ 115.027115290281372, -33.788655602129623 ], [ 115.027115380589663, -33.788631260340757 ], [ 115.027086227478108, -33.788631184933358 ], [ 115.027086859682527, -33.78846079241098 ], [ 115.027057706629165, -33.788460716998891 ], [ 115.027057796950714, -33.788436375209933 ], [ 115.027086949995834, -33.788436450621695 ], [ 115.027087130621211, -33.788387767042863 ], [ 115.02711628365023, -33.788387842447108 ], [ 115.027116373954044, -33.788363500657226 ], [ 115.027174679996776, -33.788363651444406 ] ] ], [ [ [ 115.02676572409122, -33.788581671426556 ], [ 115.026765814497338, -33.788557329641222 ], [ 115.02688242682909, -33.78855763152896 ], [ 115.026882336455998, -33.788581973315559 ], [ 115.026940642640824, -33.788582124218713 ], [ 115.026940371568614, -33.788655149579853 ], [ 115.026911218451232, -33.78865507413078 ], [ 115.026911308817304, -33.788630732344139 ], [ 115.026882155708591, -33.788630656888486 ], [ 115.026882246082494, -33.788606315102065 ], [ 115.02679478678354, -33.788606088694706 ], [ 115.026794696384854, -33.788630430480161 ], [ 115.026736390171081, -33.788630279506826 ], [ 115.026736480586251, -33.788605937721996 ], [ 115.026707327488225, -33.788605862225296 ], [ 115.026707417911268, -33.788581520440701 ], [ 115.02676572409122, -33.788581671426556 ] ] ], [ [ [ 115.026763825469047, -33.789092848897148 ], [ 115.026792978732971, -33.789092924386416 ], [ 115.026793159545335, -33.789044240818896 ], [ 115.026880619289997, -33.789044467243386 ], [ 115.026880528908791, -33.789068809028137 ], [ 115.026938835423778, -33.789068959943975 ], [ 115.026938745058644, -33.78909330172926 ], [ 115.026967898325012, -33.78909337717716 ], [ 115.026967446534641, -33.78921508610383 ], [ 115.026938293227019, -33.789215010654345 ], [ 115.026938202859469, -33.78923935243909 ], [ 115.026909049544003, -33.789239276982386 ], [ 115.026908959167798, -33.789263618766725 ], [ 115.026879805844459, -33.789263543302823 ], [ 115.026879534688646, -33.789336568654306 ], [ 115.026821227993679, -33.789336417703929 ], [ 115.026821318395889, -33.789312075920826 ], [ 115.026792165057259, -33.789312000435615 ], [ 115.026792255467299, -33.789287658652732 ], [ 115.026763102137352, -33.789287583160949 ], [ 115.026763825469047, -33.789092848897148 ] ] ], [ [ [ 115.025868477055369, -33.789406973241142 ], [ 115.025888049093737, -33.789407024066875 ], [ 115.025888139761278, -33.789382682294196 ], [ 115.025975599814885, -33.789382909372982 ], [ 115.025975418528915, -33.789431592920131 ], [ 115.026004571897445, -33.789431668599917 ], [ 115.02600429999022, -33.789504693920897 ], [ 115.025975146596934, -33.78950461824018 ], [ 115.025974874661301, -33.789577643559383 ], [ 115.025945721243659, -33.789577567870815 ], [ 115.025945358624099, -33.789674934960551 ], [ 115.025887051723998, -33.789674783560194 ], [ 115.025887414409581, -33.789577416473001 ], [ 115.025867667439641, -33.789577365191597 ], [ 115.025868477055369, -33.789406973241142 ] ] ], [ [ [ 115.027199137969731, -33.789629499828081 ], [ 115.027169984518508, -33.789629424428341 ], [ 115.027169713592102, -33.789702449785182 ], [ 115.027140560116521, -33.789702374377605 ], [ 115.027140469798653, -33.789726716162704 ], [ 115.027111316315242, -33.789726640747929 ], [ 115.027111406641396, -33.789702298963128 ], [ 115.02708225316664, -33.789702223541774 ], [ 115.027082524167383, -33.789629198187782 ], [ 115.027111677617356, -33.789629273608192 ], [ 115.027111858265954, -33.789580590037772 ], [ 115.027053551399433, -33.789580439191326 ], [ 115.027053641739656, -33.789556097406624 ], [ 115.02702448831522, -33.789556021973368 ], [ 115.027024578663287, -33.789531680188887 ], [ 115.026995425247534, -33.789531604749065 ], [ 115.026995696314046, -33.789458579395998 ], [ 115.027083156488217, -33.789458805691915 ], [ 115.027083246818123, -33.789434463906431 ], [ 115.027112400202071, -33.789434539324304 ], [ 115.027112309880394, -33.789458881110114 ], [ 115.027141463273011, -33.789458956521422 ], [ 115.027141372959179, -33.789483298307452 ], [ 115.02717052636045, -33.78948337371218 ], [ 115.027170436054476, -33.789507715498431 ], [ 115.027228742874726, -33.789507866287835 ], [ 115.027228381712817, -33.789605233434493 ], [ 115.027199228269467, -33.789605158041965 ], [ 115.027199137969731, -33.789629499828081 ] ] ], [ [ [ 115.028047271558179, -33.789558664260085 ], [ 115.028044858410667, -33.789558658036135 ], [ 115.028044948469827, -33.789534316240562 ], [ 115.02804750822223, -33.789534322842606 ], [ 115.028047271558179, -33.789558664260085 ] ] ], [ [ [ 115.025866626505177, -33.789796440546596 ], [ 115.02597405883246, -33.789796719512047 ], [ 115.025974014337933, -33.789808667437896 ], [ 115.025866569896323, -33.789808354461726 ], [ 115.025866626505177, -33.789796440546596 ] ] ], [ [ [ 115.028043911100127, -33.789814696864319 ], [ 115.028043957796839, -33.78980207598687 ], [ 115.028044904917621, -33.789802078429766 ], [ 115.028044782207814, -33.789814699401781 ], [ 115.028043911100127, -33.789814696864319 ] ] ] ] } },
{ "type": "Feature", "properties": { "appName": "Brindle 17 Jan 2026", "rate": 2.0, "rateInt": 2, "unit": "l/ha", "zone": 2 }, "geometry": { "type": "MultiPolygon", "coordinates": [ [ [ [ 115.027733493261735, -33.787464440066344 ], [ 115.027793189365582, -33.787448866224977 ], [ 115.027793417983318, -33.787513278784445 ], [ 115.027790047277577, -33.787513270086478 ], [ 115.027790137376968, -33.787488928285974 ], [ 115.027760984644019, -33.787488853051975 ], [ 115.027761074751254, -33.787464511251706 ], [ 115.027733493261735, -33.787464440066344 ] ] ], [ [ [ 115.02738190957551, -33.787512044046466 ], [ 115.027411074107832, -33.787508936168209 ], [ 115.027411061673519, -33.787512291502722 ], [ 115.027381908937556, -33.787512216178804 ], [ 115.02738190957551, -33.787512044046466 ] ] ], [ [ [ 115.027236086887044, -33.787527583440621 ], [ 115.02723605500735, -33.787536181250232 ], [ 115.02715731486434, -33.787535977672839 ], [ 115.027236086887044, -33.787527583440621 ] ] ], [ [ [ 115.026527930181942, -33.789810280945815 ], [ 115.026527975256315, -33.789798156339621 ], [ 115.02664458925895, -33.789798458512593 ], [ 115.026644679718359, -33.789774116733149 ], [ 115.026761293694463, -33.789774418794586 ], [ 115.026761836244376, -33.789628368108382 ], [ 115.026790989689886, -33.789628443604599 ], [ 115.026791080105198, -33.789604101822924 ], [ 115.026849386980942, -33.789604252794057 ], [ 115.026849477379329, -33.789579911011657 ], [ 115.026878630809549, -33.789579986486579 ], [ 115.026878721199296, -33.789555644703761 ], [ 115.026907874621671, -33.789555720171471 ], [ 115.026907965002735, -33.789531378388247 ], [ 115.026878811588617, -33.789531302920864 ], [ 115.02687890197754, -33.789506961137867 ], [ 115.026820595167038, -33.789506810183049 ], [ 115.026820504761602, -33.789531151965406 ], [ 115.026791351348706, -33.789531076477346 ], [ 115.026791260934587, -33.789555418259305 ], [ 115.026732954093504, -33.789555267261854 ], [ 115.026732863662502, -33.789579609043081 ], [ 115.026703710234315, -33.789579533533704 ], [ 115.026704071988917, -33.789482166409513 ], [ 115.026733225384078, -33.789482241917632 ], [ 115.026733406242457, -33.789433558354339 ], [ 115.026762559621517, -33.789433633854919 ], [ 115.026762650041832, -33.789409292072818 ], [ 115.026733496671014, -33.789409216572565 ], [ 115.026733677526948, -33.789360533008725 ], [ 115.026704524173041, -33.789360457502198 ], [ 115.026704614608647, -33.789336115720452 ], [ 115.026675461263409, -33.78933604020736 ], [ 115.026676094359075, -33.789165647734826 ], [ 115.026705247646561, -33.789165723245695 ], [ 115.026705790234629, -33.789019672549429 ], [ 115.026618330522027, -33.789019446001838 ], [ 115.026618420976718, -33.788995104219758 ], [ 115.02656011452018, -33.788994953154194 ], [ 115.02656029546138, -33.788946269591015 ], [ 115.026589448672922, -33.788946345126611 ], [ 115.026589629595989, -33.788897661562437 ], [ 115.026618782791431, -33.788897737090501 ], [ 115.02661896369635, -33.788849053525311 ], [ 115.026648116875691, -33.788849129045857 ], [ 115.026648478647644, -33.788751761913126 ], [ 115.026677631794371, -33.788751837425494 ], [ 115.026677812661418, -33.788703153857945 ], [ 115.02664865953119, -33.788703078346202 ], [ 115.026648749972352, -33.788678736562602 ], [ 115.026619596850765, -33.78867866104428 ], [ 115.026619777748394, -33.788629977477441 ], [ 115.026590624643731, -33.788629901952859 ], [ 115.026590715100184, -33.788605560169628 ], [ 115.026561562004176, -33.788605484638481 ], [ 115.026561652468487, -33.788581142855442 ], [ 115.026532499381148, -33.788581067317729 ], [ 115.026532680325047, -33.788532383752056 ], [ 115.026561833395874, -33.788532459289151 ], [ 115.026561923858964, -33.788508117505842 ], [ 115.026591076921946, -33.788508193035717 ], [ 115.026591800545972, -33.788313458763504 ], [ 115.026562647549014, -33.788313383236144 ], [ 115.026562557089179, -33.788337725020192 ], [ 115.02653340408439, -33.788337649485641 ], [ 115.026533313615872, -33.788361991269262 ], [ 115.026475007590989, -33.788361840178844 ], [ 115.026474826619747, -33.788410523744552 ], [ 115.026416520563473, -33.788410372625293 ], [ 115.026416430060735, -33.78843471440738 ], [ 115.026328970954594, -33.788434487675858 ], [ 115.026328880426703, -33.788458829456886 ], [ 115.026299727383886, -33.788458753865626 ], [ 115.026299817920034, -33.788434412084904 ], [ 115.026270664885871, -33.788434336487057 ], [ 115.026270755429877, -33.788409994706569 ], [ 115.026241602404383, -33.788409919102143 ], [ 115.026241692956219, -33.788385577321868 ], [ 115.026183386922938, -33.788385426092979 ], [ 115.026183296354588, -33.788409767872622 ], [ 115.026124990306428, -33.788409616615532 ], [ 115.026124899721154, -33.788433958394442 ], [ 115.026066593658101, -33.788433807109143 ], [ 115.026065778223824, -33.788652883109442 ], [ 115.026094931329425, -33.788652958758391 ], [ 115.026094750133865, -33.788701642313626 ], [ 115.026123903256391, -33.788701717956307 ], [ 115.026123812666256, -33.788726059734117 ], [ 115.026152965797436, -33.788726135370226 ], [ 115.026152784632458, -33.788774818926171 ], [ 115.026094478337484, -33.788774667645782 ], [ 115.026094206537408, -33.788847692977122 ], [ 115.026123359709473, -33.788847768621714 ], [ 115.026123269116894, -33.788872110398962 ], [ 115.026181575478702, -33.788872261668104 ], [ 115.026181484902239, -33.788896603445892 ], [ 115.026152331712865, -33.788896527814451 ], [ 115.026151878783125, -33.789018236700407 ], [ 115.026239338476273, -33.789018463578813 ], [ 115.026239429038256, -33.788994121800862 ], [ 115.026268582261849, -33.788994197412897 ], [ 115.026268491708123, -33.789018539191183 ], [ 115.026297644940371, -33.789018614796632 ], [ 115.026297192206854, -33.789140323688208 ], [ 115.026268038933324, -33.789140248081154 ], [ 115.026267948377154, -33.789164589858892 ], [ 115.026209641814802, -33.78916443862348 ], [ 115.026209732387485, -33.789140096846388 ], [ 115.026180579115177, -33.789140021218671 ], [ 115.026180669695691, -33.789115679441821 ], [ 115.026122363168795, -33.789115528166334 ], [ 115.026122453765439, -33.789091186389989 ], [ 115.026093300510851, -33.789091110742241 ], [ 115.026093391115324, -33.789066768966137 ], [ 115.026035084623885, -33.789066617650576 ], [ 115.026034994002885, -33.789090959426034 ], [ 115.025976687496552, -33.789090808082264 ], [ 115.025977050044133, -33.788993440982402 ], [ 115.02594789682459, -33.788993365301444 ], [ 115.025948078112435, -33.788944681751602 ], [ 115.025918924909817, -33.788944606064391 ], [ 115.025919015561371, -33.788920264289636 ], [ 115.025870790243303, -33.788920139070989 ], [ 115.025872987771976, -33.788457646577669 ], [ 115.025891584826965, -33.788457694864135 ], [ 115.025891766129988, -33.788409011311508 ], [ 115.025873219090798, -33.788408963155263 ], [ 115.025874375684921, -33.788165546037732 ], [ 115.025892672620657, -33.788165593542736 ], [ 115.025892581973423, -33.788189935320027 ], [ 115.025921734919777, -33.788190011004303 ], [ 115.025921644280373, -33.788214352781814 ], [ 115.025950797235382, -33.788214428459511 ], [ 115.025950706603851, -33.788238770237257 ], [ 115.026038165496047, -33.788238997229939 ], [ 115.026038890338953, -33.788044262997801 ], [ 115.0260680432378, -33.788044338645697 ], [ 115.026068133833078, -33.788019996865948 ], [ 115.026097286724081, -33.788020072506647 ], [ 115.026097467896932, -33.787971388946247 ], [ 115.026068315022428, -33.787971313306173 ], [ 115.026068405616485, -33.787946971526154 ], [ 115.02603925275065, -33.787946895879514 ], [ 115.026039343352565, -33.787922554099708 ], [ 115.026010190495398, -33.787922478446504 ], [ 115.026010371714491, -33.787873794887247 ], [ 115.025922913194904, -33.787873567888177 ], [ 115.025922641291345, -33.787946593224049 ], [ 115.025893488427542, -33.787946517542949 ], [ 115.025893035205556, -33.788068226432642 ], [ 115.025874838322579, -33.788068179188144 ], [ 115.025877007693964, -33.787611612686753 ], [ 115.02606851181514, -33.787622961014826 ], [ 115.026235267207255, -33.787626365506135 ], [ 115.02627366353353, -33.787628124217036 ], [ 115.026273652623559, -33.78763105768202 ], [ 115.026341548232537, -33.787631233617645 ], [ 115.026470636347881, -33.78763714638842 ], [ 115.026672210652293, -33.787648210973948 ], [ 115.02668172997852, -33.787648631173219 ], [ 115.026681610494194, -33.787680798853891 ], [ 115.026623304927469, -33.787680647850159 ], [ 115.026623214494677, -33.787704989637227 ], [ 115.026535756122868, -33.78770476307897 ], [ 115.026535846580387, -33.787680421292848 ], [ 115.026506693798837, -33.787680345759973 ], [ 115.026506603333047, -33.787704687545784 ], [ 115.026477450543666, -33.787704612005683 ], [ 115.026477360069208, -33.787728953791067 ], [ 115.026448207271983, -33.787728878243783 ], [ 115.02644811678887, -33.787753220028755 ], [ 115.026418963983758, -33.787753144474252 ], [ 115.026418873491991, -33.787777486258825 ], [ 115.026389720679077, -33.787777410697103 ], [ 115.026389630178627, -33.787801752481272 ], [ 115.02633132453748, -33.787801601336533 ], [ 115.026331234020134, -33.787825943119962 ], [ 115.026302081191901, -33.787825867536938 ], [ 115.026301990665914, -33.787850209319956 ], [ 115.026272837829836, -33.787850133729727 ], [ 115.026272747295181, -33.787874475512353 ], [ 115.026243594451245, -33.787874399914912 ], [ 115.026243413364199, -33.787923083479228 ], [ 115.026214260504176, -33.787923007874262 ], [ 115.026214169951785, -33.787947349655958 ], [ 115.026185017083904, -33.787947274043781 ], [ 115.026184926522873, -33.787971615825079 ], [ 115.026272385152467, -33.787971842641888 ], [ 115.026272475688728, -33.787947500859644 ], [ 115.026301628557832, -33.787947576451145 ], [ 115.026301719085453, -33.78792323466849 ], [ 115.026389177670382, -33.787923461400702 ], [ 115.026388906160577, -33.787996486751254 ], [ 115.026418059047785, -33.787996562315818 ], [ 115.026417697062044, -33.788093929449865 ], [ 115.026388544141795, -33.788093853884028 ], [ 115.026388363129968, -33.788142537449865 ], [ 115.026359210193647, -33.78814246187649 ], [ 115.026359119678872, -33.78816680365896 ], [ 115.026329966734693, -33.78816672807838 ], [ 115.02632987621125, -33.788191069860424 ], [ 115.026300723259226, -33.78819099427264 ], [ 115.02630045166174, -33.788264019617287 ], [ 115.026271298685344, -33.788263944021665 ], [ 115.026271027059423, -33.788336969364529 ], [ 115.026300180060588, -33.788337044961111 ], [ 115.026300089526046, -33.788361386742189 ], [ 115.026329242535851, -33.788361462332205 ], [ 115.026329152009168, -33.78838580411351 ], [ 115.026387458046528, -33.78838595527349 ], [ 115.026387548556684, -33.788361613491531 ], [ 115.026416701567712, -33.788361689060864 ], [ 115.026416792069227, -33.788337347278514 ], [ 115.026445945072425, -33.788337422840627 ], [ 115.026446035565257, -33.788313081057858 ], [ 115.026475188560582, -33.788313156612787 ], [ 115.026475279044774, -33.788288814829599 ], [ 115.026504432032254, -33.788288890377295 ], [ 115.026504522507793, -33.788264548593723 ], [ 115.026533675487428, -33.788264624134214 ], [ 115.026533946886829, -33.78819159878195 ], [ 115.026563099842107, -33.788191674314604 ], [ 115.026563280756505, -33.788142990745328 ], [ 115.026592433695683, -33.78814306627045 ], [ 115.026592976379604, -33.787997015558538 ], [ 115.02656382348998, -33.787996940035299 ], [ 115.026564004397869, -33.787948256464546 ], [ 115.026593157271009, -33.787948331987145 ], [ 115.026593247716107, -33.787923990201321 ], [ 115.026622400581388, -33.787924065716695 ], [ 115.026622491017847, -33.787899723930465 ], [ 115.026680796733146, -33.787899874939896 ], [ 115.026680887152651, -33.787875533152942 ], [ 115.026739192853086, -33.787875684134193 ], [ 115.026739283255665, -33.787851342346492 ], [ 115.026797588941221, -33.787851493299549 ], [ 115.026797498555126, -33.787875835087867 ], [ 115.026826651406751, -33.787875910554369 ], [ 115.026826741784603, -33.787851568765724 ], [ 115.026885047472575, -33.78785171967742 ], [ 115.026885228194033, -33.787803036098587 ], [ 115.02691438102211, -33.787803111543468 ], [ 115.026914561725434, -33.787754427963627 ], [ 115.026885408913856, -33.787754352519393 ], [ 115.026885499273163, -33.787730010729653 ], [ 115.02685634647024, -33.787729935278833 ], [ 115.026856527204146, -33.787681251699716 ], [ 115.026827374418147, -33.787681176242636 ], [ 115.026827464792746, -33.787656834453252 ], [ 115.02687006763324, -33.787656944718059 ], [ 115.026877881281052, -33.787657289625784 ], [ 115.026878815066326, -33.787656967358195 ], [ 115.026885770348656, -33.787656985359881 ], [ 115.026885779337391, -33.787654563851838 ], [ 115.026914969787555, -33.787644489655712 ], [ 115.026914923127222, -33.787657060802857 ], [ 115.026944075906172, -33.787657136238941 ], [ 115.026944160230997, -33.787634415461902 ], [ 115.026978583093637, -33.787622535457736 ], [ 115.026982679438674, -33.787554587456682 ], [ 115.027148593252591, -33.787536907079392 ], [ 115.027148506501518, -33.787560296926152 ], [ 115.027119353752724, -33.787560221539557 ], [ 115.027119082880162, -33.787633246918048 ], [ 115.027148235653726, -33.787633322305581 ], [ 115.027148145370319, -33.787657664098546 ], [ 115.027177298152552, -33.787657739479499 ], [ 115.027177207876989, -33.787682081272678 ], [ 115.027235513459132, -33.787682232014532 ], [ 115.027235603718182, -33.787657890220714 ], [ 115.027264756501609, -33.787657965580991 ], [ 115.027264846752018, -33.78763362378676 ], [ 115.027293999527586, -33.787633699139832 ], [ 115.027293909285447, -33.787658040934375 ], [ 115.027323062069684, -33.787658116280859 ], [ 115.027322971835417, -33.787682458075643 ], [ 115.027468735803978, -33.787682834706303 ], [ 115.027468645610554, -33.787707176502572 ], [ 115.027497798413719, -33.787707251808342 ], [ 115.027497527855786, -33.787780277197541 ], [ 115.027468375027837, -33.787780201890804 ], [ 115.027468284832807, -33.787804543686704 ], [ 115.027439131997014, -33.787804468372762 ], [ 115.027439041793301, -33.78782881016825 ], [ 115.027409888949663, -33.78782873484711 ], [ 115.02740979873731, -33.787853076642186 ], [ 115.027380645885813, -33.787853001313835 ], [ 115.027379924106256, -33.788047735668577 ], [ 115.02729246535614, -33.788047509634566 ], [ 115.027291743352563, -33.788242243975787 ], [ 115.027233437389114, -33.788242093246922 ], [ 115.027233256851133, -33.788290776830046 ], [ 115.027291562847623, -33.788290927560183 ], [ 115.027291653100278, -33.788266585768028 ], [ 115.027437418057261, -33.788266962471198 ], [ 115.027437508268278, -33.788242620677373 ], [ 115.027495814237412, -33.788242771309761 ], [ 115.027495904431504, -33.788218429515219 ], [ 115.027583363363448, -33.788218655411157 ], [ 115.027583453532372, -33.788194313615563 ], [ 115.027612606502259, -33.788194388900095 ], [ 115.02761269666253, -33.78817004710411 ], [ 115.027641849624558, -33.788170122381445 ], [ 115.02764202992735, -33.788121438788536 ], [ 115.027671182873291, -33.788121514058346 ], [ 115.027671453299703, -33.788048488667336 ], [ 115.027642300378517, -33.788048413398471 ], [ 115.027642390528101, -33.788024071601598 ], [ 115.027584084703491, -33.788023921043823 ], [ 115.027584445363772, -33.787926553857943 ], [ 115.027613598242866, -33.787926629139008 ], [ 115.02761368839866, -33.787902287341986 ], [ 115.027642841269909, -33.787902362615853 ], [ 115.027642931417049, -33.787878020818425 ], [ 115.027672084280454, -33.787878096085059 ], [ 115.027672174418925, -33.787853754287234 ], [ 115.027701327274485, -33.787853829546677 ], [ 115.027701417404302, -33.787829487748418 ], [ 115.02775972310009, -33.787829638245974 ], [ 115.027759903325531, -33.78778095464795 ], [ 115.027789056157502, -33.787781029885757 ], [ 115.027789326467868, -33.787708004487065 ], [ 115.027818479275481, -33.787708079717021 ], [ 115.027819143078261, -33.787528729925711 ], [ 115.027821022489206, -33.787528777741223 ], [ 115.027820460209398, -33.78760121209686 ], [ 115.027850823626295, -33.78760121209686 ], [ 115.027850542469366, -33.787668505890487 ], [ 115.027884279599277, -33.787670375157063 ], [ 115.027883717319412, -33.787733930366088 ], [ 115.027905838066019, -33.787735231939337 ], [ 115.027905757560404, -33.787756988967338 ], [ 115.027914518353057, -33.787757011566804 ], [ 115.027912393879831, -33.787803560645678 ], [ 115.027934733591763, -33.787804847437627 ], [ 115.027934730260597, -33.787805747772389 ], [ 115.027940775133715, -33.787805763364524 ], [ 115.027939559066184, -33.787854444294183 ], [ 115.027934550133409, -33.787854431374051 ], [ 115.027934460069218, -33.787878773174747 ], [ 115.027905307202175, -33.787878697970122 ], [ 115.027905036982375, -33.787951723370689 ], [ 115.027934189874173, -33.787951798576245 ], [ 115.027934099808348, -33.787976140376564 ], [ 115.027963252708787, -33.787976215575554 ], [ 115.027963072592456, -33.788024899176555 ], [ 115.02799222550982, -33.788024974369293 ], [ 115.027992135459286, -33.788049316169968 ], [ 115.028026477439923, -33.788049404734771 ], [ 115.028026256701821, -33.78807600605721 ], [ 115.028060657970343, -33.788073834913078 ], [ 115.028061708067568, -33.788073837620814 ], [ 115.028057448113628, -33.788511983222996 ], [ 115.028048730588253, -33.788511960742717 ], [ 115.028048640546146, -33.788536302542177 ], [ 115.027990334363508, -33.788536152164077 ], [ 115.027990244304476, -33.788560493962805 ], [ 115.027931938106946, -33.788560343556497 ], [ 115.027931848031002, -33.788584685354508 ], [ 115.027902694924606, -33.788584610140695 ], [ 115.027902785008806, -33.788560268343005 ], [ 115.027873631911064, -33.78856019312262 ], [ 115.027873722003122, -33.78853585132515 ], [ 115.027902875092622, -33.788535926545215 ], [ 115.027903055259003, -33.78848724294938 ], [ 115.027873902186016, -33.788487167729933 ], [ 115.027873992276881, -33.7884628259322 ], [ 115.027844839212548, -33.788462750706188 ], [ 115.02784474911347, -33.78848709250363 ], [ 115.027815596041293, -33.788487017270391 ], [ 115.027815505933532, -33.788511359067414 ], [ 115.027786352853497, -33.788511283826999 ], [ 115.027786262737095, -33.788535625623602 ], [ 115.027757109649215, -33.788535550375983 ], [ 115.027757199773902, -33.788511208579685 ], [ 115.02766974053749, -33.788510982796382 ], [ 115.027670191278574, -33.788389273818282 ], [ 115.027699344315707, -33.788389349084689 ], [ 115.027699434454462, -33.788365007288476 ], [ 115.027816046573989, -33.788365308283922 ], [ 115.027816136679306, -33.788340966486359 ], [ 115.027874442725036, -33.788341116942085 ], [ 115.027874532813428, -33.788316775143791 ], [ 115.027961991860252, -33.788317000774747 ], [ 115.027962081923476, -33.788292658975415 ], [ 115.027991234931662, -33.788292734171627 ], [ 115.027991595147569, -33.788195366972076 ], [ 115.027962442172424, -33.788195291777122 ], [ 115.027962622294453, -33.788146608177421 ], [ 115.027933469336219, -33.788146532976207 ], [ 115.027933739540984, -33.788073507576911 ], [ 115.027904586607917, -33.788073432369764 ], [ 115.027904676683619, -33.788049090570127 ], [ 115.027846370835192, -33.788048940135774 ], [ 115.027846280743006, -33.788073281934771 ], [ 115.027817127811133, -33.788073206706947 ], [ 115.027817037710278, -33.788097548505547 ], [ 115.027787884770561, -33.788097473270497 ], [ 115.027787794661052, -33.788121815068678 ], [ 115.027758641713504, -33.788121739826437 ], [ 115.027758551595312, -33.788146081624205 ], [ 115.027729398639906, -33.788146006374745 ], [ 115.027729308513059, -33.788170348172109 ], [ 115.027700155549823, -33.788170272915444 ], [ 115.027700065414322, -33.788194614712403 ], [ 115.027670912443213, -33.788194539448533 ], [ 115.027670822299072, -33.788218881245072 ], [ 115.027641669320133, -33.788218805973983 ], [ 115.027641579167309, -33.788243147770132 ], [ 115.027612426180497, -33.788243072491838 ], [ 115.027612336019033, -33.788267414287553 ], [ 115.02755403003016, -33.78826726370967 ], [ 115.027553939851757, -33.788291605504661 ], [ 115.027524786849682, -33.788291530205072 ], [ 115.027524245721281, -33.78843758097122 ], [ 115.02749509267008, -33.78843750566282 ], [ 115.027495002472321, -33.788461847456546 ], [ 115.027465849413275, -33.788461772140948 ], [ 115.027465759206876, -33.788486113934248 ], [ 115.027407453073494, -33.788485963281744 ], [ 115.027407272626462, -33.788534646866815 ], [ 115.027378119543854, -33.788534571529588 ], [ 115.027377939078704, -33.78858325511365 ], [ 115.027552857679396, -33.788583707037454 ], [ 115.027552767495735, -33.788608048831243 ], [ 115.027581920605542, -33.788608124128061 ], [ 115.027581830429725, -33.788632465922092 ], [ 115.027640136667017, -33.788632616495697 ], [ 115.027640046507287, -33.788656958290261 ], [ 115.027669199634829, -33.788657033567041 ], [ 115.027669109482957, -33.788681375361833 ], [ 115.02769826261914, -33.788681450632041 ], [ 115.027697992185864, -33.788754476016805 ], [ 115.027727145347214, -33.788754551281073 ], [ 115.027727055210221, -33.788778893076127 ], [ 115.027756208380225, -33.78877896833383 ], [ 115.027756118251091, -33.788803310129097 ], [ 115.02778527142975, -33.788803385380227 ], [ 115.027784370198717, -33.789046803331068 ], [ 115.027755216937493, -33.789046728076791 ], [ 115.02775512680391, -33.789071069871056 ], [ 115.027696820266215, -33.789070919341157 ], [ 115.027696639964802, -33.789119602928132 ], [ 115.027725793249957, -33.78911967819716 ], [ 115.027725522819566, -33.789192703577882 ], [ 115.027579756274037, -33.789192327159093 ], [ 115.027580117012164, -33.789094959990955 ], [ 115.027609270287456, -33.789095035287225 ], [ 115.027609630986078, -33.788997668116338 ], [ 115.027580477743811, -33.788997592821332 ], [ 115.027580748288301, -33.788924567443139 ], [ 115.027522441854501, -33.788924416834362 ], [ 115.027522532051705, -33.788900075042079 ], [ 115.027493378843687, -33.788899999727676 ], [ 115.027493469048721, -33.788875657935606 ], [ 115.027464315849357, -33.788875582614622 ], [ 115.027464406062222, -33.788851240822801 ], [ 115.027435252871527, -33.788851165495231 ], [ 115.027435343092264, -33.788826823703623 ], [ 115.027377036728566, -33.788826673028453 ], [ 115.027376946491316, -33.788851014819429 ], [ 115.027347793301828, -33.788850939471189 ], [ 115.027347612809621, -33.788899623052217 ], [ 115.027318459604018, -33.788899547696452 ], [ 115.027318369349061, -33.788923889486512 ], [ 115.027260062922565, -33.788923738753681 ], [ 115.027260153194064, -33.78889939696424 ], [ 115.027230999989683, -33.788899321587813 ], [ 115.027231270826434, -33.788826296219924 ], [ 115.027172964468406, -33.788826145448262 ], [ 115.027173054763026, -33.788801803659425 ], [ 115.027114748423145, -33.788801652860833 ], [ 115.027114658112012, -33.788825994649045 ], [ 115.027085504934419, -33.788825919239095 ], [ 115.02708541461466, -33.788850261026894 ], [ 115.027056261429209, -33.788850185609732 ], [ 115.027055719452463, -33.7889962363327 ], [ 115.027084872687425, -33.788996311751767 ], [ 115.027084692041768, -33.789044995325987 ], [ 115.027055538790293, -33.789044919906289 ], [ 115.027055177461108, -33.789142287052336 ], [ 115.027084330745595, -33.789142362473321 ], [ 115.027083608133779, -33.789337096763539 ], [ 115.027112761484688, -33.789337172180147 ], [ 115.027112490523336, -33.789410197538395 ], [ 115.027141643899441, -33.789410272949077 ], [ 115.027141734212023, -33.789385931162762 ], [ 115.027170887580269, -33.789386006566204 ], [ 115.027171339095958, -33.789264297631682 ], [ 115.027200492423347, -33.789264373026668 ], [ 115.027200582717001, -33.789240031239167 ], [ 115.027375502640282, -33.789240483462422 ], [ 115.02737541239614, -33.78926482525182 ], [ 115.027404565726371, -33.789264900598553 ], [ 115.027404385253377, -33.789313584177719 ], [ 115.027433538600491, -33.789313659518186 ], [ 115.027433448371639, -33.789338001307939 ], [ 115.02746260172745, -33.789338076641862 ], [ 115.027462421285065, -33.789386760221717 ], [ 115.027491574657759, -33.789386835549365 ], [ 115.027491033370353, -33.789532886288683 ], [ 115.027520186792998, -33.789532961611322 ], [ 115.027520006377131, -33.789581645190985 ], [ 115.027549159816687, -33.789581720507385 ], [ 115.027549069616384, -33.789606062297395 ], [ 115.027578223064594, -33.789606137607215 ], [ 115.027578042679309, -33.789654821187597 ], [ 115.027519735750289, -33.789654670559791 ], [ 115.027519645540522, -33.789679012349218 ], [ 115.027432185125249, -33.78967878635487 ], [ 115.027431687910735, -33.78981291351225 ], [ 115.026527930181942, -33.789810280945815 ] ], [ [ 115.026244137702676, -33.787728349219719 ], [ 115.026098373736758, -33.787727971138636 ], [ 115.026098101989078, -33.787800996481884 ], [ 115.026127254806212, -33.787801072112842 ], [ 115.026127164231099, -33.787825413894055 ], [ 115.026214622709674, -33.787825640746519 ], [ 115.026214713260032, -33.787801298964332 ], [ 115.026243866078772, -33.787801374567742 ], [ 115.026244137702676, -33.787728349219719 ] ], [ [ 115.027169984518508, -33.789629424428341 ], [ 115.027199137969731, -33.789629499828081 ], [ 115.027199228269467, -33.789605158041965 ], [ 115.027228381712817, -33.789605233434493 ], [ 115.027228742874726, -33.789507866287835 ], [ 115.027170436054476, -33.789507715498431 ], [ 115.02717052636045, -33.78948337371218 ], [ 115.027141372959179, -33.789483298307452 ], [ 115.027141463273011, -33.789458956521422 ], [ 115.027112309880394, -33.789458881110114 ], [ 115.027112400202071, -33.789434539324304 ], [ 115.027083246818123, -33.789434463906431 ], [ 115.027083156488217, -33.789458805691915 ], [ 115.026995696314046, -33.789458579395998 ], [ 115.026995425247534, -33.789531604749065 ], [ 115.027024578663287, -33.789531680188887 ], [ 115.02702448831522, -33.789556021973368 ], [ 115.027053641739656, -33.789556097406624 ], [ 115.027053551399433, -33.789580439191326 ], [ 115.027111858265954, -33.789580590037772 ], [ 115.027111677617356, -33.789629273608192 ], [ 115.027082524167383, -33.789629198187782 ], [ 115.02708225316664, -33.789702223541774 ], [ 115.027111406641396, -33.789702298963128 ], [ 115.027111316315242, -33.789726640747929 ], [ 115.027140469798653, -33.789726716162704 ], [ 115.027140560116521, -33.789702374377605 ], [ 115.027169713592102, -33.789702449785182 ], [ 115.027169984518508, -33.789629424428341 ] ], [ [ 115.026679078685206, -33.788362368874701 ], [ 115.026649925670526, -33.788362293367392 ], [ 115.02664983523465, -33.788386635152193 ], [ 115.026678988257558, -33.788386710659815 ], [ 115.026678897829527, -33.788411052444843 ], [ 115.026766356925521, -33.788411278927299 ], [ 115.026766266521832, -33.78843562071318 ], [ 115.026999490861684, -33.788436224365718 ], [ 115.026999581199334, -33.7884118825773 ], [ 115.026970428163693, -33.78841180714516 ], [ 115.026970518509188, -33.788387465356983 ], [ 115.026941365482202, -33.78838738991827 ], [ 115.026941455835555, -33.7883630481303 ], [ 115.026912302817223, -33.788362972685022 ], [ 115.026912393178407, -33.788338630897272 ], [ 115.026854087159492, -33.78833847998667 ], [ 115.026854177536777, -33.788314138199475 ], [ 115.026679259539264, -33.788313685304175 ], [ 115.026679078685206, -33.788362368874701 ] ], [ [ 115.027293006841802, -33.787901458874764 ], [ 115.027293097087991, -33.787877117081145 ], [ 115.027234791372152, -33.787876966361772 ], [ 115.027234610846364, -33.78792564994766 ], [ 115.027322069470245, -33.787925876018271 ], [ 115.027322159708589, -33.787901534224432 ], [ 115.027293006841802, -33.787901458874764 ] ], [ [ 115.026882155708591, -33.788630656888486 ], [ 115.026911308817304, -33.788630732344139 ], [ 115.026911218451232, -33.78865507413078 ], [ 115.026940371568614, -33.788655149579853 ], [ 115.026940642640824, -33.788582124218713 ], [ 115.026882336455998, -33.788581973315559 ], [ 115.02688242682909, -33.78855763152896 ], [ 115.026765814497338, -33.788557329641222 ], [ 115.02676572409122, -33.788581671426556 ], [ 115.026707417911268, -33.788581520440701 ], [ 115.026707327488225, -33.788605862225296 ], [ 115.026736480586251, -33.788605937721996 ], [ 115.026736390171081, -33.788630279506826 ], [ 115.026794696384854, -33.788630430480161 ], [ 115.02679478678354, -33.788606088694706 ], [ 115.026882246082494, -33.788606315102065 ], [ 115.026882155708591, -33.788630656888486 ] ], [ [ 115.026910043655477, -33.788971517348678 ], [ 115.026910134026807, -33.788947175563237 ], [ 115.026880980810802, -33.788947100103471 ], [ 115.026881251947131, -33.78887407474754 ], [ 115.026910405138409, -33.788874150206375 ], [ 115.026910856982923, -33.788752441276401 ], [ 115.026881703832942, -33.788752365819164 ], [ 115.026881794208876, -33.788728024033212 ], [ 115.026794334786118, -33.788727797621092 ], [ 115.026794244385414, -33.788752139406085 ], [ 115.026765091237039, -33.788752063921272 ], [ 115.026764277538177, -33.788971139979282 ], [ 115.026880890431215, -33.788971441888592 ], [ 115.026880800051202, -33.788995783673606 ], [ 115.026939106516679, -33.788995934587561 ], [ 115.026939016152767, -33.789020276373115 ], [ 115.026997322636362, -33.789020427260105 ], [ 115.026997412983761, -33.788996085473904 ], [ 115.026968259750021, -33.788996010034168 ], [ 115.02696835010525, -33.788971668248195 ], [ 115.026910043655477, -33.788971517348678 ] ], [ [ 115.026941997947134, -33.788216997400525 ], [ 115.026971150916324, -33.788217072837 ], [ 115.026971060573672, -33.788241414625851 ], [ 115.027029366529817, -33.788241565478785 ], [ 115.027029276203265, -33.788265907268162 ], [ 115.027087582177529, -33.788266058094159 ], [ 115.027087672487582, -33.788241716304128 ], [ 115.027116825467076, -33.788241791706469 ], [ 115.027116915768474, -33.788217449916054 ], [ 115.027175221712156, -33.788217600699426 ], [ 115.027175402280719, -33.788168917117027 ], [ 115.027204555236665, -33.788168992497731 ], [ 115.027204645512072, -33.788144650706073 ], [ 115.027175492564382, -33.788144575325674 ], [ 115.0271756731305, -33.788095891742714 ], [ 115.027117367269355, -33.788095740962518 ], [ 115.027117457568309, -33.788071399171535 ], [ 115.027059151725283, -33.788071248364396 ], [ 115.027059061409815, -33.788095590154747 ], [ 115.027029908480642, -33.788095514740533 ], [ 115.027029818156521, -33.788119856530457 ], [ 115.027000665219518, -33.788119781109039 ], [ 115.027000574886728, -33.788144122898579 ], [ 115.026913116053379, -33.788143896591968 ], [ 115.02691302569545, -33.78816823838045 ], [ 115.02694217864773, -33.788168313823192 ], [ 115.026941997947134, -33.788216997400525 ] ], [ [ 115.027349507896943, -33.78838844543295 ], [ 115.027349417658755, -33.788412787225276 ], [ 115.02732026461824, -33.788412711875836 ], [ 115.027320174371368, -33.788437053667742 ], [ 115.02734932742014, -33.788437129017481 ], [ 115.027349237181127, -33.788461470809622 ], [ 115.027378390238567, -33.788461546152782 ], [ 115.027378480469338, -33.788437204360349 ], [ 115.027407633518905, -33.788437279696296 ], [ 115.027407904183988, -33.788364254317443 ], [ 115.027378751159162, -33.788364178982441 ], [ 115.027378660929628, -33.788388520775158 ], [ 115.027349507896943, -33.78838844543295 ] ], [ [ 115.02717458970946, -33.788387993234913 ], [ 115.027174679996776, -33.788363651444406 ], [ 115.027116373954044, -33.788363500657226 ], [ 115.02711628365023, -33.788387842447108 ], [ 115.027087130621211, -33.788387767042863 ], [ 115.027086949995834, -33.788436450621695 ], [ 115.027057796950714, -33.788436375209933 ], [ 115.027057706629165, -33.788460716998891 ], [ 115.027086859682527, -33.78846079241098 ], [ 115.027086227478108, -33.788631184933358 ], [ 115.027115380589663, -33.788631260340757 ], [ 115.027115290281372, -33.788655602129623 ], [ 115.027144443401582, -33.788655677530457 ], [ 115.027144353101164, -33.788680019319543 ], [ 115.027173506230042, -33.788680094713811 ], [ 115.027173957686912, -33.788558385765882 ], [ 115.027203110774906, -33.788558461151673 ], [ 115.027203201056807, -33.788534119361486 ], [ 115.027261507217531, -33.788534270111754 ], [ 115.02726204880139, -33.78838821936494 ], [ 115.02717458970946, -33.788387993234913 ] ], [ [ 115.026879805844459, -33.789263543302823 ], [ 115.026908959167798, -33.789263618766725 ], [ 115.026909049544003, -33.789239276982386 ], [ 115.026938202859469, -33.78923935243909 ], [ 115.026938293227019, -33.789215010654345 ], [ 115.026967446534641, -33.78921508610383 ], [ 115.026967898325012, -33.78909337717716 ], [ 115.026938745058644, -33.78909330172926 ], [ 115.026938835423778, -33.789068959943975 ], [ 115.026880528908791, -33.789068809028137 ], [ 115.026880619289997, -33.789044467243386 ], [ 115.026793159545335, -33.789044240818896 ], [ 115.026792978732971, -33.789092924386416 ], [ 115.026763825469047, -33.789092848897148 ], [ 115.026763102137352, -33.789287583160949 ], [ 115.026792255467299, -33.789287658652732 ], [ 115.026792165057259, -33.789312000435615 ], [ 115.026821318395889, -33.789312075920826 ], [ 115.026821227993679, -33.789336417703929 ], [ 115.026879534688646, -33.789336568654306 ], [ 115.026879805844459, -33.789263543302823 ] ], [ [ 115.027089207696392, -33.787827905859686 ], [ 115.027089117393245, -33.787852247651266 ], [ 115.027147423088508, -33.787852398438915 ], [ 115.027147513375155, -33.787828056646696 ], [ 115.027089207696392, -33.787827905859686 ] ], [ [ 115.026183930324549, -33.788239375413241 ], [ 115.026213083291452, -33.788239451029227 ], [ 115.026213173848717, -33.788215109248632 ], [ 115.02624232680779, -33.788215184857414 ], [ 115.026242417356372, -33.7881908430764 ], [ 115.026184111455152, -33.788190691852584 ], [ 115.026183930324549, -33.788239375413241 ] ], [ [ 115.026996148083413, -33.789336870472368 ], [ 115.026995967376891, -33.789385554042092 ], [ 115.027025120743104, -33.789385629480002 ], [ 115.027025301433142, -33.789336945909639 ], [ 115.026996148083413, -33.789336870472368 ] ], [ [ 115.027345627288213, -33.789435142419201 ], [ 115.027287320514247, -33.789434991686832 ], [ 115.027287049696611, -33.789508017049677 ], [ 115.027316203108157, -33.78950809242027 ], [ 115.027316022577523, -33.789556775995678 ], [ 115.02734517600598, -33.789556851359997 ], [ 115.027345627288213, -33.789435142419201 ] ], [ [ 115.027085685572786, -33.788777235663211 ], [ 115.027085866209504, -33.788728552086958 ], [ 115.027027559921578, -33.788728401248925 ], [ 115.027027379251848, -33.788777084823906 ], [ 115.027085685572786, -33.788777235663211 ] ], [ [ 115.026591800545972, -33.788313458763504 ], [ 115.026620953543315, -33.788313534283951 ], [ 115.026621043986253, -33.788289192499185 ], [ 115.026650196975751, -33.788289268012434 ], [ 115.026650287410021, -33.788264926227271 ], [ 115.026796052322382, -33.788265303688519 ], [ 115.026796233107149, -33.788216620114738 ], [ 115.026825386074336, -33.788216695585682 ], [ 115.026825657223696, -33.788143670223342 ], [ 115.026854810166512, -33.788143745686455 ], [ 115.026854990914231, -33.788095062110465 ], [ 115.0268258379879, -33.788094986648005 ], [ 115.026825928369391, -33.788070644860191 ], [ 115.026796775451714, -33.788070569391152 ], [ 115.026796865841078, -33.788046227603566 ], [ 115.026826018750484, -33.788046303072285 ], [ 115.02682610913115, -33.788021961284286 ], [ 115.026855262032726, -33.788022036745808 ], [ 115.026855171660287, -33.788046378534119 ], [ 115.026913477481131, -33.788046529437111 ], [ 115.026913387124807, -33.788070871225955 ], [ 115.027000845883876, -33.788071097529702 ], [ 115.027000936215444, -33.788046755739884 ], [ 115.027059242040337, -33.78804690657396 ], [ 115.02705933235498, -33.788022564783432 ], [ 115.027117638165009, -33.788022715589307 ], [ 115.027117728462741, -33.787998373798033 ], [ 115.02714688136011, -33.787998449190312 ], [ 115.027146971649188, -33.787974107398654 ], [ 115.02711781876009, -33.787974032006687 ], [ 115.027117909056997, -33.787949690215243 ], [ 115.027088756176553, -33.787949614816704 ], [ 115.027088846481334, -33.787925273025486 ], [ 115.027059693609559, -33.787925197620375 ], [ 115.027059783922169, -33.787900855829378 ], [ 115.027030631059048, -33.787900780417701 ], [ 115.027030721379532, -33.787876438626924 ], [ 115.027001568525066, -33.78787636320866 ], [ 115.027001658853365, -33.787852021418111 ], [ 115.026943353162139, -33.787851870561546 ], [ 115.026943262817312, -33.787876212351463 ], [ 115.026914109964068, -33.787876136912523 ], [ 115.026914019610601, -33.787900478702028 ], [ 115.026884866749484, -33.78790040325589 ], [ 115.026884776387334, -33.787924745044968 ], [ 115.026709859179732, -33.787924292221476 ], [ 115.026708864624581, -33.788192051874482 ], [ 115.026621405753886, -33.788191825359227 ], [ 115.02662122487088, -33.788240508929405 ], [ 115.026592071898278, -33.788240433409889 ], [ 115.026591800545972, -33.788313458763504 ] ] ], [ [ [ 115.027585256825702, -33.787707477684322 ], [ 115.027584986342049, -33.78778050307637 ], [ 115.027555833512892, -33.787780427790317 ], [ 115.027555923682769, -33.787756085993379 ], [ 115.027526770862266, -33.787756010700747 ], [ 115.027526951217325, -33.787707327107228 ], [ 115.027585256825702, -33.787707477684322 ] ] ], [ [ [ 115.026298369292917, -33.788823880565303 ], [ 115.026298278750261, -33.788848222344541 ], [ 115.026327431925154, -33.788848297940895 ], [ 115.026327250855161, -33.788896981499725 ], [ 115.026298097663755, -33.788896905902746 ], [ 115.026298007119905, -33.788921247681699 ], [ 115.026239700721803, -33.788921096466439 ], [ 115.026239791282165, -33.788896754688096 ], [ 115.02621063809201, -33.788896679070447 ], [ 115.026210728660217, -33.788872337292339 ], [ 115.026181575478702, -33.788872261668104 ], [ 115.026181756630436, -33.788823578112265 ], [ 115.026298369292917, -33.788823880565303 ] ] ], [ [ [ 115.027346800574577, -33.789118699162287 ], [ 115.027375953854886, -33.789118774514023 ], [ 115.027375863612775, -33.789143116303883 ], [ 115.027346710324224, -33.789143040951849 ], [ 115.027346620073445, -33.789167382741297 ], [ 115.02728831348108, -33.789167232015906 ], [ 115.027288494015238, -33.789118548438161 ], [ 115.027317647294709, -33.789118623803681 ], [ 115.02731773755292, -33.789094282014347 ], [ 115.027346890824546, -33.789094357372662 ], [ 115.027346800574577, -33.789118699162287 ] ] ], [ [ [ 115.026119781651758, -33.789809092045203 ], [ 115.025974014337933, -33.789808667437896 ], [ 115.02597405883246, -33.789796719512047 ], [ 115.025866626505177, -33.789796440546596 ], [ 115.025867667439641, -33.789577365191597 ], [ 115.025887414409581, -33.789577416473001 ], [ 115.025887051723998, -33.789674783560194 ], [ 115.025945358624099, -33.789674934960551 ], [ 115.025945721243659, -33.789577567870815 ], [ 115.025974874661301, -33.789577643559383 ], [ 115.025975146596934, -33.78950461824018 ], [ 115.02600429999022, -33.789504693920897 ], [ 115.026004571897445, -33.789431668599917 ], [ 115.025975418528915, -33.789431592920131 ], [ 115.025975599814885, -33.789382909372982 ], [ 115.025888139761278, -33.789382682294196 ], [ 115.025888049093737, -33.789407024066875 ], [ 115.025868477055369, -33.789406973241142 ], [ 115.025869286671124, -33.78923658128619 ], [ 115.025888683758012, -33.78923663165623 ], [ 115.025888955750872, -33.789163606335975 ], [ 115.025918109027387, -33.789163682032942 ], [ 115.025918199682607, -33.789139340259027 ], [ 115.025976506220346, -33.78913949163163 ], [ 115.025976415581624, -33.789163833406192 ], [ 115.026005568859347, -33.789163909082475 ], [ 115.026005387597195, -33.789212592631927 ], [ 115.026034540891828, -33.78921266830195 ], [ 115.026034450268412, -33.789237010076867 ], [ 115.026063603571728, -33.789237085740311 ], [ 115.026063059872158, -33.789383136389716 ], [ 115.026092213225397, -33.789383212048179 ], [ 115.026092122615609, -33.789407553823075 ], [ 115.026121275977516, -33.789407629474958 ], [ 115.026121185375601, -33.789431971250089 ], [ 115.026150338746163, -33.789432046895399 ], [ 115.026150248152078, -33.789456388670729 ], [ 115.02623770829095, -33.78945661556628 ], [ 115.02623761772125, -33.789480957342491 ], [ 115.026266771109931, -33.789481032960865 ], [ 115.026266680548062, -33.789505374737303 ], [ 115.026237527151139, -33.789505299118595 ], [ 115.026237436580615, -33.789529640894614 ], [ 115.02612082296389, -33.789529338349645 ], [ 115.026120732359956, -33.7895536801243 ], [ 115.026091578948538, -33.789553604470505 ], [ 115.02609130710951, -33.789626629792963 ], [ 115.026120460545684, -33.789626705447709 ], [ 115.026120279334151, -33.789675388996201 ], [ 115.02609112588145, -33.789675313340823 ], [ 115.026091035266845, -33.78969965511461 ], [ 115.026061881806285, -33.789699579452027 ], [ 115.026061791182997, -33.789723921225388 ], [ 115.026032637714607, -33.789723845555592 ], [ 115.026032547082664, -33.78974818732857 ], [ 115.026061700559296, -33.789748262998671 ], [ 115.026061609935198, -33.789772604771883 ], [ 115.026090763420498, -33.789772680435405 ], [ 115.026090672804244, -33.789797022208816 ], [ 115.026119826298199, -33.789797097865794 ], [ 115.026119781651758, -33.789809092045203 ] ] ], [ [ [ 115.0262970111106, -33.789189007244197 ], [ 115.026296920561862, -33.789213349022063 ], [ 115.026326073860574, -33.789213424623163 ], [ 115.026325802236698, -33.789286449957125 ], [ 115.026296648913231, -33.789286374355058 ], [ 115.026296558362887, -33.789310716132547 ], [ 115.026238251700661, -33.789310564907126 ], [ 115.026238704530925, -33.789188856021937 ], [ 115.0262970111106, -33.789189007244197 ] ] ], [ [ [ 115.02804987486293, -33.789290908659574 ], [ 115.028016695691676, -33.789290823084244 ], [ 115.028016785754616, -33.789266481287953 ], [ 115.027987632415872, -33.78926640608595 ], [ 115.027987812557072, -33.789217722493738 ], [ 115.028050584855166, -33.789217884400848 ], [ 115.02804987486293, -33.789290908659574 ] ] ], [ [ [ 115.028048928206644, -33.789388274332659 ], [ 115.02804750822223, -33.789534322842606 ], [ 115.028044948469827, -33.789534316240562 ], [ 115.028044858410667, -33.789558658036135 ], [ 115.027928244660316, -33.789558357199141 ], [ 115.027928334752517, -33.789534015404826 ], [ 115.027899181324187, -33.789533940178657 ], [ 115.027899361523808, -33.789485256590382 ], [ 115.027870208112418, -33.789485181357961 ], [ 115.027870568539839, -33.789387814181573 ], [ 115.027899721918232, -33.789387889412737 ], [ 115.027899812015818, -33.78936354761808 ], [ 115.027928965386351, -33.789363622842032 ], [ 115.027929055475283, -33.789339281046985 ], [ 115.02798736220106, -33.789339431473564 ], [ 115.027987272128641, -33.789363773269251 ], [ 115.028016425500397, -33.789363848472512 ], [ 115.028016335435808, -33.789388190268433 ], [ 115.028048928206644, -33.789388274332659 ] ] ], [ [ [ 115.027724621358558, -33.78943612150762 ], [ 115.027724441061508, -33.789484805092464 ], [ 115.027666134243958, -33.789484654538022 ], [ 115.027666224409202, -33.789460312746279 ], [ 115.027637071009309, -33.789460237459032 ], [ 115.027637161182412, -33.789435895667523 ], [ 115.027724621358558, -33.78943612150762 ] ] ], [ [ [ 115.02804391109953, -33.789814696864319 ], [ 115.027927297146249, -33.789814357178173 ], [ 115.027927343716328, -33.789801775137192 ], [ 115.027956497235863, -33.789801850359964 ], [ 115.02795694767164, -33.789680141390491 ], [ 115.027811180284459, -33.789679765215716 ], [ 115.02781109015686, -33.789704107008198 ], [ 115.027781936672383, -33.789704031752258 ], [ 115.027781846536101, -33.789728373544328 ], [ 115.027752693043766, -33.789728298281162 ], [ 115.027752512753494, -33.789776981864428 ], [ 115.027781666262314, -33.789777057128212 ], [ 115.027781529712485, -33.789813932570517 ], [ 115.027606608804859, -33.789813423041366 ], [ 115.027606745215408, -33.789776605442079 ], [ 115.027635898722224, -33.789776680740331 ], [ 115.027635988900585, -33.789752338950017 ], [ 115.027665142399542, -33.789752414241057 ], [ 115.027665322738542, -33.789703730659518 ], [ 115.027694476221384, -33.789703805943034 ], [ 115.027694566382024, -33.78967946415181 ], [ 115.027723719857022, -33.789679539428128 ], [ 115.027723810009007, -33.789655197636485 ], [ 115.027782116943726, -33.789655348167798 ], [ 115.027782207078801, -33.789631006375444 ], [ 115.027840513998612, -33.789631156878549 ], [ 115.027840604116747, -33.789606815085463 ], [ 115.027928064474779, -33.789607040787487 ], [ 115.027927974381385, -33.789631382581533 ], [ 115.028015434767809, -33.789631608222464 ], [ 115.028015344698773, -33.789655950017355 ], [ 115.02804449816999, -33.789656025217546 ], [ 115.02804391109953, -33.789814696864319 ] ] ] ] } },
{ "type": "Feature", "properties": { "appName": "Brindle 17 Jan 2026", "rate": 3.0, "rateInt": 3, "unit": "l/ha", "zone": 3 }, "geometry": { "type": "MultiPolygon", "coordinates": [ [ [ [ 115.027148593252591, -33.787536907079392 ], [ 115.02715731486434, -33.787535977672839 ], [ 115.02723605500735, -33.787536181250232 ], [ 115.027236086887044, -33.787527583440621 ], [ 115.027380332663625, -33.787512212087911 ], [ 115.027411061673519, -33.787512291502722 ], [ 115.027411074107832, -33.787508936168209 ], [ 115.02766779968789, -33.787481578560012 ], [ 115.027733493323609, -33.787464440050201 ], [ 115.027761074751254, -33.787464511251706 ], [ 115.027760984644019, -33.787488853051975 ], [ 115.027790137376968, -33.787488928285974 ], [ 115.027790047277577, -33.787513270086478 ], [ 115.027793417983318, -33.787513278784445 ], [ 115.027793470505401, -33.78752807677045 ], [ 115.027819143078261, -33.787528729925711 ], [ 115.027818479275481, -33.787708079717021 ], [ 115.027789326467868, -33.787708004487065 ], [ 115.027789056157502, -33.787781029885757 ], [ 115.027759903325531, -33.78778095464795 ], [ 115.02775972310009, -33.787829638245974 ], [ 115.027701417404302, -33.787829487748418 ], [ 115.027701327274485, -33.787853829546677 ], [ 115.027672174418925, -33.787853754287234 ], [ 115.027672084280454, -33.787878096085059 ], [ 115.027642931417049, -33.787878020818425 ], [ 115.027642841269909, -33.787902362615853 ], [ 115.02761368839866, -33.787902287341986 ], [ 115.027613598242866, -33.787926629139008 ], [ 115.027584445363772, -33.787926553857943 ], [ 115.027584084703491, -33.788023921043823 ], [ 115.027642390528101, -33.788024071601598 ], [ 115.027642300378517, -33.788048413398471 ], [ 115.027671453299703, -33.788048488667336 ], [ 115.027671182873291, -33.788121514058346 ], [ 115.02764202992735, -33.788121438788536 ], [ 115.027641849624558, -33.788170122381445 ], [ 115.02761269666253, -33.78817004710411 ], [ 115.027612606502259, -33.788194388900095 ], [ 115.027583453532372, -33.788194313615563 ], [ 115.027583363363448, -33.788218655411157 ], [ 115.027495904431504, -33.788218429515219 ], [ 115.027495814237412, -33.788242771309761 ], [ 115.027437508268278, -33.788242620677373 ], [ 115.027437418057261, -33.788266962471198 ], [ 115.027291653100278, -33.788266585768028 ], [ 115.027291562847623, -33.788290927560183 ], [ 115.027233256851133, -33.788290776830046 ], [ 115.027233437389114, -33.788242093246922 ], [ 115.027291743352563, -33.788242243975787 ], [ 115.02729246535614, -33.788047509634566 ], [ 115.027379924106256, -33.788047735668577 ], [ 115.027380645885813, -33.787853001313835 ], [ 115.02740979873731, -33.787853076642186 ], [ 115.027409888949663, -33.78782873484711 ], [ 115.027439041793301, -33.78782881016825 ], [ 115.027439131997014, -33.787804468372762 ], [ 115.027468284832807, -33.787804543686704 ], [ 115.027468375027837, -33.787780201890804 ], [ 115.027497527855786, -33.787780277197541 ], [ 115.027497798413719, -33.787707251808342 ], [ 115.027468645610554, -33.787707176502572 ], [ 115.027468735803978, -33.787682834706303 ], [ 115.027322971835417, -33.787682458075643 ], [ 115.027323062069684, -33.787658116280859 ], [ 115.027293909285447, -33.787658040934375 ], [ 115.027293999527586, -33.787633699139832 ], [ 115.027264846752018, -33.78763362378676 ], [ 115.027264756501609, -33.787657965580991 ], [ 115.027235603718182, -33.787657890220714 ], [ 115.027235513459132, -33.787682232014532 ], [ 115.027177207876989, -33.787682081272678 ], [ 115.027177298152552, -33.787657739479499 ], [ 115.027148145370319, -33.787657664098546 ], [ 115.027148235653726, -33.787633322305581 ], [ 115.027119082880162, -33.787633246918048 ], [ 115.027119353752724, -33.787560221539557 ], [ 115.027148506501518, -33.787560296926152 ], [ 115.027148593252591, -33.787536907079392 ] ], [ [ 115.027555833512892, -33.787780427790317 ], [ 115.027584986342049, -33.78778050307637 ], [ 115.027585256825702, -33.787707477684322 ], [ 115.027526951217325, -33.787707327107228 ], [ 115.027526770862266, -33.787756010700747 ], [ 115.027555923682769, -33.787756085993379 ], [ 115.027555833512892, -33.787780427790317 ] ] ], [ [ [ 115.026914969787555, -33.787644489655712 ], [ 115.026944160231196, -33.787634415461831 ], [ 115.026944075906172, -33.787657136238941 ], [ 115.026914923127222, -33.787657060802857 ], [ 115.026914969787555, -33.787644489655712 ] ] ], [ [ [ 115.026244137702676, -33.787728349219719 ], [ 115.026243866078772, -33.787801374567742 ], [ 115.026214713260032, -33.787801298964332 ], [ 115.026214622709674, -33.787825640746519 ], [ 115.026127164231099, -33.787825413894055 ], [ 115.026127254806212, -33.787801072112842 ], [ 115.026098101989078, -33.787800996481884 ], [ 115.026098373736758, -33.787727971138636 ], [ 115.026244137702676, -33.787728349219719 ] ] ], [ [ [ 115.027059693609559, -33.787925197620375 ], [ 115.027088846481334, -33.787925273025486 ], [ 115.027088756176553, -33.787949614816704 ], [ 115.027117909056997, -33.787949690215243 ], [ 115.02711781876009, -33.787974032006687 ], [ 115.027146971649188, -33.787974107398654 ], [ 115.02714688136011, -33.787998449190312 ], [ 115.027117728462741, -33.787998373798033 ], [ 115.027117638165009, -33.788022715589307 ], [ 115.02705933235498, -33.788022564783432 ], [ 115.027059242040337, -33.78804690657396 ], [ 115.027000936215444, -33.788046755739884 ], [ 115.027000845883876, -33.788071097529702 ], [ 115.026913387124807, -33.788070871225955 ], [ 115.026913477481131, -33.788046529437111 ], [ 115.026855171660287, -33.788046378534119 ], [ 115.026855262032726, -33.788022036745808 ], [ 115.02682610913115, -33.788021961284286 ], [ 115.026826018750484, -33.788046303072285 ], [ 115.026796865841078, -33.788046227603566 ], [ 115.026796775451714, -33.788070569391152 ], [ 115.026825928369391, -33.788070644860191 ], [ 115.0268258379879, -33.788094986648005 ], [ 115.026854990914231, -33.788095062110465 ], [ 115.026854810166512, -33.788143745686455 ], [ 115.026825657223696, -33.788143670223342 ], [ 115.026825386074336, -33.788216695585682 ], [ 115.026796233107149, -33.788216620114738 ], [ 115.026796052322382, -33.788265303688519 ], [ 115.026650287410021, -33.788264926227271 ], [ 115.026650196975751, -33.788289268012434 ], [ 115.026621043986253, -33.788289192499185 ], [ 115.026620953543315, -33.788313534283951 ], [ 115.026591800545972, -33.788313458763504 ], [ 115.026592071898278, -33.788240433409889 ], [ 115.02662122487088, -33.788240508929405 ], [ 115.026621405753886, -33.788191825359227 ], [ 115.026708864624581, -33.788192051874482 ], [ 115.026709859179732, -33.787924292221476 ], [ 115.026884776387334, -33.787924745044968 ], [ 115.026884866749484, -33.78790040325589 ], [ 115.026914019610601, -33.787900478702028 ], [ 115.026914109964068, -33.787876136912523 ], [ 115.026943262817312, -33.787876212351463 ], [ 115.026943353162139, -33.787851870561546 ], [ 115.027001658853365, -33.787852021418111 ], [ 115.027001568525066, -33.78787636320866 ], [ 115.027030721379532, -33.787876438626924 ], [ 115.027030631059048, -33.787900780417701 ], [ 115.027059783922169, -33.787900855829378 ], [ 115.027059693609559, -33.787925197620375 ] ] ], [ [ [ 115.027175492564382, -33.788144575325674 ], [ 115.027204645512072, -33.788144650706073 ], [ 115.027204555236665, -33.788168992497731 ], [ 115.027175402280719, -33.788168917117027 ], [ 115.027175221712156, -33.788217600699426 ], [ 115.027116915768474, -33.788217449916054 ], [ 115.027116825467076, -33.788241791706469 ], [ 115.027087672487582, -33.788241716304128 ], [ 115.027087582177529, -33.788266058094159 ], [ 115.027029276203265, -33.788265907268162 ], [ 115.027029366529817, -33.788241565478785 ], [ 115.026971060573672, -33.788241414625851 ], [ 115.026971150916324, -33.788217072837 ], [ 115.026941997947134, -33.788216997400525 ], [ 115.02694217864773, -33.788168313823192 ], [ 115.02691302569545, -33.78816823838045 ], [ 115.026913116053379, -33.788143896591968 ], [ 115.027000574886728, -33.788144122898579 ], [ 115.027000665219518, -33.788119781109039 ], [ 115.027029818156521, -33.788119856530457 ], [ 115.027029908480642, -33.788095514740533 ], [ 115.027059061409815, -33.788095590154747 ], [ 115.027059151725283, -33.788071248364396 ], [ 115.027117457568309, -33.788071399171535 ], [ 115.027117367269355, -33.788095740962518 ], [ 115.0271756731305, -33.788095891742714 ], [ 115.027175492564382, -33.788144575325674 ] ] ], [ [ [ 115.026213083291452, -33.788239451029227 ], [ 115.026183930324549, -33.788239375413241 ], [ 115.026184111455152, -33.788190691852584 ], [ 115.026242417356372, -33.7881908430764 ], [ 115.02624232680779, -33.788215184857414 ], [ 115.026213173848717, -33.788215109248632 ], [ 115.026213083291452, -33.788239451029227 ] ] ], [ [ [ 115.026527930181942, -33.789810280945815 ], [ 115.026119781651758, -33.789809092045203 ], [ 115.026119826298199, -33.789797097865794 ], [ 115.026090672804244, -33.789797022208816 ], [ 115.026090763420498, -33.789772680435405 ], [ 115.026061609935198, -33.789772604771883 ], [ 115.026061700559296, -33.789748262998671 ], [ 115.026032547082664, -33.78974818732857 ], [ 115.026032637714607, -33.789723845555592 ], [ 115.026061791182997, -33.789723921225388 ], [ 115.026061881806285, -33.789699579452027 ], [ 115.026091035266845, -33.78969965511461 ], [ 115.02609112588145, -33.789675313340823 ], [ 115.026120279334151, -33.789675388996201 ], [ 115.026120460545684, -33.789626705447709 ], [ 115.02609130710951, -33.789626629792963 ], [ 115.026091578948538, -33.789553604470505 ], [ 115.026120732359956, -33.7895536801243 ], [ 115.02612082296389, -33.789529338349645 ], [ 115.026237436580615, -33.789529640894614 ], [ 115.026237527151139, -33.789505299118595 ], [ 115.026266680548062, -33.789505374737303 ], [ 115.026266771109931, -33.789481032960865 ], [ 115.02623761772125, -33.789480957342491 ], [ 115.02623770829095, -33.78945661556628 ], [ 115.026150248152078, -33.789456388670729 ], [ 115.026150338746163, -33.789432046895399 ], [ 115.026121185375601, -33.789431971250089 ], [ 115.026121275977516, -33.789407629474958 ], [ 115.026092122615609, -33.789407553823075 ], [ 115.026092213225397, -33.789383212048179 ], [ 115.026063059872158, -33.789383136389716 ], [ 115.026063603571728, -33.789237085740311 ], [ 115.026034450268412, -33.789237010076867 ], [ 115.026034540891828, -33.78921266830195 ], [ 115.026005387597195, -33.789212592631927 ], [ 115.026005568859347, -33.789163909082475 ], [ 115.025976415581624, -33.789163833406192 ], [ 115.025976506220346, -33.78913949163163 ], [ 115.025918199682607, -33.789139340259027 ], [ 115.025918109027387, -33.789163682032942 ], [ 115.025888955750872, -33.789163606335975 ], [ 115.025888683758012, -33.78923663165623 ], [ 115.025869286671124, -33.78923658128619 ], [ 115.025870790243303, -33.788920139070989 ], [ 115.025919015561371, -33.788920264289636 ], [ 115.025918924909817, -33.788944606064391 ], [ 115.025948078112435, -33.788944681751602 ], [ 115.02594789682459, -33.788993365301444 ], [ 115.025977050044133, -33.788993440982402 ], [ 115.025976687496552, -33.789090808082264 ], [ 115.026034994002885, -33.789090959426034 ], [ 115.026035084623885, -33.789066617650576 ], [ 115.026093391115324, -33.789066768966137 ], [ 115.026093300510851, -33.789091110742241 ], [ 115.026122453765439, -33.789091186389989 ], [ 115.026122363168795, -33.789115528166334 ], [ 115.026180669695691, -33.789115679441821 ], [ 115.026180579115177, -33.789140021218671 ], [ 115.026209732387485, -33.789140096846388 ], [ 115.026209641814802, -33.78916443862348 ], [ 115.026267948377154, -33.789164589858892 ], [ 115.026268038933324, -33.789140248081154 ], [ 115.026297192206854, -33.789140323688208 ], [ 115.026297644940371, -33.789018614796632 ], [ 115.026268491708123, -33.789018539191183 ], [ 115.026268582261849, -33.788994197412897 ], [ 115.026239429038256, -33.788994121800862 ], [ 115.026239338476273, -33.789018463578813 ], [ 115.026151878783125, -33.789018236700407 ], [ 115.026152331712865, -33.788896527814451 ], [ 115.026181484902239, -33.788896603445892 ], [ 115.026181575478702, -33.788872261668104 ], [ 115.026123269116894, -33.788872110398962 ], [ 115.026123359709473, -33.788847768621714 ], [ 115.026094206537408, -33.788847692977122 ], [ 115.026094478337484, -33.788774667645782 ], [ 115.026152784632458, -33.788774818926171 ], [ 115.026152965797436, -33.788726135370226 ], [ 115.026123812666256, -33.788726059734117 ], [ 115.026123903256391, -33.788701717956307 ], [ 115.026094750133865, -33.788701642313626 ], [ 115.026094931329425, -33.788652958758391 ], [ 115.026065778223824, -33.788652883109442 ], [ 115.026066593658101, -33.788433807109143 ], [ 115.026124899721154, -33.788433958394442 ], [ 115.026124990306428, -33.788409616615532 ], [ 115.026183296354588, -33.788409767872622 ], [ 115.026183386922938, -33.788385426092979 ], [ 115.026241692956219, -33.788385577321868 ], [ 115.026241602404383, -33.788409919102143 ], [ 115.026270755429877, -33.788409994706569 ], [ 115.026270664885871, -33.788434336487057 ], [ 115.026299817920034, -33.788434412084904 ], [ 115.026299727383886, -33.788458753865626 ], [ 115.026328880426703, -33.788458829456886 ], [ 115.026328970954594, -33.788434487675858 ], [ 115.026416430060735, -33.78843471440738 ], [ 115.026416520563473, -33.788410372625293 ], [ 115.026474826619747, -33.788410523744552 ], [ 115.026475007590989, -33.788361840178844 ], [ 115.026533313615872, -33.788361991269262 ], [ 115.02653340408439, -33.788337649485641 ], [ 115.026562557089179, -33.788337725020192 ], [ 115.026562647549014, -33.788313383236144 ], [ 115.026591800545972, -33.788313458763504 ], [ 115.026591076921946, -33.788508193035717 ], [ 115.026561923858964, -33.788508117505842 ], [ 115.026561833395874, -33.788532459289151 ], [ 115.026532680325047, -33.788532383752056 ], [ 115.026532499381148, -33.788581067317729 ], [ 115.026561652468487, -33.788581142855442 ], [ 115.026561562004176, -33.788605484638481 ], [ 115.026590715100184, -33.788605560169628 ], [ 115.026590624643731, -33.788629901952859 ], [ 115.026619777748394, -33.788629977477441 ], [ 115.026619596850765, -33.78867866104428 ], [ 115.026648749972352, -33.788678736562602 ], [ 115.02664865953119, -33.788703078346202 ], [ 115.026677812661418, -33.788703153857945 ], [ 115.026677631794371, -33.788751837425494 ], [ 115.026648478647644, -33.788751761913126 ], [ 115.026648116875691, -33.788849129045857 ], [ 115.02661896369635, -33.788849053525311 ], [ 115.026618782791431, -33.788897737090501 ], [ 115.026589629595989, -33.788897661562437 ], [ 115.026589448672922, -33.788946345126611 ], [ 115.02656029546138, -33.788946269591015 ], [ 115.02656011452018, -33.788994953154194 ], [ 115.026618420976718, -33.788995104219758 ], [ 115.026618330522027, -33.789019446001838 ], [ 115.026705790234629, -33.789019672549429 ], [ 115.026705247646561, -33.789165723245695 ], [ 115.026676094359075, -33.789165647734826 ], [ 115.026675461263409, -33.78933604020736 ], [ 115.026704614608647, -33.789336115720452 ], [ 115.026704524173041, -33.789360457502198 ], [ 115.026733677526948, -33.789360533008725 ], [ 115.026733496671014, -33.789409216572565 ], [ 115.026762650041832, -33.789409292072818 ], [ 115.026762559621517, -33.789433633854919 ], [ 115.026733406242457, -33.789433558354339 ], [ 115.026733225384078, -33.789482241917632 ], [ 115.026704071988917, -33.789482166409513 ], [ 115.026703710234315, -33.789579533533704 ], [ 115.026732863662502, -33.789579609043081 ], [ 115.026732954093504, -33.789555267261854 ], [ 115.026791260934587, -33.789555418259305 ], [ 115.026791351348706, -33.789531076477346 ], [ 115.026820504761602, -33.789531151965406 ], [ 115.026820595167038, -33.789506810183049 ], [ 115.02687890197754, -33.789506961137867 ], [ 115.026878811588617, -33.789531302920864 ], [ 115.026907965002735, -33.789531378388247 ], [ 115.026907874621671, -33.789555720171471 ], [ 115.026878721199296, -33.789555644703761 ], [ 115.026878630809549, -33.789579986486579 ], [ 115.026849477379329, -33.789579911011657 ], [ 115.026849386980942, -33.789604252794057 ], [ 115.026791080105198, -33.789604101822924 ], [ 115.026790989689886, -33.789628443604599 ], [ 115.026761836244376, -33.789628368108382 ], [ 115.026761293694463, -33.789774418794586 ], [ 115.026644679718359, -33.789774116733149 ], [ 115.02664458925895, -33.789798458512593 ], [ 115.026527975256315, -33.789798156339621 ], [ 115.026527930181942, -33.789810280945815 ] ], [ [ 115.026296920561862, -33.789213349022063 ], [ 115.0262970111106, -33.789189007244197 ], [ 115.026238704530925, -33.789188856021937 ], [ 115.026238251700661, -33.789310564907126 ], [ 115.026296558362887, -33.789310716132547 ], [ 115.026296648913231, -33.789286374355058 ], [ 115.026325802236698, -33.789286449957125 ], [ 115.026326073860574, -33.789213424623163 ], [ 115.026296920561862, -33.789213349022063 ] ], [ [ 115.026181575478702, -33.788872261668104 ], [ 115.026210728660217, -33.788872337292339 ], [ 115.02621063809201, -33.788896679070447 ], [ 115.026239791282165, -33.788896754688096 ], [ 115.026239700721803, -33.788921096466439 ], [ 115.026298007119905, -33.788921247681699 ], [ 115.026298097663755, -33.788896905902746 ], [ 115.026327250855161, -33.788896981499725 ], [ 115.026327431925154, -33.788848297940895 ], [ 115.026298278750261, -33.788848222344541 ], [ 115.026298369292917, -33.788823880565303 ], [ 115.026181756630436, -33.788823578112265 ], [ 115.026181575478702, -33.788872261668104 ] ] ], [ [ [ 115.027407633518905, -33.788437279696296 ], [ 115.027378480469338, -33.788437204360349 ], [ 115.027378390238567, -33.788461546152782 ], [ 115.027349237181127, -33.788461470809622 ], [ 115.02734932742014, -33.788437129017481 ], [ 115.027320174371368, -33.788437053667742 ], [ 115.02732026461824, -33.788412711875836 ], [ 115.027349417658755, -33.788412787225276 ], [ 115.027349507896943, -33.78838844543295 ], [ 115.027378660929628, -33.788388520775158 ], [ 115.027378751159162, -33.788364178982441 ], [ 115.027407904183988, -33.788364254317443 ], [ 115.027407633518905, -33.788437279696296 ] ] ], [ [ [ 115.025872987771976, -33.788457646577669 ], [ 115.025873219090798, -33.788408963155263 ], [ 115.025891766129988, -33.788409011311508 ], [ 115.025891584826965, -33.788457694864135 ], [ 115.025872987771976, -33.788457646577669 ] ] ], [ [ [ 115.026880980810802, -33.788947100103471 ], [ 115.026910134026807, -33.788947175563237 ], [ 115.026910043655477, -33.788971517348678 ], [ 115.02696835010525, -33.788971668248195 ], [ 115.026968259750021, -33.788996010034168 ], [ 115.026997412983761, -33.788996085473904 ], [ 115.026997322636362, -33.789020427260105 ], [ 115.026939016152767, -33.789020276373115 ], [ 115.026939106516679, -33.788995934587561 ], [ 115.026880800051202, -33.788995783673606 ], [ 115.026880890431215, -33.788971441888592 ], [ 115.026764277538177, -33.788971139979282 ], [ 115.026765091237039, -33.788752063921272 ], [ 115.026794244385414, -33.788752139406085 ], [ 115.026794334786118, -33.788727797621092 ], [ 115.026881794208876, -33.788728024033212 ], [ 115.026881703832942, -33.788752365819164 ], [ 115.026910856982923, -33.788752441276401 ], [ 115.026910405138409, -33.788874150206375 ], [ 115.026881251947131, -33.78887407474754 ], [ 115.026880980810802, -33.788947100103471 ] ] ], [ [ [ 115.027085866209504, -33.788728552086958 ], [ 115.027085685572786, -33.788777235663211 ], [ 115.027027379251848, -33.788777084823906 ], [ 115.027027559921578, -33.788728401248925 ], [ 115.027085866209504, -33.788728552086958 ] ] ], [ [ [ 115.027025120743104, -33.789385629480002 ], [ 115.026995967376891, -33.789385554042092 ], [ 115.026996148083413, -33.789336870472368 ], [ 115.027025301433142, -33.789336945909639 ], [ 115.027025120743104, -33.789385629480002 ] ] ], [ [ [ 115.02734517600598, -33.789556851359997 ], [ 115.027316022577523, -33.789556775995678 ], [ 115.027316203108157, -33.78950809242027 ], [ 115.027287049696611, -33.789508017049677 ], [ 115.027287320514247, -33.789434991686832 ], [ 115.027345627288213, -33.789435142419201 ], [ 115.02734517600598, -33.789556851359997 ] ] ], [ [ [ 115.027927297146249, -33.789814357178173 ], [ 115.027781529712485, -33.789813932570517 ], [ 115.027781666262314, -33.789777057128212 ], [ 115.027752512753494, -33.789776981864428 ], [ 115.027752693043766, -33.789728298281162 ], [ 115.027781846536101, -33.789728373544328 ], [ 115.027781936672383, -33.789704031752258 ], [ 115.02781109015686, -33.789704107008198 ], [ 115.027811180284459, -33.789679765215716 ], [ 115.02795694767164, -33.789680141390491 ], [ 115.027956497235863, -33.789801850359964 ], [ 115.027927343716328, -33.789801775137192 ], [ 115.027927297146249, -33.789814357178173 ] ] ] ] } }
]
}
