{
"type": "FeatureCollection",
"name": "block2rx",
"crs": { "type": "name", "properties": { "name": "urn:ogc:def:crs:OGC:1.3:CRS84" } },
"features": [
{ "type": "Feature", "properties": { "appName": "Brindle 17 Jan 2026", "rate": 1.0, "rateInt": 1, "unit": "l/ha", "zone": 1 }, "geometry": { "type": "MultiPolygon", "coordinates": [ [ [ [ 115.02873153460925, -33.786019791147233 ], [ 115.02873144479932, -33.786044132963475 ], [ 115.02870229254404, -33.786044057969548 ], [ 115.028702023087092, -33.786117083416784 ], [ 115.028672870807455, -33.786117008415019 ], [ 115.028672780979406, -33.786141350230253 ], [ 115.028701933267314, -33.78614142523233 ], [ 115.028701753626507, -33.786190108863174 ], [ 115.028672601322114, -33.786190033860464 ], [ 115.028672511492843, -33.786214375675414 ], [ 115.028555902246325, -33.786214075594401 ], [ 115.028556081970464, -33.786165391966911 ], [ 115.02852692967636, -33.786165316930052 ], [ 115.028527199284298, -33.786092291489084 ], [ 115.028556351553647, -33.78609236652499 ], [ 115.028556621133177, -33.78601934108223 ], [ 115.02873153460925, -33.786019791147233 ] ] ], [ [ [ 115.029489403578665, -33.786046080386612 ], [ 115.029460251312869, -33.786046005571848 ], [ 115.029460161708869, -33.786070347395928 ], [ 115.029489313982921, -33.786070422210983 ], [ 115.029487701190249, -33.78650857503407 ], [ 115.029458548767622, -33.786508500213316 ], [ 115.02946007210447, -33.786094689219894 ], [ 115.029430919822545, -33.786094614397626 ], [ 115.029431188659316, -33.786021588926381 ], [ 115.029489493174026, -33.786021738562127 ], [ 115.029489403578665, -33.786046080386612 ] ] ], [ [ [ 115.029486278816336, -33.78689496448677 ], [ 115.029483735540154, -33.787214484343458 ], [ 115.029368491880788, -33.787214188491653 ], [ 115.029368671175959, -33.787165504854002 ], [ 115.02933951853214, -33.787165429997131 ], [ 115.02933996680423, -33.787043720902993 ], [ 115.029369119406795, -33.787043795758287 ], [ 115.029369298696295, -33.786995112119342 ], [ 115.029398451282759, -33.786995186967125 ], [ 115.029398630554127, -33.786946503327172 ], [ 115.02936947798419, -33.786946428480057 ], [ 115.029370195119498, -33.786751693919129 ], [ 115.029399347623439, -33.786751768763722 ], [ 115.029399437255265, -33.786727426942889 ], [ 115.029428589751348, -33.78672750178027 ], [ 115.029428858619696, -33.78665447631623 ], [ 115.029458011091421, -33.786654551145794 ], [ 115.02945836954386, -33.786557183857838 ], [ 115.029487521982972, -33.786557258679231 ], [ 115.029486805137651, -33.786751993256182 ], [ 115.029457652632502, -33.786751918432259 ], [ 115.029457383784077, -33.78682494389615 ], [ 115.029486536313982, -33.786825018721032 ], [ 115.029486278816336, -33.78689496448677 ] ] ], [ [ [ 115.028524346534041, -33.786864931279673 ], [ 115.028500886419579, -33.786863690489795 ], [ 115.028500071318035, -33.786773591757168 ], [ 115.02847045626595, -33.786772914315833 ], [ 115.02847045626595, -33.786725038544922 ], [ 115.028524862561071, -33.78672517861655 ], [ 115.028524346534041, -33.786864931279673 ] ] ], [ [ [ 115.028530062121732, -33.787163348755755 ], [ 115.028610702567889, -33.787163556335514 ], [ 115.028610792429475, -33.787139214524785 ], [ 115.028530120187753, -33.787139006864003 ], [ 115.028530584715895, -33.786944271726682 ], [ 115.028611511307389, -33.786944480035643 ], [ 115.028611601165309, -33.786920138224083 ], [ 115.028640753716488, -33.78692021325007 ], [ 115.028640843565753, -33.786895871438112 ], [ 115.028669996109087, -33.786895946456902 ], [ 115.028669906268064, -33.786920288269179 ], [ 115.028728211372439, -33.786920438286721 ], [ 115.028728301196949, -33.786896096473797 ], [ 115.028757453741477, -33.786896171471923 ], [ 115.028757543557347, -33.78687182965858 ], [ 115.028786696094045, -33.786871904649495 ], [ 115.028786875708008, -33.786823221021919 ], [ 115.028845180749585, -33.7868233709818 ], [ 115.028844552209179, -33.786993763681089 ], [ 115.028815399630403, -33.786993688702381 ], [ 115.028815309829042, -33.787018030515881 ], [ 115.028727852070389, -33.787017805537459 ], [ 115.028727941896506, -33.786993463724919 ], [ 115.028698789319364, -33.786993388718649 ], [ 115.028698699485005, -33.787017730530884 ], [ 115.028669546899991, -33.787017655517396 ], [ 115.028669277369687, -33.787090680952581 ], [ 115.028698429979428, -33.787090755967014 ], [ 115.028698250307045, -33.787139439590646 ], [ 115.028785708188281, -33.787139664594491 ], [ 115.028785797999916, -33.787115322781766 ], [ 115.02887325586002, -33.787115547722621 ], [ 115.02887316607314, -33.787139889536313 ], [ 115.028960623961652, -33.787140114416104 ], [ 115.028960175145002, -33.787261823487817 ], [ 115.028931022473813, -33.787261748533197 ], [ 115.028930932701002, -33.787286090346939 ], [ 115.028814321987326, -33.787285790458263 ], [ 115.028814232181119, -33.787310132270662 ], [ 115.028785079495449, -33.787310057280941 ], [ 115.028784989680574, -33.78733439909292 ], [ 115.028755836987074, -33.787334324096015 ], [ 115.028755657339602, -33.78738300771905 ], [ 115.028668199211978, -33.787382782685029 ], [ 115.028668044311956, -33.78742474790878 ], [ 115.028578265953783, -33.787431235278852 ], [ 115.028529423395568, -33.787431109557389 ], [ 115.028530062121732, -33.787163348755755 ] ], [ [ 115.028697801118966, -33.787261148648113 ], [ 115.028698160470242, -33.787163781402342 ], [ 115.02863985520159, -33.78716363136467 ], [ 115.028639765347904, -33.787187973175641 ], [ 115.028610612705918, -33.787187898146151 ], [ 115.028610343117577, -33.787260923577506 ], [ 115.028697801118966, -33.787261148648113 ] ], [ [ 115.028610882290621, -33.787114872713971 ], [ 115.02861097215137, -33.78709053090305 ], [ 115.028552666934701, -33.787090380825958 ], [ 115.028552577057425, -33.787114722636225 ], [ 115.028610882290621, -33.787114872713971 ] ] ], [ [ [ 115.029252329641807, -33.787092179931804 ], [ 115.029252239962631, -33.787116521749681 ], [ 115.029193934711628, -33.787116371975173 ], [ 115.029194024407317, -33.787092030157915 ], [ 115.029252329641807, -33.787092179931804 ] ] ] ] } },
{ "type": "Feature", "properties": { "appName": "Brindle 17 Jan 2026", "rate": 2.0, "rateInt": 2, "unit": "l/ha", "zone": 2 }, "geometry": { "type": "MultiPolygon", "coordinates": [ [ [ [ 115.029483735540154, -33.787214484343458 ], [ 115.029483154287163, -33.78728750900158 ], [ 115.02945568099274, -33.787287438481442 ], [ 115.029455591368091, -33.787311780300797 ], [ 115.029397285979371, -33.787311630617715 ], [ 115.029397196337811, -33.787335972436331 ], [ 115.029368043635799, -33.787335897584143 ], [ 115.029367953985584, -33.787360239402368 ], [ 115.029338801275713, -33.787360164542953 ], [ 115.029338741904681, -33.78737628340599 ], [ 115.029228850731201, -33.787384224124942 ], [ 115.029076337172029, -33.787383832313132 ], [ 115.029076295090135, -33.78739524777162 ], [ 115.028903553907412, -33.787407730022373 ], [ 115.028697262079902, -33.787407199514021 ], [ 115.02869720508906, -33.787422640755601 ], [ 115.028668044311956, -33.78742474790878 ], [ 115.028668199211978, -33.787382782685029 ], [ 115.028755657339602, -33.78738300771905 ], [ 115.028755836987074, -33.787334324096015 ], [ 115.028784989680574, -33.78733439909292 ], [ 115.028785079495449, -33.787310057280941 ], [ 115.028814232181119, -33.787310132270662 ], [ 115.028814321987326, -33.787285790458263 ], [ 115.028930932701002, -33.787286090346939 ], [ 115.028931022473813, -33.787261748533197 ], [ 115.028960175145002, -33.787261823487817 ], [ 115.028960623961652, -33.787140114416104 ], [ 115.02887316607314, -33.787139889536313 ], [ 115.02887325586002, -33.787115547722621 ], [ 115.028785797999916, -33.787115322781766 ], [ 115.028785708188281, -33.787139664594491 ], [ 115.028698250307045, -33.787139439590646 ], [ 115.028698429979428, -33.787090755967014 ], [ 115.028669277369687, -33.787090680952581 ], [ 115.028669546899991, -33.787017655517396 ], [ 115.028698699485005, -33.787017730530884 ], [ 115.028698789319364, -33.786993388718649 ], [ 115.028727941896506, -33.786993463724919 ], [ 115.028727852070389, -33.787017805537459 ], [ 115.028815309829042, -33.787018030515881 ], [ 115.028815399630403, -33.786993688702381 ], [ 115.028844552209179, -33.786993763681089 ], [ 115.028845180749585, -33.7868233709818 ], [ 115.028786875708008, -33.786823221021919 ], [ 115.028786696094045, -33.786871904649495 ], [ 115.028757543557347, -33.78687182965858 ], [ 115.028757453741477, -33.786896171471923 ], [ 115.028728301196949, -33.786896096473797 ], [ 115.028728211372439, -33.786920438286721 ], [ 115.028669906268064, -33.786920288269179 ], [ 115.028669996109087, -33.786895946456902 ], [ 115.028640843565753, -33.786895871438112 ], [ 115.028640753716488, -33.78692021325007 ], [ 115.028611601165309, -33.786920138224083 ], [ 115.028611511307389, -33.786944480035643 ], [ 115.028530584715895, -33.786944271726682 ], [ 115.028530773166608, -33.786865271180005 ], [ 115.02852434653056, -33.786864931279489 ], [ 115.028524862561071, -33.78672517861655 ], [ 115.02847045626595, -33.786725038544922 ], [ 115.02847045626595, -33.786667234469711 ], [ 115.028444644993385, -33.786667911911884 ], [ 115.028444945854915, -33.786481552433294 ], [ 115.028525761333185, -33.786481760497992 ], [ 115.0285256714578, -33.786506102310256 ], [ 115.028554823867452, -33.786506177351541 ], [ 115.028554733999911, -33.786530519164039 ], [ 115.028613038836951, -33.786530669226565 ], [ 115.028613128687965, -33.786506327413441 ], [ 115.02864228109884, -33.786506402434064 ], [ 115.028642640465918, -33.786409035179346 ], [ 115.028613488088055, -33.786408960160003 ], [ 115.028613847481651, -33.786311592905079 ], [ 115.028526390449542, -33.786311367809503 ], [ 115.028526570193449, -33.786262684183399 ], [ 115.028497417866731, -33.786262609138383 ], [ 115.028497507746295, -33.786238267325508 ], [ 115.028468355428245, -33.78623819227392 ], [ 115.028468445315681, -33.786213850461266 ], [ 115.028445378132844, -33.786213791070423 ], [ 115.028445692516826, -33.786019055523774 ], [ 115.028556621133177, -33.78601934108223 ], [ 115.028556351553647, -33.78609236652499 ], [ 115.028527199284298, -33.786092291489084 ], [ 115.02852692967636, -33.786165316930052 ], [ 115.028556081970464, -33.786165391966911 ], [ 115.028555902246325, -33.786214075594401 ], [ 115.028672511492843, -33.786214375675414 ], [ 115.028672601322114, -33.786190033860464 ], [ 115.028701753626507, -33.786190108863174 ], [ 115.028701933267314, -33.78614142523233 ], [ 115.028731085555592, -33.786141500227522 ], [ 115.02873126517828, -33.786092816595691 ], [ 115.028702112906487, -33.786092741601131 ], [ 115.02870229254404, -33.786044057969548 ], [ 115.02873144479932, -33.786044132963475 ], [ 115.02873153460925, -33.786019791147233 ], [ 115.029256275124936, -33.786021139853709 ], [ 115.029256185463566, -33.78604548167565 ], [ 115.029314489989929, -33.786045631394735 ], [ 115.029314579634772, -33.786021289572162 ], [ 115.029431188659316, -33.786021588926381 ], [ 115.029430919822545, -33.786094614397626 ], [ 115.02946007210447, -33.786094689219894 ], [ 115.029458548767622, -33.786508500213316 ], [ 115.029487701190249, -33.78650857503407 ], [ 115.029487521982972, -33.786557258679231 ], [ 115.02945836954386, -33.786557183857838 ], [ 115.029458011091421, -33.786654551145794 ], [ 115.029428858619696, -33.78665447631623 ], [ 115.029428589751348, -33.78672750178027 ], [ 115.029399437255265, -33.786727426942889 ], [ 115.029399347623439, -33.786751768763722 ], [ 115.029370195119498, -33.786751693919129 ], [ 115.02936947798419, -33.786946428480057 ], [ 115.029398630554127, -33.786946503327172 ], [ 115.029398451282759, -33.786995186967125 ], [ 115.029369298696295, -33.786995112119342 ], [ 115.029369119406795, -33.787043795758287 ], [ 115.02933996680423, -33.787043720902993 ], [ 115.02933951853214, -33.787165429997131 ], [ 115.029368671175959, -33.787165504854002 ], [ 115.029368491880788, -33.787214188491653 ], [ 115.029483735540154, -33.787214484343458 ] ], [ [ 115.028789210542101, -33.786190333829957 ], [ 115.028789120745856, -33.786214675646185 ], [ 115.028818273060111, -33.78621475062166 ], [ 115.028818093482911, -33.786263434254465 ], [ 115.028847245814092, -33.786263509223687 ], [ 115.028846976469993, -33.786336534673147 ], [ 115.028817824114057, -33.786336459703001 ], [ 115.028817464949924, -33.786433826966423 ], [ 115.028846617338885, -33.786433901937841 ], [ 115.028845539906627, -33.786726003723011 ], [ 115.02904960733386, -33.786726528356617 ], [ 115.029049786794403, -33.786677844722256 ], [ 115.029020634320091, -33.786677769795887 ], [ 115.029020903532626, -33.786604744344601 ], [ 115.028991751083481, -33.786604669412306 ], [ 115.028991840828439, -33.786580327595331 ], [ 115.028962688387949, -33.786580252656471 ], [ 115.028962778140752, -33.786555910839724 ], [ 115.028933625708916, -33.786555835894291 ], [ 115.028933715469563, -33.786531494077757 ], [ 115.02890456304641, -33.786531419125758 ], [ 115.028904742582995, -33.786482735493067 ], [ 115.028875590176725, -33.786482660534794 ], [ 115.028875679952691, -33.78645831871863 ], [ 115.02890483235069, -33.786458393676597 ], [ 115.028904922117974, -33.786434051860006 ], [ 115.028934074508129, -33.786434126810754 ], [ 115.028934164266772, -33.786409784993786 ], [ 115.028963316649097, -33.786409859937308 ], [ 115.028963406399058, -33.786385518119928 ], [ 115.029021711148374, -33.786385667985698 ], [ 115.029021352212098, -33.786483035257255 ], [ 115.0290505046204, -33.786483110181059 ], [ 115.029050325166324, -33.786531793816913 ], [ 115.029079477591523, -33.786531868734478 ], [ 115.029079387872116, -33.786556210552575 ], [ 115.029108540305998, -33.786556285463568 ], [ 115.02910845059445, -33.786580627281886 ], [ 115.029137603036972, -33.786580702186292 ], [ 115.029137513333268, -33.786605044004851 ], [ 115.02922497068802, -33.786605268677675 ], [ 115.02922506036694, -33.786580926858171 ], [ 115.029283365255623, -33.786581076604968 ], [ 115.029283454917618, -33.786556734784753 ], [ 115.029312607354314, -33.786556809647493 ], [ 115.029312786660626, -33.786508126006126 ], [ 115.029283634240443, -33.786508051143997 ], [ 115.029283813561676, -33.786459367502907 ], [ 115.02925466115839, -33.78645929263454 ], [ 115.029254930161912, -33.78638626717315 ], [ 115.029284082540443, -33.786386342040558 ], [ 115.029284261857597, -33.786337658398551 ], [ 115.029313414219999, -33.786337733258435 ], [ 115.029313772816451, -33.786240365972013 ], [ 115.029372077476467, -33.786240515668602 ], [ 115.029372436000415, -33.786143148378166 ], [ 115.029314131406423, -33.786142998684113 ], [ 115.0293142210529, -33.786118656861909 ], [ 115.02922676418973, -33.786118432270094 ], [ 115.029226674518469, -33.78614277409136 ], [ 115.029197522223285, -33.786142699213315 ], [ 115.029197342863114, -33.786191382854916 ], [ 115.029168190551829, -33.786191307969368 ], [ 115.02916801117351, -33.786239991609968 ], [ 115.029138858846125, -33.78623991671688 ], [ 115.029138769148119, -33.786264258536711 ], [ 115.028963855142834, -33.786263809031588 ], [ 115.028963944890378, -33.786239467213647 ], [ 115.028934792565835, -33.786239392272314 ], [ 115.028934972076215, -33.786190708636781 ], [ 115.028905819768568, -33.786190633689202 ], [ 115.028905909531403, -33.786166291871609 ], [ 115.028818452635704, -33.786166066988471 ], [ 115.028818362848114, -33.786190408805112 ], [ 115.028789210542101, -33.786190333829957 ] ], [ [ 115.029252239962631, -33.787116521749681 ], [ 115.029252329641807, -33.787092179931804 ], [ 115.029194024407317, -33.787092030157915 ], [ 115.029193934711628, -33.787116371975173 ], [ 115.029252239962631, -33.787116521749681 ] ], [ [ 115.029253136736216, -33.786873103566734 ], [ 115.029223984193052, -33.786873028686095 ], [ 115.029223894509244, -33.786897370504484 ], [ 115.029253047060678, -33.786897445385456 ], [ 115.029253136736216, -33.786873103566734 ] ], [ [ 115.028670804659924, -33.786676870142173 ], [ 115.028641652190871, -33.78667679512624 ], [ 115.0286417420361, -33.786652453313351 ], [ 115.028612589575715, -33.786652378290832 ], [ 115.028612409868359, -33.786701061915899 ], [ 115.028583257391873, -33.786700986885855 ], [ 115.028583167529348, -33.786725328697933 ], [ 115.028612320014076, -33.786725403728283 ], [ 115.028612230159411, -33.78674974554059 ], [ 115.028641382652808, -33.78674982056436 ], [ 115.028641472499245, -33.786725478751748 ], [ 115.028670624984798, -33.786725553768321 ], [ 115.028670804659924, -33.786676870142173 ] ], [ [ 115.028670804659924, -33.786676870142173 ], [ 115.028699957129376, -33.786676945151235 ], [ 115.028700046958079, -33.786652603337693 ], [ 115.028670894496884, -33.786652528328972 ], [ 115.028670804659924, -33.786676870142173 ] ] ], [ [ [ 115.028639765347904, -33.787187973175641 ], [ 115.02863985520159, -33.78716363136467 ], [ 115.028698160470242, -33.787163781402342 ], [ 115.028697801118966, -33.787261148648113 ], [ 115.028610343117577, -33.787260923577506 ], [ 115.028610612705918, -33.787187898146151 ], [ 115.028639765347904, -33.787187973175641 ] ] ] ] } },
{ "type": "Feature", "properties": { "appName": "Brindle 17 Jan 2026", "rate": 3.0, "rateInt": 3, "unit": "l/ha", "zone": 3 }, "geometry": { "type": "MultiPolygon", "coordinates": [ [ [ [ 115.029314579634772, -33.786021289572162 ], [ 115.029314489989929, -33.786045631394735 ], [ 115.029256185463566, -33.78604548167565 ], [ 115.029256275124936, -33.786021139853709 ], [ 115.029314579634772, -33.786021289572162 ] ] ], [ [ [ 115.0293142210529, -33.786118656861909 ], [ 115.029314131406423, -33.786142998684113 ], [ 115.029372436000415, -33.786143148378166 ], [ 115.029372077476467, -33.786240515668602 ], [ 115.029313772816451, -33.786240365972013 ], [ 115.029313414219999, -33.786337733258435 ], [ 115.029284261857597, -33.786337658398551 ], [ 115.029284082540443, -33.786386342040558 ], [ 115.029254930161912, -33.78638626717315 ], [ 115.02925466115839, -33.78645929263454 ], [ 115.029283813561676, -33.786459367502907 ], [ 115.029283634240443, -33.786508051143997 ], [ 115.029312786660626, -33.786508126006126 ], [ 115.029312607354314, -33.786556809647493 ], [ 115.029283454917618, -33.786556734784753 ], [ 115.029283365255623, -33.786581076604968 ], [ 115.02922506036694, -33.786580926858171 ], [ 115.02922497068802, -33.786605268677675 ], [ 115.029137513333268, -33.786605044004851 ], [ 115.029137603036972, -33.786580702186292 ], [ 115.02910845059445, -33.786580627281886 ], [ 115.029108540305998, -33.786556285463568 ], [ 115.029079387872116, -33.786556210552575 ], [ 115.029079477591523, -33.786531868734478 ], [ 115.029050325166324, -33.786531793816913 ], [ 115.0290505046204, -33.786483110181059 ], [ 115.029021352212098, -33.786483035257255 ], [ 115.029021711148374, -33.786385667985698 ], [ 115.028963406399058, -33.786385518119928 ], [ 115.028963316649097, -33.786409859937308 ], [ 115.028934164266772, -33.786409784993786 ], [ 115.028934074508129, -33.786434126810754 ], [ 115.028904922117974, -33.786434051860006 ], [ 115.02890483235069, -33.786458393676597 ], [ 115.028875679952691, -33.78645831871863 ], [ 115.028875590176725, -33.786482660534794 ], [ 115.028904742582995, -33.786482735493067 ], [ 115.02890456304641, -33.786531419125758 ], [ 115.028933715469563, -33.786531494077757 ], [ 115.028933625708916, -33.786555835894291 ], [ 115.028962778140752, -33.786555910839724 ], [ 115.028962688387949, -33.786580252656471 ], [ 115.028991840828439, -33.786580327595331 ], [ 115.028991751083481, -33.786604669412306 ], [ 115.029020903532626, -33.786604744344601 ], [ 115.029020634320091, -33.786677769795887 ], [ 115.029049786794403, -33.786677844722256 ], [ 115.02904960733386, -33.786726528356617 ], [ 115.028845539906627, -33.786726003723011 ], [ 115.028846617338885, -33.786433901937841 ], [ 115.028817464949924, -33.786433826966423 ], [ 115.028817824114057, -33.786336459703001 ], [ 115.028846976469993, -33.786336534673147 ], [ 115.028847245814092, -33.786263509223687 ], [ 115.028818093482911, -33.786263434254465 ], [ 115.028818273060111, -33.78621475062166 ], [ 115.028789120745856, -33.786214675646185 ], [ 115.028789210542101, -33.786190333829957 ], [ 115.028818362848114, -33.786190408805112 ], [ 115.028818452635704, -33.786166066988471 ], [ 115.028905909531403, -33.786166291871609 ], [ 115.028905819768568, -33.786190633689202 ], [ 115.028934972076215, -33.786190708636781 ], [ 115.028934792565835, -33.786239392272314 ], [ 115.028963944890378, -33.786239467213647 ], [ 115.028963855142834, -33.786263809031588 ], [ 115.029138769148119, -33.786264258536711 ], [ 115.029138858846125, -33.78623991671688 ], [ 115.02916801117351, -33.786239991609968 ], [ 115.029168190551829, -33.786191307969368 ], [ 115.029197342863114, -33.786191382854916 ], [ 115.029197522223285, -33.786142699213315 ], [ 115.029226674518469, -33.78614277409136 ], [ 115.02922676418973, -33.786118432270094 ], [ 115.0293142210529, -33.786118656861909 ] ] ], [ [ [ 115.028444945854915, -33.786481552433294 ], [ 115.028445378132844, -33.786213791070423 ], [ 115.028468445315681, -33.786213850461266 ], [ 115.028468355428245, -33.78623819227392 ], [ 115.028497507746295, -33.786238267325508 ], [ 115.028497417866731, -33.786262609138383 ], [ 115.028526570193449, -33.786262684183399 ], [ 115.028526390449542, -33.786311367809503 ], [ 115.028613847481651, -33.786311592905079 ], [ 115.028613488088055, -33.786408960160003 ], [ 115.028642640465918, -33.786409035179346 ], [ 115.02864228109884, -33.786506402434064 ], [ 115.028613128687965, -33.786506327413441 ], [ 115.028613038836951, -33.786530669226565 ], [ 115.028554733999911, -33.786530519164039 ], [ 115.028554823867452, -33.786506177351541 ], [ 115.0285256714578, -33.786506102310256 ], [ 115.028525761333185, -33.786481760497992 ], [ 115.028444945854915, -33.786481552433294 ] ] ], [ [ [ 115.028612589575715, -33.786652378290832 ], [ 115.0286417420361, -33.786652453313351 ], [ 115.028641652190871, -33.78667679512624 ], [ 115.028670804659924, -33.786676870142173 ], [ 115.028670624984798, -33.786725553768321 ], [ 115.028641472499245, -33.786725478751748 ], [ 115.028641382652808, -33.78674982056436 ], [ 115.028612230159411, -33.78674974554059 ], [ 115.028612320014076, -33.786725403728283 ], [ 115.028583167529348, -33.786725328697933 ], [ 115.028583257391873, -33.786700986885855 ], [ 115.028612409868359, -33.786701061915899 ], [ 115.028612589575715, -33.786652378290832 ] ] ], [ [ [ 115.029253047060678, -33.786897445385456 ], [ 115.029223894509244, -33.786897370504484 ], [ 115.029223984193052, -33.786873028686095 ], [ 115.029253136736216, -33.786873103566734 ], [ 115.029253047060678, -33.786897445385456 ] ] ], [ [ [ 115.029483154287163, -33.78728750900158 ], [ 115.029482573034173, -33.787360533657647 ], [ 115.029367953985584, -33.787360239402368 ], [ 115.029368043635799, -33.787335897584143 ], [ 115.029397196337811, -33.787335972436331 ], [ 115.029397285979371, -33.787311630617715 ], [ 115.029455591368091, -33.787311780300797 ], [ 115.02945568099274, -33.787287438481442 ], [ 115.029483154287163, -33.78728750900158 ] ] ] ] } }
]
}
