{
"type": "FeatureCollection",
"name": "block2boundary",
"crs": { "type": "name", "properties": { "name": "urn:ogc:def:crs:OGC:1.3:CRS84" } },
"features": [
{ "type": "Feature", "properties": { "name": "Brindle 17 Jan 2026" }, "geometry": { "type": "MultiPolygon", "coordinates": [ [ [ [ 115.028445692870321, -33.786018836558235 ], [ 115.029493247059236, -33.786019522022713 ], [ 115.029482530373343, -33.787365893273815 ], [ 115.02852941467512, -33.787434765264578 ], [ 115.028530773166608, -33.786865271180005 ], [ 115.028500886419579, -33.786863690489795 ], [ 115.028500071318035, -33.786773591757168 ], [ 115.02847045626595, -33.786772914315833 ], [ 115.02847045626595, -33.786667234469711 ], [ 115.028444644993385, -33.786667911911884 ], [ 115.028445692870321, -33.786018836558235 ] ] ] ] } }
]
}
