{
"type": "FeatureCollection",
"name": "block4boundary",
"crs": { "type": "name", "properties": { "name": "urn:ogc:def:crs:OGC:1.3:CRS84" } },
"features": [
{ "type": "Feature", "properties": { "name": "Brindle 17 Jan 2026" }, "geometry": { "type": "MultiPolygon", "coordinates": [ [ [ [ 115.025869372144655, -33.787610870209875 ], [ 115.025858677412884, -33.789808831522208 ], [ 115.024993991103372, -33.789804189749361 ], [ 115.024999813835962, -33.788566531861449 ], [ 115.02506517087744, -33.788535453516282 ], [ 115.025152276603194, -33.788482703319374 ], [ 115.025224735239362, -33.788433457442565 ], [ 115.025268343569621, -33.788418886577787 ], [ 115.025287651099347, -33.788417872137344 ], [ 115.025288982638187, -33.788361433005541 ], [ 115.02531894255992, -33.788361248565771 ], [ 115.025318831598383, -33.788277973120117 ], [ 115.02534657226164, -33.788277512020251 ], [ 115.025346683223177, -33.788204657471603 ], [ 115.02537686506804, -33.788203735271047 ], [ 115.02537664317191, -33.788135768393609 ], [ 115.025406825016773, -33.788135215050445 ], [ 115.025408600428932, -33.788066602554856 ], [ 115.025437450734898, -33.788067340316459 ], [ 115.025440668647434, -33.787971245851928 ], [ 115.025467077771793, -33.787971522512827 ], [ 115.025473402662442, -33.787875520138705 ], [ 115.025497925413049, -33.787875059036672 ], [ 115.025501143325698, -33.787777396585234 ], [ 115.025526997642146, -33.787776843239776 ], [ 115.025526997615202, -33.787682592883904 ], [ 115.025869372144655, -33.787610870209875 ] ] ] ] } }
]
}
