{
"type": "FeatureCollection",
"name": "block4rx",
"crs": { "type": "name", "properties": { "name": "urn:ogc:def:crs:OGC:1.3:CRS84" } },
"features": [
{ "type": "Feature", "properties": { "appName": "Brindle 17 Jan 2026", "rate": 1.0, "rateInt": 1, "unit": "l/ha", "zone": 1 }, "geometry": { "type": "MultiPolygon", "coordinates": [ [ [ [ 115.025613513535944, -33.787905507523938 ], [ 115.025584361607713, -33.787905300070321 ], [ 115.025583864686212, -33.787953982087707 ], [ 115.02561301663097, -33.787954189542027 ], [ 115.025612768177723, -33.787978530550937 ], [ 115.025758527950103, -33.78797956772096 ], [ 115.025758279537612, -33.78800390873154 ], [ 115.025787431501811, -33.788004116145238 ], [ 115.02578718309708, -33.788028457156059 ], [ 115.025816335070047, -33.788028664563235 ], [ 115.025815838275577, -33.788077346585318 ], [ 115.025786686286139, -33.788077139177446 ], [ 115.025786189473195, -33.788125821198442 ], [ 115.025640429450888, -33.788124784052222 ], [ 115.025639932553474, -33.788173466069289 ], [ 115.025610780533981, -33.788173258618684 ], [ 115.025610283618121, -33.788221940634664 ], [ 115.025581131582626, -33.788221733176442 ], [ 115.025581380049061, -33.788197392168875 ], [ 115.02555222802232, -33.788197184704117 ], [ 115.02555347038836, -33.788075479666503 ], [ 115.025524318403356, -33.78807527219665 ], [ 115.025525063841755, -33.788002249173992 ], [ 115.025495911882018, -33.788002041698313 ], [ 115.02549616036876, -33.787977700690924 ], [ 115.025525312320255, -33.787977908166255 ], [ 115.0255260577527, -33.787904885142446 ], [ 115.025555209679951, -33.787905092609833 ], [ 115.025556203549982, -33.787807728575331 ], [ 115.025614507339981, -33.7878081434866 ], [ 115.025613513535944, -33.787905507523938 ] ] ], [ [ [ 115.025579392303683, -33.788392120226867 ], [ 115.025579143833284, -33.788416461233687 ], [ 115.025549991732291, -33.78841625376576 ], [ 115.025549743253166, -33.788440594772112 ], [ 115.025520591144428, -33.788440387296944 ], [ 115.025520342656534, -33.788464728302856 ], [ 115.025491190540066, -33.788464520820447 ], [ 115.025490693546288, -33.788513202831297 ], [ 115.025461541413804, -33.788512995341257 ], [ 115.025460795894688, -33.788586018355758 ], [ 115.025431643737946, -33.788585810857789 ], [ 115.025431146706239, -33.788634492866251 ], [ 115.025401994533496, -33.788634285360693 ], [ 115.025401248957436, -33.788707308371599 ], [ 115.025372096760449, -33.788707100858076 ], [ 115.025371848225859, -33.788731441861181 ], [ 115.025342696021141, -33.788731234340432 ], [ 115.025342447477783, -33.788755575343075 ], [ 115.025284143053284, -33.788755160280175 ], [ 115.025284391613127, -33.78873081927825 ], [ 115.025255239409859, -33.788730611736831 ], [ 115.025255736544537, -33.788681929733386 ], [ 115.025226584358265, -33.788681722185785 ], [ 115.025227330081321, -33.788608699180955 ], [ 115.025256482242838, -33.78860890672749 ], [ 115.025256730807953, -33.788584565725337 ], [ 115.025285882961697, -33.788584773264638 ], [ 115.025286131518058, -33.788560432262031 ], [ 115.025315283664071, -33.788560639794063 ], [ 115.025316029305429, -33.788487616784622 ], [ 115.025345181427198, -33.788487824308739 ], [ 115.025345429965071, -33.78846348330503 ], [ 115.025316277851573, -33.788463275781282 ], [ 115.025316526397191, -33.788438934777851 ], [ 115.025345678502475, -33.788439142301243 ], [ 115.025346175575748, -33.788390460293364 ], [ 115.025462783935751, -33.788391290315211 ], [ 115.025463032438651, -33.788366949309726 ], [ 115.025492184521639, -33.788367156797605 ], [ 115.025492681509462, -33.788318474785619 ], [ 115.025580137711913, -33.788319097205843 ], [ 115.025579889243005, -33.788343438212948 ], [ 115.025609041319711, -33.788343645672917 ], [ 115.025609289780405, -33.788319304665457 ], [ 115.025696745988796, -33.788319927003016 ], [ 115.025696000679545, -33.788392950028303 ], [ 115.025579392303683, -33.788392120226867 ] ] ], [ [ [ 115.02572217159215, -33.788685249558178 ], [ 115.025693019397963, -33.78868504212079 ], [ 115.02569351628317, -33.788636360106345 ], [ 115.025722668460872, -33.788636567543016 ], [ 115.02572217159215, -33.788685249558178 ] ] ], [ [ [ 115.025138382000705, -33.788754122502432 ], [ 115.025109229791681, -33.788753914926204 ], [ 115.025109727009834, -33.788705232926496 ], [ 115.025138879202359, -33.788705440502014 ], [ 115.025138382000705, -33.788754122502432 ] ] ], [ [ [ 115.024996416519713, -33.789288652480188 ], [ 115.024996989120083, -33.789166942721224 ], [ 115.025017546312483, -33.78916708912022 ], [ 115.025017794955005, -33.789142748123112 ], [ 115.02507609963456, -33.789143163321313 ], [ 115.025076596885071, -33.789094481325378 ], [ 115.025105749209104, -33.789094688913444 ], [ 115.025106495056392, -33.789021665917751 ], [ 115.025135647356151, -33.78902187349788 ], [ 115.025136144568734, -33.788973191499579 ], [ 115.025106992285458, -33.788972983920168 ], [ 115.025107240899246, -33.78894864292122 ], [ 115.02507808862471, -33.788948435335286 ], [ 115.025078834487829, -33.788875412338953 ], [ 115.02504968223856, -33.788875204747171 ], [ 115.025049930866871, -33.78885086374855 ], [ 115.025079083107897, -33.788851071339963 ], [ 115.025079331727454, -33.788826730340901 ], [ 115.025225092898808, -33.788827768192846 ], [ 115.025224844320491, -33.788852109193684 ], [ 115.025253996564501, -33.78885231674375 ], [ 115.025253747993943, -33.788876657744858 ], [ 115.025282900246708, -33.788876865288408 ], [ 115.025282651683895, -33.788901206289765 ], [ 115.025340956207401, -33.788901621356899 ], [ 115.025340459113295, -33.788950303360735 ], [ 115.025311306834809, -33.788950095829918 ], [ 115.02531105827876, -33.788974436831332 ], [ 115.025165296852478, -33.788973399072077 ], [ 115.025165048254706, -33.788997740071643 ], [ 115.025194200547233, -33.788997947637618 ], [ 115.025193703366654, -33.789046629637149 ], [ 115.025222855676162, -33.789046837196942 ], [ 115.025222607093397, -33.789071178196934 ], [ 115.025251759411645, -33.789071385750212 ], [ 115.025251262261136, -33.789120067750581 ], [ 115.025222109926361, -33.7891198601966 ], [ 115.025221861342118, -33.789144201196279 ], [ 115.025192708999626, -33.789143993635065 ], [ 115.025192211813106, -33.789192675633451 ], [ 115.025163059454599, -33.789192468064634 ], [ 115.02516206504265, -33.78928983205882 ], [ 115.025132912651657, -33.789289624481718 ], [ 115.025132664039162, -33.789313965479657 ], [ 115.025074359242126, -33.789313550304044 ], [ 115.025074110612678, -33.789337891301201 ], [ 115.025044958206664, -33.789337683702705 ], [ 115.025045206844368, -33.789313342705896 ], [ 115.025016054447107, -33.789313135100883 ], [ 115.025016303092571, -33.789288794104351 ], [ 115.024996416519713, -33.789288652480188 ] ] ], [ [ [ 115.025397521010333, -33.789072423413209 ], [ 115.025426673331566, -33.789072630925148 ], [ 115.025426921856607, -33.78904828992269 ], [ 115.025456074170066, -33.78904849742738 ], [ 115.025455825653282, -33.789072838430187 ], [ 115.025484977975509, -33.789073045928355 ], [ 115.025484232446942, -33.789146068937278 ], [ 115.025455080099988, -33.789145861438037 ], [ 115.025454831581214, -33.789170202440474 ], [ 115.025425679226501, -33.789169994934014 ], [ 115.025425182170991, -33.789218676937857 ], [ 115.025454334542232, -33.789218884445035 ], [ 115.025453837501246, -33.789267566449219 ], [ 115.025395532726293, -33.789267151426564 ], [ 115.025397521010333, -33.789072423413209 ] ] ], [ [ [ 115.025629248779921, -33.789220129343427 ], [ 115.025600096405739, -33.789219921877581 ], [ 115.025600344884239, -33.789195580873574 ], [ 115.025629497250179, -33.789195788339057 ], [ 115.025629248779921, -33.789220129343427 ] ] ], [ [ [ 115.025246787817167, -33.789558205736654 ], [ 115.025246539232228, -33.78958254673497 ], [ 115.025217386740735, -33.789582339174267 ], [ 115.02521713814707, -33.789606680172135 ], [ 115.025187985647833, -33.789606472604177 ], [ 115.025188482851178, -33.789557790609059 ], [ 115.025246787817167, -33.789558205736654 ] ] ] ] } },
{ "type": "Feature", "properties": { "appName": "Brindle 17 Jan 2026", "rate": 2.0, "rateInt": 2, "unit": "l/ha", "zone": 2 }, "geometry": { "type": "MultiPolygon", "coordinates": [ [ [ [ 115.025868285030327, -33.787834291918003 ], [ 115.025865560869121, -33.788394156444951 ], [ 115.025841761160493, -33.788393987125112 ], [ 115.02584151276433, -33.788418328135123 ], [ 115.025783208553975, -33.788417913316358 ], [ 115.025782960140816, -33.788442254325552 ], [ 115.025753808028128, -33.788442046905487 ], [ 115.025753062760941, -33.788515069931449 ], [ 115.025864968660201, -33.788515866116342 ], [ 115.0258636658006, -33.788783627390444 ], [ 115.025808634533291, -33.788783235862439 ], [ 115.025808386120957, -33.788807576870553 ], [ 115.025779233884037, -33.788807369452051 ], [ 115.025778985462949, -33.788831710459718 ], [ 115.025808137708125, -33.788831917878561 ], [ 115.02580739246666, -33.788904940902057 ], [ 115.025778240196757, -33.788904733482141 ], [ 115.02577799177368, -33.788929074489438 ], [ 115.025719687218825, -33.788928659628226 ], [ 115.025719438778779, -33.788953000634713 ], [ 115.025690286493827, -33.788952793193424 ], [ 115.025689789595745, -33.789001475205382 ], [ 115.025718941897182, -33.789001682647374 ], [ 115.02571720279596, -33.789172069688682 ], [ 115.025746355155633, -33.789172277126262 ], [ 115.02574610671887, -33.789196618132145 ], [ 115.025775259087297, -33.789196825563181 ], [ 115.025775010658293, -33.789221166569305 ], [ 115.025861533848641, -33.789221782177243 ], [ 115.025861178523328, -33.789294807972333 ], [ 115.02580341777022, -33.789294397012696 ], [ 115.025803666192459, -33.789270056006501 ], [ 115.025745361405626, -33.789269641149168 ], [ 115.025744616087934, -33.789342664165339 ], [ 115.025715463670494, -33.789342456725294 ], [ 115.025714718323584, -33.789415479739539 ], [ 115.025685565881901, -33.789415272291514 ], [ 115.025684820505788, -33.789488295303848 ], [ 115.025713972972198, -33.789488502752917 ], [ 115.025712979163444, -33.789585866769407 ], [ 115.025683826664022, -33.789585659318931 ], [ 115.025683578202347, -33.789610000322462 ], [ 115.025566968176634, -33.789609170450198 ], [ 115.02556671968145, -33.789633511452223 ], [ 115.025508414655064, -33.789633096474049 ], [ 115.025508663166733, -33.789608755472734 ], [ 115.025450358158849, -33.78960834046773 ], [ 115.025450606686519, -33.789583999467027 ], [ 115.02539230169711, -33.789583584435164 ], [ 115.025392053152942, -33.789607925435149 ], [ 115.02536290065072, -33.789607717908538 ], [ 115.025362652097783, -33.78963205890809 ], [ 115.02533349958783, -33.789631851374224 ], [ 115.025333251026154, -33.789656192373307 ], [ 115.025304098508414, -33.789655984832216 ], [ 115.025303849938027, -33.789680325830851 ], [ 115.025274697412556, -33.789680118282497 ], [ 115.0252744488334, -33.789704459280685 ], [ 115.025128686172167, -33.78970342143387 ], [ 115.02512893479259, -33.789679080437459 ], [ 115.025099782270075, -33.789678872847773 ], [ 115.02510003089823, -33.78965453185161 ], [ 115.025041725871205, -33.789654116652308 ], [ 115.025041974515375, -33.789629775656756 ], [ 115.025012822010865, -33.789629568047118 ], [ 115.025013567965104, -33.789556545060975 ], [ 115.025042720444873, -33.78955675266954 ], [ 115.025042969087053, -33.789532411673605 ], [ 115.025013816615555, -33.789532204065395 ], [ 115.025014065265495, -33.789507863069723 ], [ 115.024995385839048, -33.789507730040675 ], [ 115.024996416519713, -33.789288652480188 ], [ 115.025016303092571, -33.789288794104351 ], [ 115.025016054447107, -33.789313135100883 ], [ 115.025045206844368, -33.789313342705896 ], [ 115.025044958206664, -33.789337683702705 ], [ 115.025074110612678, -33.789337891301201 ], [ 115.025074359242126, -33.789313550304044 ], [ 115.025132664039162, -33.789313965479657 ], [ 115.025132912651657, -33.789289624481718 ], [ 115.02516206504265, -33.78928983205882 ], [ 115.025163059454599, -33.789192468064634 ], [ 115.025192211813106, -33.789192675633451 ], [ 115.025192708999626, -33.789143993635065 ], [ 115.025221861342118, -33.789144201196279 ], [ 115.025222109926361, -33.7891198601966 ], [ 115.025251262261136, -33.789120067750581 ], [ 115.025251759411645, -33.789071385750212 ], [ 115.025222607093397, -33.789071178196934 ], [ 115.025222855676162, -33.789046837196942 ], [ 115.025193703366654, -33.789046629637149 ], [ 115.025194200547233, -33.788997947637618 ], [ 115.025165048254706, -33.788997740071643 ], [ 115.025165296852478, -33.788973399072077 ], [ 115.02531105827876, -33.788974436831332 ], [ 115.025311306834809, -33.788950095829918 ], [ 115.025340459113295, -33.788950303360735 ], [ 115.025340956207401, -33.788901621356899 ], [ 115.025282651683895, -33.788901206289765 ], [ 115.025282900246708, -33.788876865288408 ], [ 115.025253747993943, -33.788876657744858 ], [ 115.025253996564501, -33.78885231674375 ], [ 115.025224844320491, -33.788852109193684 ], [ 115.025225092898808, -33.788827768192846 ], [ 115.025079331727454, -33.788826730340901 ], [ 115.025079083107897, -33.788851071339963 ], [ 115.025049930866871, -33.78885086374855 ], [ 115.02504968223856, -33.788875204747171 ], [ 115.025078834487829, -33.788875412338953 ], [ 115.02507808862471, -33.788948435335286 ], [ 115.025107240899246, -33.78894864292122 ], [ 115.025106992285458, -33.788972983920168 ], [ 115.025136144568734, -33.788973191499579 ], [ 115.025135647356151, -33.78902187349788 ], [ 115.025106495056392, -33.789021665917751 ], [ 115.025105749209104, -33.789094688913444 ], [ 115.025076596885071, -33.789094481325378 ], [ 115.02507609963456, -33.789143163321313 ], [ 115.025017794955005, -33.789142748123112 ], [ 115.025017546312483, -33.78916708912022 ], [ 115.024996989120083, -33.789166942721224 ], [ 115.024997561720483, -33.789045232960021 ], [ 115.025018789520047, -33.789045384133694 ], [ 115.025019286799562, -33.788996702138405 ], [ 115.024997790760636, -33.7889965490549 ], [ 115.024999813835962, -33.788566531861449 ], [ 115.025016675845407, -33.7885585136994 ], [ 115.025023762226269, -33.788558564163594 ], [ 115.025023797331812, -33.78855512731581 ], [ 115.02505309388539, -33.788541196324083 ], [ 115.025052914367819, -33.788558771757629 ], [ 115.025198675083004, -33.788559809624545 ], [ 115.025198923663623, -33.788535468622911 ], [ 115.025228075799902, -33.788535676175265 ], [ 115.025228324371753, -33.788511335173183 ], [ 115.025257476500286, -33.78851154271829 ], [ 115.025258388708281, -33.788422212798665 ], [ 115.025268343569621, -33.788418886577787 ], [ 115.025287651099347, -33.788417872137344 ], [ 115.025288881741304, -33.788365709660802 ], [ 115.025317272031145, -33.788365911766945 ], [ 115.025317319544484, -33.788361258557408 ], [ 115.02531894255992, -33.788361248565771 ], [ 115.025318831598383, -33.788277973120117 ], [ 115.02534657226164, -33.788277512020251 ], [ 115.025346585607679, -33.788268749344759 ], [ 115.025347418250291, -33.788268755271986 ], [ 115.025348073152145, -33.788204615002584 ], [ 115.02537686506804, -33.788203735271047 ], [ 115.025376839606466, -33.788195936380781 ], [ 115.025377315872348, -33.788195939770986 ], [ 115.025377930466846, -33.788135744792804 ], [ 115.025406825016773, -33.788135215050445 ], [ 115.025407137891136, -33.788123123722336 ], [ 115.025407213440914, -33.788123124260103 ], [ 115.025407262685562, -33.788118300922861 ], [ 115.025408600428932, -33.788066602554856 ], [ 115.025437450734898, -33.788067340316459 ], [ 115.025440668647434, -33.787971245851928 ], [ 115.025467077771793, -33.787971522512827 ], [ 115.025473402662442, -33.787875520138705 ], [ 115.025497925413049, -33.787875059036672 ], [ 115.025500958939688, -33.787782992631932 ], [ 115.025527300130236, -33.787783180100853 ], [ 115.025527797077785, -33.787734498083545 ], [ 115.0256152526878, -33.787735120457597 ], [ 115.025615004239029, -33.787759461467367 ], [ 115.025644156118261, -33.78775966891196 ], [ 115.025643907677249, -33.787784009921992 ], [ 115.025673059565236, -33.787784217360034 ], [ 115.025672811131955, -33.787808558370322 ], [ 115.025701963028695, -33.787808765801856 ], [ 115.025701714603173, -33.787833106812386 ], [ 115.025730866508638, -33.787833314237396 ], [ 115.02573061809089, -33.787857655248182 ], [ 115.02578892191984, -33.787858070078229 ], [ 115.025789170321104, -33.787833729066712 ], [ 115.025868285030327, -33.787834291918003 ] ], [ [ 115.025454334542232, -33.789218884445035 ], [ 115.025425182170991, -33.789218676937857 ], [ 115.025425679226501, -33.789169994934014 ], [ 115.025454831581214, -33.789170202440474 ], [ 115.025455080099988, -33.789145861438037 ], [ 115.025484232446942, -33.789146068937278 ], [ 115.025484977975509, -33.789073045928355 ], [ 115.025455825653282, -33.789072838430187 ], [ 115.025456074170066, -33.78904849742738 ], [ 115.025426921856607, -33.78904828992269 ], [ 115.025426673331566, -33.789072630925148 ], [ 115.025397521010333, -33.789072423413209 ], [ 115.025395532726293, -33.789267151426564 ], [ 115.025453837501246, -33.789267566449219 ], [ 115.025454334542232, -33.789218884445035 ] ], [ [ 115.025614507339981, -33.7878081434866 ], [ 115.025556203549982, -33.787807728575331 ], [ 115.025555209679951, -33.787905092609833 ], [ 115.0255260577527, -33.787904885142446 ], [ 115.025525312320255, -33.787977908166255 ], [ 115.02549616036876, -33.787977700690924 ], [ 115.025495911882018, -33.788002041698313 ], [ 115.025525063841755, -33.788002249173992 ], [ 115.025524318403356, -33.78807527219665 ], [ 115.02555347038836, -33.788075479666503 ], [ 115.02555222802232, -33.788197184704117 ], [ 115.025581380049061, -33.788197392168875 ], [ 115.025581131582626, -33.788221733176442 ], [ 115.025610283618121, -33.788221940634664 ], [ 115.025610780533981, -33.788173258618684 ], [ 115.025639932553474, -33.788173466069289 ], [ 115.025640429450888, -33.788124784052222 ], [ 115.025786189473195, -33.788125821198442 ], [ 115.025786686286139, -33.788077139177446 ], [ 115.025815838275577, -33.788077346585318 ], [ 115.025816335070047, -33.788028664563235 ], [ 115.02578718309708, -33.788028457156059 ], [ 115.025787431501811, -33.788004116145238 ], [ 115.025758279537612, -33.78800390873154 ], [ 115.025758527950103, -33.78797956772096 ], [ 115.025612768177723, -33.787978530550937 ], [ 115.02561301663097, -33.787954189542027 ], [ 115.025583864686212, -33.787953982087707 ], [ 115.025584361607713, -33.787905300070321 ], [ 115.025613513535944, -33.787905507523938 ], [ 115.025614507339981, -33.7878081434866 ] ], [ [ 115.025316029305429, -33.788487616784622 ], [ 115.025315283664071, -33.788560639794063 ], [ 115.025286131518058, -33.788560432262031 ], [ 115.025285882961697, -33.788584773264638 ], [ 115.025256730807953, -33.788584565725337 ], [ 115.025256482242838, -33.78860890672749 ], [ 115.025227330081321, -33.788608699180955 ], [ 115.025226584358265, -33.788681722185785 ], [ 115.025255736544537, -33.788681929733386 ], [ 115.025255239409859, -33.788730611736831 ], [ 115.025284391613127, -33.78873081927825 ], [ 115.025284143053284, -33.788755160280175 ], [ 115.025342447477783, -33.788755575343075 ], [ 115.025342696021141, -33.788731234340432 ], [ 115.025371848225859, -33.788731441861181 ], [ 115.025372096760449, -33.788707100858076 ], [ 115.025401248957436, -33.788707308371599 ], [ 115.025401994533496, -33.788634285360693 ], [ 115.025431146706239, -33.788634492866251 ], [ 115.025431643737946, -33.788585810857789 ], [ 115.025460795894688, -33.788586018355758 ], [ 115.025461541413804, -33.788512995341257 ], [ 115.025490693546288, -33.788513202831297 ], [ 115.025491190540066, -33.788464520820447 ], [ 115.025520342656534, -33.788464728302856 ], [ 115.025520591144428, -33.788440387296944 ], [ 115.025549743253166, -33.788440594772112 ], [ 115.025549991732291, -33.78841625376576 ], [ 115.025579143833284, -33.788416461233687 ], [ 115.025579392303683, -33.788392120226867 ], [ 115.025696000679545, -33.788392950028303 ], [ 115.025696745988796, -33.788319927003016 ], [ 115.025609289780405, -33.788319304665457 ], [ 115.025609041319711, -33.788343645672917 ], [ 115.025579889243005, -33.788343438212948 ], [ 115.025580137711913, -33.788319097205843 ], [ 115.025492681509462, -33.788318474785619 ], [ 115.025492184521639, -33.788367156797605 ], [ 115.025463032438651, -33.788366949309726 ], [ 115.025462783935751, -33.788391290315211 ], [ 115.025346175575748, -33.788390460293364 ], [ 115.025345678502475, -33.788439142301243 ], [ 115.025316526397191, -33.788438934777851 ], [ 115.025316277851573, -33.788463275781282 ], [ 115.025345429965071, -33.78846348330503 ], [ 115.025345181427198, -33.788487824308739 ], [ 115.025316029305429, -33.788487616784622 ] ], [ [ 115.025481995834539, -33.789365137958839 ], [ 115.025511148256243, -33.789365345454364 ], [ 115.02551139676244, -33.789341004451984 ], [ 115.025482244349007, -33.789340796956822 ], [ 115.025481995834539, -33.789365137958839 ] ], [ [ 115.025188482851178, -33.789557790609059 ], [ 115.025187985647833, -33.789606472604177 ], [ 115.02521713814707, -33.789606680172135 ], [ 115.025217386740735, -33.789582339174267 ], [ 115.025246539232228, -33.78958254673497 ], [ 115.025246787817167, -33.789558205736654 ], [ 115.025188482851178, -33.789557790609059 ] ], [ [ 115.02569351628317, -33.788636360106345 ], [ 115.025693019397963, -33.78868504212079 ], [ 115.02572217159215, -33.788685249558178 ], [ 115.025722668460872, -33.788636567543016 ], [ 115.02569351628317, -33.788636360106345 ] ], [ [ 115.025109229791681, -33.788753914926204 ], [ 115.025138382000705, -33.788754122502432 ], [ 115.025138879202359, -33.788705440502014 ], [ 115.025109727009834, -33.788705232926496 ], [ 115.025109229791681, -33.788753914926204 ] ], [ [ 115.025600096405739, -33.789219921877581 ], [ 115.025629248779921, -33.789220129343427 ], [ 115.025629497250179, -33.789195788339057 ], [ 115.025600344884239, -33.789195580873574 ], [ 115.025600096405739, -33.789219921877581 ] ] ], [ [ [ 115.025800933520543, -33.789537807069365 ], [ 115.025801181947728, -33.789513466064136 ], [ 115.025830334424384, -33.789513673486013 ], [ 115.025830582842829, -33.789489332480336 ], [ 115.025859735311727, -33.789489539894966 ], [ 115.025858493255768, -33.789611244924188 ], [ 115.025800188235962, -33.789610830084499 ], [ 115.025800436664667, -33.789586489079547 ], [ 115.025771284163753, -33.789586281649733 ], [ 115.025771781036127, -33.789537599640262 ], [ 115.025800933520543, -33.789537807069365 ] ] ], [ [ [ 115.025507420603432, -33.789730460478332 ], [ 115.02550766911709, -33.789706119477401 ], [ 115.025536821654782, -33.789706326970986 ], [ 115.025537070159686, -33.789681985969615 ], [ 115.025566222689605, -33.789682193455953 ], [ 115.025565974192972, -33.789706534457707 ], [ 115.025595126731645, -33.789706741937515 ], [ 115.025594878242728, -33.78973108293949 ], [ 115.025624030790155, -33.789731290412789 ], [ 115.025623533827371, -33.789779972417186 ], [ 115.025652686391794, -33.789780179884275 ], [ 115.025652437917884, -33.789804520886683 ], [ 115.025448369919587, -33.789803068469858 ], [ 115.025448618451236, -33.789778727469916 ], [ 115.025477771012689, -33.789778934978358 ], [ 115.025478268057995, -33.789730252977492 ], [ 115.025507420603432, -33.789730460478332 ] ] ], [ [ [ 115.02521510884803, -33.789805376744383 ], [ 115.025185955759625, -33.789805220245995 ], [ 115.0251862454205, -33.789776859584059 ], [ 115.025215397977476, -33.789777067154489 ], [ 115.025215646574608, -33.789752726157296 ], [ 115.025303104223823, -33.789753348826174 ], [ 115.025302855651418, -33.789777689824447 ], [ 115.025361160769862, -33.789778104903291 ], [ 115.025360912213486, -33.789802445902168 ], [ 115.025215149379846, -33.78980140815159 ], [ 115.02521510884803, -33.789805376744383 ] ] ], [ [ [ 115.025858691246256, -33.789805988513827 ], [ 115.025856505940467, -33.789805972965993 ], [ 115.02585700277227, -33.789757290956111 ], [ 115.025858928129779, -33.789757304654444 ], [ 115.025858691246256, -33.789805988513827 ] ] ] ] } },
{ "type": "Feature", "properties": { "appName": "Brindle 17 Jan 2026", "rate": 3.0, "rateInt": 3, "unit": "l/ha", "zone": 3 }, "geometry": { "type": "MultiPolygon", "coordinates": [ [ [ [ 115.025557546218835, -33.787676193378829 ], [ 115.025624544246128, -33.787662158229423 ], [ 115.02567430172418, -33.7876625123072 ], [ 115.025674411958406, -33.787651711641359 ], [ 115.02573692930801, -33.78763861513125 ], [ 115.025791157513396, -33.787639000971211 ], [ 115.025791277635449, -33.787627229916993 ], [ 115.02584931481924, -33.787615071938944 ], [ 115.025869351006506, -33.78761521448196 ], [ 115.025868285030327, -33.787834291918003 ], [ 115.025789170321104, -33.787833729066712 ], [ 115.02578892191984, -33.787858070078229 ], [ 115.02573061809089, -33.787857655248182 ], [ 115.025730866508638, -33.787833314237396 ], [ 115.025701714603173, -33.787833106812386 ], [ 115.025701963028695, -33.787808765801856 ], [ 115.025672811131955, -33.787808558370322 ], [ 115.025673059565236, -33.787784217360034 ], [ 115.025643907677249, -33.787784009921992 ], [ 115.025644156118261, -33.78775966891196 ], [ 115.025615004239029, -33.787759461467367 ], [ 115.0256152526878, -33.787735120457597 ], [ 115.025527797077785, -33.787734498083545 ], [ 115.025528294023346, -33.787685816065846 ], [ 115.025557445876373, -33.787686023530043 ], [ 115.025557546218835, -33.787676193378829 ] ] ], [ [ [ 115.025865560869121, -33.788394156444951 ], [ 115.025864968660201, -33.788515866116342 ], [ 115.025753062760941, -33.788515069931449 ], [ 115.025753808028128, -33.788442046905487 ], [ 115.025782960140816, -33.788442254325552 ], [ 115.025783208553975, -33.788417913316358 ], [ 115.02584151276433, -33.788418328135123 ], [ 115.025841761160493, -33.788393987125112 ], [ 115.025865560869121, -33.788394156444951 ] ] ], [ [ [ 115.025199792317594, -33.788450409680671 ], [ 115.025217711164572, -33.788438231293412 ], [ 115.025258222188185, -33.788438519710397 ], [ 115.025257476500286, -33.78851154271829 ], [ 115.025228324371753, -33.788511335173183 ], [ 115.025228075799902, -33.788535676175265 ], [ 115.025198923663623, -33.788535468622911 ], [ 115.025198675083004, -33.788559809624545 ], [ 115.025052914367819, -33.788558771757629 ], [ 115.02505309388539, -33.788541196324083 ], [ 115.02506517087744, -33.788535453516282 ], [ 115.025066700563897, -33.788534527156258 ], [ 115.02508231512347, -33.788534638344565 ], [ 115.02508241344853, -33.788525011619242 ], [ 115.025106430317152, -33.788510467287757 ], [ 115.025111715862636, -33.788510504923821 ], [ 115.025111749144585, -33.7885072462688 ], [ 115.025146160097705, -33.788486407402736 ], [ 115.025170268704073, -33.788486579060802 ], [ 115.025170434318071, -33.78847036258766 ], [ 115.025182265389432, -33.788462321703733 ], [ 115.025199669402483, -33.788462445617412 ], [ 115.025199792317594, -33.788450409680671 ] ] ], [ [ [ 115.025861533848641, -33.789221782177243 ], [ 115.025775010658293, -33.789221166569305 ], [ 115.025775259087297, -33.789196825563181 ], [ 115.02574610671887, -33.789196618132145 ], [ 115.025746355155633, -33.789172277126262 ], [ 115.02571720279596, -33.789172069688682 ], [ 115.025718941897182, -33.789001682647374 ], [ 115.025689789595745, -33.789001475205382 ], [ 115.025690286493827, -33.788952793193424 ], [ 115.025719438778779, -33.788953000634713 ], [ 115.025719687218825, -33.788928659628226 ], [ 115.02577799177368, -33.788929074489438 ], [ 115.025778240196757, -33.788904733482141 ], [ 115.02580739246666, -33.788904940902057 ], [ 115.025808137708125, -33.788831917878561 ], [ 115.025778985462949, -33.788831710459718 ], [ 115.025779233884037, -33.788807369452051 ], [ 115.025808386120957, -33.788807576870553 ], [ 115.025808634533291, -33.788783235862439 ], [ 115.0258636658006, -33.788783627390444 ], [ 115.025861533848641, -33.789221782177243 ] ] ], [ [ [ 115.024997561720483, -33.789045232960021 ], [ 115.024997790760636, -33.7889965490549 ], [ 115.025019286799562, -33.788996702138405 ], [ 115.025018789520047, -33.789045384133694 ], [ 115.024997561720483, -33.789045232960021 ] ] ], [ [ [ 115.025861178523328, -33.789294807972333 ], [ 115.025860682713642, -33.789396705854514 ], [ 115.025859735311727, -33.789489539894966 ], [ 115.025830582842829, -33.789489332480336 ], [ 115.025830334424384, -33.789513673486013 ], [ 115.025801181947728, -33.789513466064136 ], [ 115.025800933520543, -33.789537807069365 ], [ 115.025771781036127, -33.789537599640262 ], [ 115.025771284163753, -33.789586281649733 ], [ 115.025800436664667, -33.789586489079547 ], [ 115.025800188235962, -33.789610830084499 ], [ 115.025858493255768, -33.789611244924188 ], [ 115.025856505940467, -33.789805972965993 ], [ 115.025652437917884, -33.789804520886683 ], [ 115.025652686391794, -33.789780179884275 ], [ 115.025623533827371, -33.789779972417186 ], [ 115.025624030790155, -33.789731290412789 ], [ 115.025594878242728, -33.78973108293949 ], [ 115.025595126731645, -33.789706741937515 ], [ 115.025565974192972, -33.789706534457707 ], [ 115.025566222689605, -33.789682193455953 ], [ 115.025537070159686, -33.789681985969615 ], [ 115.025536821654782, -33.789706326970986 ], [ 115.02550766911709, -33.789706119477401 ], [ 115.025507420603432, -33.789730460478332 ], [ 115.025478268057995, -33.789730252977492 ], [ 115.025477771012689, -33.789778934978358 ], [ 115.025448618451236, -33.789778727469916 ], [ 115.025448369919587, -33.789803068469858 ], [ 115.025360912213486, -33.789802445902168 ], [ 115.025361160769862, -33.789778104903291 ], [ 115.025302855651418, -33.789777689824447 ], [ 115.025303104223823, -33.789753348826174 ], [ 115.025215646574608, -33.789752726157296 ], [ 115.025215397977476, -33.789777067154489 ], [ 115.0251862454205, -33.789776859584059 ], [ 115.025185996814599, -33.789801200580804 ], [ 115.024994011598253, -33.789799833434778 ], [ 115.024995385839048, -33.789507730040675 ], [ 115.025014065265495, -33.789507863069723 ], [ 115.025013816615555, -33.789532204065395 ], [ 115.025042969087053, -33.789532411673605 ], [ 115.025042720444873, -33.78955675266954 ], [ 115.025013567965104, -33.789556545060975 ], [ 115.025012822010865, -33.789629568047118 ], [ 115.025041974515375, -33.789629775656756 ], [ 115.025041725871205, -33.789654116652308 ], [ 115.02510003089823, -33.78965453185161 ], [ 115.025099782270075, -33.789678872847773 ], [ 115.02512893479259, -33.789679080437459 ], [ 115.025128686172167, -33.78970342143387 ], [ 115.0252744488334, -33.789704459280685 ], [ 115.025274697412556, -33.789680118282497 ], [ 115.025303849938027, -33.789680325830851 ], [ 115.025304098508414, -33.789655984832216 ], [ 115.025333251026154, -33.789656192373307 ], [ 115.02533349958783, -33.789631851374224 ], [ 115.025362652097783, -33.78963205890809 ], [ 115.02536290065072, -33.789607717908538 ], [ 115.025392053152942, -33.789607925435149 ], [ 115.02539230169711, -33.789583584435164 ], [ 115.025450606686519, -33.789583999467027 ], [ 115.025450358158849, -33.78960834046773 ], [ 115.025508663166733, -33.789608755472734 ], [ 115.025508414655064, -33.789633096474049 ], [ 115.02556671968145, -33.789633511452223 ], [ 115.025566968176634, -33.789609170450198 ], [ 115.025683578202347, -33.789610000322462 ], [ 115.025683826664022, -33.789585659318931 ], [ 115.025712979163444, -33.789585866769407 ], [ 115.025713972972198, -33.789488502752917 ], [ 115.025684820505788, -33.789488295303848 ], [ 115.025685565881901, -33.789415272291514 ], [ 115.025714718323584, -33.789415479739539 ], [ 115.025715463670494, -33.789342456725294 ], [ 115.025744616087934, -33.789342664165339 ], [ 115.025745361405626, -33.789269641149168 ], [ 115.025803666192459, -33.789270056006501 ], [ 115.02580341777022, -33.789294397012696 ], [ 115.025861178523328, -33.789294807972333 ] ] ], [ [ [ 115.025511148256243, -33.789365345454364 ], [ 115.025481995834539, -33.789365137958839 ], [ 115.025482244349007, -33.789340796956822 ], [ 115.02551139676244, -33.789341004451984 ], [ 115.025511148256243, -33.789365345454364 ] ] ] ] } }
]
}
