{
"type": "FeatureCollection",
"name": "block6boudary",
"crs": { "type": "name", "properties": { "name": "urn:ogc:def:crs:OGC:1.3:CRS84" } },
"features": [
{ "type": "Feature", "properties": { "name": "Brookland Valley 18 Feb 26" }, "geometry": { "type": "MultiPolygon", "coordinates": [ [ [ [ 115.026426358762592, -33.793403630652236 ], [ 115.028500287397947, -33.793950844239902 ], [ 115.027998669820704, -33.794182126716812 ], [ 115.027948606611233, -33.794211282689865 ], [ 115.027922392413302, -33.794223076085082 ], [ 115.027895981104052, -33.794235688484967 ], [ 115.027874300204815, -33.79424862849784 ], [ 115.027875679909243, -33.794268775569236 ], [ 115.027867401756964, -33.794516600633429 ], [ 115.026115503062044, -33.794055451879736 ], [ 115.026426358762592, -33.793403630652236 ] ] ] ] } }
]
}
