{
"type": "FeatureCollection",
"name": "NDVI 701 Zone3_Rx",
"features": [
{ "type": "Feature", "properties": { "appName": "Brookland Valley 18 Feb 26", "rate": 1.0, "rateInt": 1, "unit": "l/ha", "zone": 1 }, "geometry": { "type": "MultiPolygon", "coordinates": [ [ [ [ 115.0318981, -33.7930988 ], [ 115.0319743, -33.7928817 ], [ 115.0319723, -33.7928814 ], [ 115.031969, -33.7928907 ], [ 115.0319276, -33.7928805 ], [ 115.0318543, -33.793088 ], [ 115.0318336, -33.7930829 ], [ 115.0318153, -33.7931348 ], [ 115.0317946, -33.7931297 ], [ 115.0317457, -33.7932681 ], [ 115.0317664, -33.7932732 ], [ 115.0317603, -33.7932905 ], [ 115.0318018, -33.7933007 ], [ 115.0318079, -33.7932834 ], [ 115.0318248, -33.7932875 ], [ 115.0318331, -33.7932756 ], [ 115.0318408, -33.7932539 ], [ 115.0318435, -33.7932545 ], [ 115.0318617, -33.7932026 ], [ 115.0318384, -33.7931969 ], [ 115.0318567, -33.793145 ], [ 115.0318774, -33.7931501 ], [ 115.0318835, -33.7931328 ], [ 115.031886, -33.7931334 ], [ 115.0318921, -33.7931161 ], [ 115.0318897, -33.7931155 ], [ 115.0318958, -33.7930982 ], [ 115.0318981, -33.7930988 ] ], [ [ 115.0318873, -33.7930585 ], [ 115.031908, -33.7930636 ], [ 115.0319019, -33.7930809 ], [ 115.0318812, -33.7930758 ], [ 115.0318873, -33.7930585 ] ], [ [ 115.0318408, -33.7932539 ], [ 115.0318201, -33.7932488 ], [ 115.0318262, -33.7932315 ], [ 115.0318469, -33.7932366 ], [ 115.0318408, -33.7932539 ] ] ], [ [ [ 115.0317816, -33.7928475 ], [ 115.0317765, -33.7928621 ], [ 115.0317558, -33.792857 ], [ 115.0317436, -33.7928916 ], [ 115.031785, -33.7929018 ], [ 115.0318028, -33.7928513 ], [ 115.0317816, -33.7928475 ] ] ], [ [ [ 115.0316703, -33.7930991 ], [ 115.0316289, -33.7930889 ], [ 115.0316167, -33.7931235 ], [ 115.0316374, -33.7931286 ], [ 115.0316313, -33.7931459 ], [ 115.031652, -33.793151 ], [ 115.0316703, -33.7930991 ] ] ], [ [ [ 115.0315824, -33.7932843 ], [ 115.0315702, -33.7933188 ], [ 115.0315909, -33.7933239 ], [ 115.0315848, -33.7933412 ], [ 115.0316055, -33.7933463 ], [ 115.0316299, -33.7932772 ], [ 115.0316092, -33.7932721 ], [ 115.0316031, -33.7932894 ], [ 115.0315824, -33.7932843 ] ] ], [ [ [ 115.0314276, -33.7933401 ], [ 115.0314337, -33.7933228 ], [ 115.031413, -33.7933177 ], [ 115.0314069, -33.793335 ], [ 115.0314276, -33.7933401 ] ] ], [ [ [ 115.03137, -33.7937583 ], [ 115.0313578, -33.7937929 ], [ 115.0313992, -33.7938031 ], [ 115.0313931, -33.7938204 ], [ 115.0314138, -33.7938255 ], [ 115.0314321, -33.7937736 ], [ 115.0314529, -33.7937787 ], [ 115.0314651, -33.7937441 ], [ 115.0314858, -33.7937492 ], [ 115.0315041, -33.7936973 ], [ 115.0314834, -33.7936922 ], [ 115.0314895, -33.7936749 ], [ 115.0314688, -33.7936698 ], [ 115.0314749, -33.7936526 ], [ 115.0314956, -33.7936577 ], [ 115.0315017, -33.7936404 ], [ 115.0315224, -33.7936455 ], [ 115.0315591, -33.7935417 ], [ 115.0316005, -33.7935519 ], [ 115.0316066, -33.7935346 ], [ 115.0316273, -33.7935397 ], [ 115.0316578, -33.7934532 ], [ 115.0316371, -33.7934481 ], [ 115.0316432, -33.7934308 ], [ 115.0316225, -33.7934257 ], [ 115.0316286, -33.7934084 ], [ 115.0315872, -33.7933982 ], [ 115.0315689, -33.7934501 ], [ 115.0315482, -33.793445 ], [ 115.0315421, -33.7934623 ], [ 115.0315628, -33.7934674 ], [ 115.0315383, -33.7935366 ], [ 115.0315176, -33.7935315 ], [ 115.0314993, -33.7935834 ], [ 115.0314786, -33.7935783 ], [ 115.0314847, -33.793561 ], [ 115.0314433, -33.7935508 ], [ 115.0314677, -33.7934816 ], [ 115.0314884, -33.7934867 ], [ 115.0314823, -33.793504 ], [ 115.031503, -33.7935091 ], [ 115.0315336, -33.7934226 ], [ 115.0315543, -33.7934277 ], [ 115.0315665, -33.7933931 ], [ 115.0315458, -33.793388 ], [ 115.0315397, -33.7934053 ], [ 115.0314982, -33.7933951 ], [ 115.0314921, -33.7934124 ], [ 115.0314714, -33.7934073 ], [ 115.0314592, -33.7934419 ], [ 115.0314385, -33.7934368 ], [ 115.0314324, -33.7934541 ], [ 115.0313909, -33.7934439 ], [ 115.0313482, -33.793565 ], [ 115.0313275, -33.7935599 ], [ 115.0313214, -33.7935772 ], [ 115.0313421, -33.7935823 ], [ 115.0313299, -33.7936169 ], [ 115.0312884, -33.7936067 ], [ 115.0313312, -33.7934856 ], [ 115.0312276, -33.7934601 ], [ 115.0312337, -33.7934428 ], [ 115.031213, -33.7934377 ], [ 115.0312191, -33.7934204 ], [ 115.0311984, -33.7934153 ], [ 115.0311801, -33.7934672 ], [ 115.0312008, -33.7934723 ], [ 115.0311947, -33.7934896 ], [ 115.0312154, -33.7934947 ], [ 115.0312032, -33.7935293 ], [ 115.0311825, -33.7935242 ], [ 115.0311703, -33.7935588 ], [ 115.0311496, -33.7935537 ], [ 115.0311434, -33.793571 ], [ 115.0311227, -33.7935659 ], [ 115.0311044, -33.7936178 ], [ 115.0311251, -33.7936229 ], [ 115.0311312, -33.7936056 ], [ 115.0311727, -33.7936158 ], [ 115.0311788, -33.7935985 ], [ 115.0312202, -33.7936087 ], [ 115.0312141, -33.793626 ], [ 115.0312348, -33.7936311 ], [ 115.0312287, -33.7936484 ], [ 115.0312494, -33.7936535 ], [ 115.0312433, -33.7936708 ], [ 115.031264, -33.7936758 ], [ 115.0312823, -33.793624 ], [ 115.0313238, -33.7936342 ], [ 115.0313116, -33.7936688 ], [ 115.0313323, -33.7936738 ], [ 115.0313384, -33.7936566 ], [ 115.0313591, -33.7936617 ], [ 115.031353, -33.7936789 ], [ 115.0313737, -33.793684 ], [ 115.0313676, -33.7937013 ], [ 115.0313883, -33.7937064 ], [ 115.0313761, -33.793741 ], [ 115.0313968, -33.7937461 ], [ 115.0313907, -33.7937634 ], [ 115.03137, -33.7937583 ] ], [ [ 115.031425, -33.7936027 ], [ 115.0314871, -33.793618 ], [ 115.031481, -33.7936353 ], [ 115.0314603, -33.7936302 ], [ 115.0314542, -33.7936475 ], [ 115.0314335, -33.7936424 ], [ 115.0314273, -33.7936597 ], [ 115.0314066, -33.7936546 ], [ 115.031425, -33.7936027 ] ], [ [ 115.0314029, -33.7937288 ], [ 115.031409, -33.7937115 ], [ 115.0314297, -33.7937166 ], [ 115.0314236, -33.7937339 ], [ 115.0314029, -33.7937288 ] ], [ [ 115.0313944, -33.7936891 ], [ 115.0314005, -33.7936718 ], [ 115.0314212, -33.7936769 ], [ 115.0314151, -33.7936942 ], [ 115.0313944, -33.7936891 ] ] ], [ [ [ 115.0313641, -33.7934561 ], [ 115.0313702, -33.7934388 ], [ 115.0313495, -33.7934337 ], [ 115.0313434, -33.793451 ], [ 115.0313641, -33.7934561 ] ] ], [ [ [ 115.0311496, -33.7935537 ], [ 115.0311557, -33.7935364 ], [ 115.0311349, -33.7935313 ], [ 115.0311288, -33.7935486 ], [ 115.0311496, -33.7935537 ] ] ], [ [ [ 115.0310362, -33.7936198 ], [ 115.0310154, -33.7936147 ], [ 115.0310093, -33.793632 ], [ 115.0310301, -33.7936371 ], [ 115.0310239, -33.7936544 ], [ 115.0310447, -33.7936595 ], [ 115.031063, -33.7936076 ], [ 115.0310423, -33.7936025 ], [ 115.0310362, -33.7936198 ] ] ], [ [ [ 115.0310057, -33.7937059 ], [ 115.0310127, -33.793708 ], [ 115.0310885, -33.7937266 ], [ 115.0311007, -33.793692 ], [ 115.03108, -33.7936869 ], [ 115.0310739, -33.7937042 ], [ 115.0310117, -33.7936889 ], [ 115.0310057, -33.7937059 ] ] ] ] } },
{ "type": "Feature", "properties": { "appName": "Brookland Valley 18 Feb 26", "rate": 2.0, "rateInt": 2, "unit": "l/ha", "zone": 2 }, "geometry": { "type": "MultiPolygon", "coordinates": [ [ [ [ 115.0316545, -33.792825 ], [ 115.0316522, -33.7928315 ], [ 115.0316315, -33.7928264 ], [ 115.0316254, -33.7928437 ], [ 115.0316461, -33.7928488 ], [ 115.0316217, -33.792918 ], [ 115.031601, -33.7929129 ], [ 115.0315949, -33.7929302 ], [ 115.0315741, -33.7929251 ], [ 115.031568, -33.7929424 ], [ 115.0315473, -33.7929373 ], [ 115.0315412, -33.7929545 ], [ 115.0315619, -33.7929596 ], [ 115.0315558, -33.7929769 ], [ 115.0315144, -33.7929667 ], [ 115.0315205, -33.7929495 ], [ 115.0314998, -33.7929444 ], [ 115.0314937, -33.7929616 ], [ 115.031473, -33.7929565 ], [ 115.0314608, -33.7929911 ], [ 115.03144, -33.792986 ], [ 115.0314217, -33.7930379 ], [ 115.031401, -33.7930328 ], [ 115.0313949, -33.7930501 ], [ 115.0313742, -33.793045 ], [ 115.031362, -33.7930796 ], [ 115.0313413, -33.7930745 ], [ 115.0313168, -33.7931437 ], [ 115.0312961, -33.7931386 ], [ 115.0312839, -33.7931732 ], [ 115.0312632, -33.7931681 ], [ 115.031251, -33.7932027 ], [ 115.0312303, -33.7931976 ], [ 115.0312241, -33.7932149 ], [ 115.0312034, -33.7932098 ], [ 115.0311973, -33.7932271 ], [ 115.0311559, -33.7932169 ], [ 115.0311498, -33.7932342 ], [ 115.0311291, -33.7932291 ], [ 115.031123, -33.7932464 ], [ 115.0311023, -33.7932413 ], [ 115.0310778, -33.7933105 ], [ 115.0310571, -33.7933054 ], [ 115.0310693, -33.7932708 ], [ 115.031051, -33.7932662 ], [ 115.0310273, -33.7933356 ], [ 115.0310656, -33.793345 ], [ 115.0310595, -33.7933623 ], [ 115.0310802, -33.7933674 ], [ 115.0310741, -33.7933847 ], [ 115.0310948, -33.7933898 ], [ 115.0310643, -33.7934763 ], [ 115.0310436, -33.7934712 ], [ 115.0310314, -33.7935058 ], [ 115.0309899, -33.7934956 ], [ 115.0309838, -33.7935129 ], [ 115.0309682, -33.793509 ], [ 115.0309623, -33.7935264 ], [ 115.0309777, -33.7935302 ], [ 115.0309289, -33.7936686 ], [ 115.030991, -33.7936838 ], [ 115.0309854, -33.7936999 ], [ 115.0310057, -33.7937059 ], [ 115.0310117, -33.7936889 ], [ 115.0310324, -33.793694 ], [ 115.0310447, -33.7936595 ], [ 115.0310239, -33.7936544 ], [ 115.0310301, -33.7936371 ], [ 115.0310093, -33.793632 ], [ 115.0310154, -33.7936147 ], [ 115.0310362, -33.7936198 ], [ 115.0310423, -33.7936025 ], [ 115.031063, -33.7936076 ], [ 115.0311118, -33.7934692 ], [ 115.0311533, -33.7934794 ], [ 115.031141, -33.793514 ], [ 115.0312032, -33.7935293 ], [ 115.0312154, -33.7934947 ], [ 115.0311947, -33.7934896 ], [ 115.0312008, -33.7934723 ], [ 115.0311801, -33.7934672 ], [ 115.0312045, -33.793398 ], [ 115.0312252, -33.7934031 ], [ 115.031213, -33.7934377 ], [ 115.0312337, -33.7934428 ], [ 115.0312276, -33.7934601 ], [ 115.0313312, -33.7934856 ], [ 115.0313678, -33.7933818 ], [ 115.0313885, -33.7933869 ], [ 115.0314008, -33.7933523 ], [ 115.0314215, -33.7933574 ], [ 115.0313909, -33.7934439 ], [ 115.0314324, -33.7934541 ], [ 115.0314385, -33.7934368 ], [ 115.0314592, -33.7934419 ], [ 115.0314714, -33.7934073 ], [ 115.0314921, -33.7934124 ], [ 115.0314982, -33.7933951 ], [ 115.0315397, -33.7934053 ], [ 115.031558, -33.7933534 ], [ 115.0315787, -33.7933585 ], [ 115.0315909, -33.7933239 ], [ 115.0315702, -33.7933188 ], [ 115.0315824, -33.7932843 ], [ 115.0316031, -33.7932894 ], [ 115.0316092, -33.7932721 ], [ 115.0316299, -33.7932772 ], [ 115.0315872, -33.7933982 ], [ 115.0316286, -33.7934084 ], [ 115.0316225, -33.7934257 ], [ 115.0316432, -33.7934308 ], [ 115.0316371, -33.7934481 ], [ 115.0316578, -33.7934532 ], [ 115.0316273, -33.7935397 ], [ 115.0316066, -33.7935346 ], [ 115.0316005, -33.7935519 ], [ 115.0315591, -33.7935417 ], [ 115.0315224, -33.7936455 ], [ 115.0315017, -33.7936404 ], [ 115.0314834, -33.7936922 ], [ 115.0315041, -33.7936973 ], [ 115.0314858, -33.7937492 ], [ 115.0314651, -33.7937441 ], [ 115.0314529, -33.7937787 ], [ 115.0314321, -33.7937736 ], [ 115.0314199, -33.7938082 ], [ 115.0314406, -33.7938133 ], [ 115.0314345, -33.7938306 ], [ 115.0315253, -33.793853 ], [ 115.0315448, -33.793797 ], [ 115.0315673, -33.7938042 ], [ 115.0315872, -33.7937425 ], [ 115.0315996, -33.7937458 ], [ 115.0316016, -33.7937401 ], [ 115.0316099, -33.7937422 ], [ 115.0317078, -33.7934542 ], [ 115.0317199, -33.7934566 ], [ 115.0317317, -33.7934352 ], [ 115.0317322, -33.7934339 ], [ 115.0317324, -33.793434 ], [ 115.0317702, -33.7933659 ], [ 115.0317874, -33.7933412 ], [ 115.0317896, -33.7933352 ], [ 115.0317913, -33.7933357 ], [ 115.0318025, -33.7933196 ], [ 115.0317957, -33.7933179 ], [ 115.0318018, -33.7933007 ], [ 115.0317603, -33.7932905 ], [ 115.0317664, -33.7932732 ], [ 115.0317457, -33.7932681 ], [ 115.0317946, -33.7931297 ], [ 115.0318153, -33.7931348 ], [ 115.0318214, -33.7931175 ], [ 115.0318007, -33.7931124 ], [ 115.0318129, -33.7930778 ], [ 115.0318336, -33.7930829 ], [ 115.0318458, -33.7930483 ], [ 115.0318665, -33.7930534 ], [ 115.0319093, -33.7929324 ], [ 115.0318886, -33.7929273 ], [ 115.0318947, -33.79291 ], [ 115.0319154, -33.7929151 ], [ 115.0319215, -33.7928978 ], [ 115.0319008, -33.7928927 ], [ 115.0319069, -33.7928754 ], [ 115.0318448, -33.7928601 ], [ 115.0318452, -33.7928588 ], [ 115.0318028, -33.7928513 ], [ 115.031785, -33.7929018 ], [ 115.0317436, -33.7928916 ], [ 115.0317604, -33.7928438 ], [ 115.0316545, -33.792825 ] ], [ [ 115.031474, -33.7931448 ], [ 115.0314924, -33.7930929 ], [ 115.0315131, -33.793098 ], [ 115.0314948, -33.7931499 ], [ 115.031474, -33.7931448 ] ], [ [ 115.0317627, -33.7933474 ], [ 115.031742, -33.7933423 ], [ 115.0317542, -33.7933077 ], [ 115.0317749, -33.7933128 ], [ 115.0317627, -33.7933474 ] ], [ [ 115.0316167, -33.7931235 ], [ 115.0316289, -33.7930889 ], [ 115.0316703, -33.7930991 ], [ 115.031652, -33.793151 ], [ 115.0316313, -33.7931459 ], [ 115.0316374, -33.7931286 ], [ 115.0316167, -33.7931235 ] ], [ [ 115.0314119, -33.7931295 ], [ 115.0313875, -33.7931987 ], [ 115.0313668, -33.7931936 ], [ 115.0313729, -33.7931763 ], [ 115.0313521, -33.7931712 ], [ 115.0313705, -33.7931193 ], [ 115.0314119, -33.7931295 ] ], [ [ 115.0314204, -33.7931692 ], [ 115.0314387, -33.7931173 ], [ 115.0314594, -33.7931224 ], [ 115.0314411, -33.7931743 ], [ 115.0314204, -33.7931692 ] ], [ [ 115.0314374, -33.7932486 ], [ 115.0314581, -33.7932537 ], [ 115.0314459, -33.7932883 ], [ 115.0314252, -33.7932832 ], [ 115.0314374, -33.7932486 ] ], [ [ 115.0316995, -33.7931439 ], [ 115.0317117, -33.7931093 ], [ 115.0317532, -33.7931195 ], [ 115.0317348, -33.7931714 ], [ 115.0317141, -33.7931663 ], [ 115.0317202, -33.793149 ], [ 115.0316995, -33.7931439 ] ], [ [ 115.0315643, -33.7930166 ], [ 115.0315765, -33.792982 ], [ 115.031618, -33.7929922 ], [ 115.0315996, -33.7930441 ], [ 115.0315789, -33.793039 ], [ 115.031585, -33.7930217 ], [ 115.0315643, -33.7930166 ] ], [ [ 115.0318373, -33.7930086 ], [ 115.0318495, -33.792974 ], [ 115.0318703, -33.7929791 ], [ 115.031858, -33.7930137 ], [ 115.0318373, -33.7930086 ] ], [ [ 115.031413, -33.7933177 ], [ 115.0314337, -33.7933228 ], [ 115.0314276, -33.7933401 ], [ 115.0314069, -33.793335 ], [ 115.031413, -33.7933177 ] ] ], [ [ [ 115.0316121, -33.7928175 ], [ 115.0316108, -33.7928213 ], [ 115.0316315, -33.7928264 ], [ 115.0316333, -33.7928212 ], [ 115.0316121, -33.7928175 ] ] ], [ [ [ 115.0312782, -33.7927582 ], [ 115.0312308, -33.7927498 ], [ 115.0312135, -33.7927987 ], [ 115.0312342, -33.7928038 ], [ 115.0312403, -33.7927865 ], [ 115.031261, -33.7927916 ], [ 115.0312671, -33.7927743 ], [ 115.0312878, -33.7927794 ], [ 115.031294, -33.7927621 ], [ 115.0312782, -33.7927582 ] ] ], [ [ [ 115.0312159, -33.7928557 ], [ 115.0312281, -33.7928211 ], [ 115.0312074, -33.792816 ], [ 115.0311952, -33.7928506 ], [ 115.0312159, -33.7928557 ] ] ], [ [ [ 115.0311976, -33.7929076 ], [ 115.0312098, -33.792873 ], [ 115.0311891, -33.7928679 ], [ 115.0311769, -33.7929025 ], [ 115.0311976, -33.7929076 ] ] ], [ [ [ 115.0311609, -33.7930113 ], [ 115.0311854, -33.7929422 ], [ 115.0311646, -33.7929371 ], [ 115.0311402, -33.7930062 ], [ 115.0311609, -33.7930113 ] ] ], [ [ [ 115.0309741, -33.7934917 ], [ 115.0309899, -33.7934956 ], [ 115.030996, -33.7934783 ], [ 115.03098, -33.7934744 ], [ 115.0309741, -33.7934917 ] ] ], [ [ [ 115.0313521, -33.7938089 ], [ 115.03137, -33.7937583 ], [ 115.0313907, -33.7937634 ], [ 115.0313968, -33.7937461 ], [ 115.0313761, -33.793741 ], [ 115.0313883, -33.7937064 ], [ 115.0313676, -33.7937013 ], [ 115.0313737, -33.793684 ], [ 115.031353, -33.7936789 ], [ 115.0313591, -33.7936617 ], [ 115.0313384, -33.7936566 ], [ 115.0313323, -33.7936738 ], [ 115.0312908, -33.7936637 ], [ 115.0312786, -33.7936982 ], [ 115.0312993, -33.7937033 ], [ 115.0312932, -33.7937206 ], [ 115.0312518, -33.7937104 ], [ 115.031264, -33.7936758 ], [ 115.0312433, -33.7936708 ], [ 115.0312494, -33.7936535 ], [ 115.0312287, -33.7936484 ], [ 115.0312348, -33.7936311 ], [ 115.0312141, -33.793626 ], [ 115.0312202, -33.7936087 ], [ 115.0311788, -33.7935985 ], [ 115.0311727, -33.7936158 ], [ 115.0311519, -33.7936107 ], [ 115.0311458, -33.793628 ], [ 115.0311251, -33.7936229 ], [ 115.031119, -33.7936402 ], [ 115.0311397, -33.7936453 ], [ 115.0311336, -33.7936626 ], [ 115.0311129, -33.7936575 ], [ 115.0310885, -33.7937266 ], [ 115.0311092, -33.7937317 ], [ 115.0311076, -33.7937362 ], [ 115.0311484, -33.7937483 ], [ 115.0311506, -33.7937419 ], [ 115.0312749, -33.7937725 ], [ 115.0312706, -33.7937847 ], [ 115.031291, -33.7937907 ], [ 115.0312956, -33.7937776 ], [ 115.0313163, -33.7937827 ], [ 115.0313114, -33.7937968 ], [ 115.0313521, -33.7938089 ] ] ] ] } },
{ "type": "Feature", "properties": { "appName": "Brookland Valley 18 Feb 26", "rate": 3.0, "rateInt": 3, "unit": "l/ha", "zone": 3 }, "geometry": { "type": "MultiPolygon", "coordinates": [ [ [ [ 115.031122, -33.7930581 ], [ 115.0311101, -33.7930928 ], [ 115.0311304, -33.7930978 ], [ 115.0310571, -33.7933054 ], [ 115.0310778, -33.7933105 ], [ 115.0311023, -33.7932413 ], [ 115.031123, -33.7932464 ], [ 115.0311291, -33.7932291 ], [ 115.0311498, -33.7932342 ], [ 115.0311559, -33.7932169 ], [ 115.0311973, -33.7932271 ], [ 115.0312034, -33.7932098 ], [ 115.0312241, -33.7932149 ], [ 115.0312303, -33.7931976 ], [ 115.031251, -33.7932027 ], [ 115.0312632, -33.7931681 ], [ 115.0312839, -33.7931732 ], [ 115.0312961, -33.7931386 ], [ 115.0313168, -33.7931437 ], [ 115.0313413, -33.7930745 ], [ 115.031362, -33.7930796 ], [ 115.0313742, -33.793045 ], [ 115.0313949, -33.7930501 ], [ 115.031401, -33.7930328 ], [ 115.0314217, -33.7930379 ], [ 115.03144, -33.792986 ], [ 115.0314608, -33.7929911 ], [ 115.031473, -33.7929565 ], [ 115.0314937, -33.7929616 ], [ 115.0314998, -33.7929444 ], [ 115.0315412, -33.7929545 ], [ 115.0315473, -33.7929373 ], [ 115.031568, -33.7929424 ], [ 115.0315741, -33.7929251 ], [ 115.0315949, -33.7929302 ], [ 115.031601, -33.7929129 ], [ 115.0316217, -33.792918 ], [ 115.0316461, -33.7928488 ], [ 115.0316254, -33.7928437 ], [ 115.0316315, -33.7928264 ], [ 115.0315518, -33.7928068 ], [ 115.0314003, -33.7927799 ], [ 115.0313975, -33.7927876 ], [ 115.031294, -33.7927621 ], [ 115.0312878, -33.7927794 ], [ 115.0312671, -33.7927743 ], [ 115.031261, -33.7927916 ], [ 115.0312403, -33.7927865 ], [ 115.0312342, -33.7928038 ], [ 115.0312135, -33.7927987 ], [ 115.0312074, -33.792816 ], [ 115.0312281, -33.7928211 ], [ 115.0311426, -33.7930632 ], [ 115.031122, -33.7930581 ] ] ], [ [ [ 115.0315765, -33.792982 ], [ 115.0315643, -33.7930166 ], [ 115.031585, -33.7930217 ], [ 115.0315789, -33.793039 ], [ 115.0315996, -33.7930441 ], [ 115.031618, -33.7929922 ], [ 115.0315765, -33.792982 ] ] ], [ [ [ 115.0317348, -33.7931714 ], [ 115.0317532, -33.7931195 ], [ 115.0317117, -33.7931093 ], [ 115.0316995, -33.7931439 ], [ 115.0317202, -33.793149 ], [ 115.0317141, -33.7931663 ], [ 115.0317348, -33.7931714 ] ] ], [ [ [ 115.0314119, -33.7931295 ], [ 115.0313705, -33.7931193 ], [ 115.0313521, -33.7931712 ], [ 115.0313729, -33.7931763 ], [ 115.0313668, -33.7931936 ], [ 115.0313875, -33.7931987 ], [ 115.0314119, -33.7931295 ] ] ], [ [ [ 115.0310595, -33.7933623 ], [ 115.0310656, -33.793345 ], [ 115.0310449, -33.7933399 ], [ 115.0309899, -33.7934956 ], [ 115.0310314, -33.7935058 ], [ 115.0310436, -33.7934712 ], [ 115.0310643, -33.7934763 ], [ 115.0310948, -33.7933898 ], [ 115.0310741, -33.7933847 ], [ 115.0310802, -33.7933674 ], [ 115.0310595, -33.7933623 ] ] ] ] } }
]
}
