{
"type": "FeatureCollection",
"name": "NDVI - CHRBK08 3 zones_Rx",
"features": [
{ "type": "Feature", "properties": { "appName": "Rosa Brook 050425", "rate": 1.0, "rateInt": 1, "unit": "l/ha", "zone": 1 }, "geometry": { "type": "MultiPolygon", "coordinates": [ [ [ [ 115.2154827, -33.9432313 ], [ 115.2154874, -33.9431872 ], [ 115.2154344, -33.9431832 ], [ 115.2154368, -33.9431611 ], [ 115.2153838, -33.9431572 ], [ 115.2153814, -33.9431793 ], [ 115.2153285, -33.9431753 ], [ 115.2153237, -33.9432195 ], [ 115.2153502, -33.9432215 ], [ 115.2153478, -33.9432436 ], [ 115.2154538, -33.9432514 ], [ 115.2154562, -33.9432294 ], [ 115.2154827, -33.9432313 ] ] ], [ [ [ 115.2152412, -33.9432134 ], [ 115.2152442, -33.9432136 ], [ 115.2152466, -33.9431915 ], [ 115.2152436, -33.9431913 ], [ 115.2152412, -33.9432134 ] ] ], [ [ [ 115.2162483, -33.9434219 ], [ 115.2162578, -33.9433336 ], [ 115.2162463, -33.9433327 ], [ 115.2162369, -33.9434211 ], [ 115.2162483, -33.9434219 ] ] ], [ [ [ 115.2162387, -33.9435102 ], [ 115.2162274, -33.9435094 ], [ 115.216225, -33.9435315 ], [ 115.216172, -33.9435275 ], [ 115.2161744, -33.9435054 ], [ 115.2161479, -33.9435035 ], [ 115.2161597, -33.9433931 ], [ 115.2160803, -33.9433871 ], [ 115.2160779, -33.9434092 ], [ 115.2160514, -33.9434072 ], [ 115.2160419, -33.9434956 ], [ 115.2160684, -33.9434975 ], [ 115.216066, -33.9435196 ], [ 115.2160925, -33.9435216 ], [ 115.2160854, -33.9435878 ], [ 115.2160589, -33.9435859 ], [ 115.2160566, -33.943608 ], [ 115.2160301, -33.943606 ], [ 115.2160253, -33.9436501 ], [ 115.2160518, -33.9436521 ], [ 115.2160471, -33.9436963 ], [ 115.2160736, -33.9436983 ], [ 115.216076, -33.9436762 ], [ 115.216129, -33.9436801 ], [ 115.2161337, -33.943636 ], [ 115.2161602, -33.9436379 ], [ 115.2161626, -33.9436159 ], [ 115.2161891, -33.9436178 ], [ 115.2161938, -33.9435737 ], [ 115.2162315, -33.9435765 ], [ 115.2162387, -33.9435102 ] ] ], [ [ [ 115.215433, -33.9436951 ], [ 115.2154353, -33.943673 ], [ 115.2154088, -33.943671 ], [ 115.2154065, -33.9436931 ], [ 115.215433, -33.9436951 ] ] ], [ [ [ 115.2159825, -33.9438473 ], [ 115.2159919, -33.943764 ], [ 115.2160924, -33.943772 ], [ 115.2160954, -33.9437444 ], [ 115.2160159, -33.9437385 ], [ 115.2160135, -33.9437606 ], [ 115.215987, -33.9437586 ], [ 115.2159846, -33.9437807 ], [ 115.2159317, -33.9437767 ], [ 115.2159293, -33.9437988 ], [ 115.2158763, -33.9437949 ], [ 115.2158739, -33.9438169 ], [ 115.2157679, -33.943809 ], [ 115.2157632, -33.9438532 ], [ 115.2157367, -33.9438512 ], [ 115.2157343, -33.9438733 ], [ 115.2155224, -33.9438575 ], [ 115.21552, -33.9438796 ], [ 115.215361, -33.9438678 ], [ 115.2153634, -33.9438457 ], [ 115.2153369, -33.9438437 ], [ 115.2153345, -33.9438658 ], [ 115.2153177, -33.9438645 ], [ 115.2153191, -33.9438649 ], [ 115.2158894, -33.9439218 ], [ 115.2158933, -33.9438852 ], [ 115.2159198, -33.9438871 ], [ 115.2159222, -33.9438651 ], [ 115.2159487, -33.943867 ], [ 115.215951, -33.9438449 ], [ 115.2159825, -33.9438473 ] ] ], [ [ [ 115.2151777, -33.9438096 ], [ 115.2151756, -33.943829 ], [ 115.2151782, -33.9438296 ], [ 115.2151803, -33.9438098 ], [ 115.2151777, -33.9438096 ] ] ], [ [ [ 115.2151912, -33.9438329 ], [ 115.2152042, -33.9438361 ], [ 115.2152044, -33.9438339 ], [ 115.2151912, -33.9438329 ] ] ] ] } },
{ "type": "Feature", "properties": { "appName": "Rosa Brook 050425", "rate": 2.0, "rateInt": 2, "unit": "l/ha", "zone": 2 }, "geometry": { "type": "MultiPolygon", "coordinates": [ [ [ [ 115.2157737, -33.9430082 ], [ 115.2157713, -33.9430302 ], [ 115.2157978, -33.9430322 ], [ 115.215786, -33.9431426 ], [ 115.21568, -33.9431347 ], [ 115.2156824, -33.9431127 ], [ 115.2156559, -33.9431107 ], [ 115.2156606, -33.9430665 ], [ 115.2156341, -33.9430645 ], [ 115.2156388, -33.9430204 ], [ 115.2155976, -33.9430173 ], [ 115.2154246, -33.9430262 ], [ 115.2154245, -33.9430267 ], [ 115.2154211, -33.9430264 ], [ 115.2152634, -33.9430346 ], [ 115.2152632, -33.9430369 ], [ 115.21526, -33.9430367 ], [ 115.2152436, -33.9431913 ], [ 115.2152466, -33.9431915 ], [ 115.2152395, -33.9432577 ], [ 115.2152365, -33.9432575 ], [ 115.2152247, -33.9433679 ], [ 115.2152277, -33.9433682 ], [ 115.2152229, -33.9434123 ], [ 115.21522, -33.9434121 ], [ 115.2151777, -33.9438096 ], [ 115.2151803, -33.9438098 ], [ 115.2151782, -33.9438296 ], [ 115.2151912, -33.9438329 ], [ 115.2152044, -33.9438339 ], [ 115.2152042, -33.9438361 ], [ 115.2153177, -33.9438645 ], [ 115.2153345, -33.9438658 ], [ 115.2153369, -33.9438437 ], [ 115.2153634, -33.9438457 ], [ 115.215361, -33.9438678 ], [ 115.21552, -33.9438796 ], [ 115.2155224, -33.9438575 ], [ 115.2157343, -33.9438733 ], [ 115.2157367, -33.9438512 ], [ 115.2157632, -33.9438532 ], [ 115.2157679, -33.943809 ], [ 115.2158739, -33.9438169 ], [ 115.2158763, -33.9437949 ], [ 115.2159293, -33.9437988 ], [ 115.2159317, -33.9437767 ], [ 115.2159846, -33.9437807 ], [ 115.215987, -33.9437586 ], [ 115.2160135, -33.9437606 ], [ 115.2160159, -33.9437385 ], [ 115.2160954, -33.9437444 ], [ 115.2160924, -33.943772 ], [ 115.2162094, -33.9437813 ], [ 115.21621, -33.9437752 ], [ 115.216199, -33.9437744 ], [ 115.2162013, -33.9437523 ], [ 115.2161748, -33.9437503 ], [ 115.2161819, -33.9436841 ], [ 115.2162084, -33.943686 ], [ 115.2162108, -33.943664 ], [ 115.216222, -33.9436648 ], [ 115.2162315, -33.9435765 ], [ 115.2161938, -33.9435737 ], [ 115.2161891, -33.9436178 ], [ 115.2161626, -33.9436159 ], [ 115.2161602, -33.9436379 ], [ 115.2161337, -33.943636 ], [ 115.216129, -33.9436801 ], [ 115.216076, -33.9436762 ], [ 115.2160736, -33.9436983 ], [ 115.2160471, -33.9436963 ], [ 115.2160518, -33.9436521 ], [ 115.2160253, -33.9436501 ], [ 115.2160301, -33.943606 ], [ 115.2160566, -33.943608 ], [ 115.2160589, -33.9435859 ], [ 115.2160854, -33.9435878 ], [ 115.2160925, -33.9435216 ], [ 115.216066, -33.9435196 ], [ 115.2160684, -33.9434975 ], [ 115.2160419, -33.9434956 ], [ 115.2160514, -33.9434072 ], [ 115.2160779, -33.9434092 ], [ 115.2160803, -33.9433871 ], [ 115.2161597, -33.9433931 ], [ 115.2161479, -33.9435035 ], [ 115.2161744, -33.9435054 ], [ 115.216172, -33.9435275 ], [ 115.216225, -33.9435315 ], [ 115.2162274, -33.9435094 ], [ 115.2162387, -33.9435102 ], [ 115.2162483, -33.9434219 ], [ 115.2162369, -33.9434211 ], [ 115.2162463, -33.9433327 ], [ 115.2162578, -33.9433336 ], [ 115.216296, -33.9429813 ], [ 115.2157737, -33.9430082 ] ], [ [ 115.2154344, -33.9431832 ], [ 115.2154874, -33.9431872 ], [ 115.2154827, -33.9432313 ], [ 115.2154562, -33.9432294 ], [ 115.2154538, -33.9432514 ], [ 115.2153478, -33.9432436 ], [ 115.2153502, -33.9432215 ], [ 115.2153237, -33.9432195 ], [ 115.2153285, -33.9431753 ], [ 115.2153814, -33.9431793 ], [ 115.2153838, -33.9431572 ], [ 115.2154368, -33.9431611 ], [ 115.2154344, -33.9431832 ] ], [ [ 115.2159568, -33.9430441 ], [ 115.2159833, -33.943046 ], [ 115.2159809, -33.9430681 ], [ 115.2159544, -33.9430661 ], [ 115.2159568, -33.9430441 ] ], [ [ 115.2156828, -33.9433575 ], [ 115.2156876, -33.9433134 ], [ 115.215714, -33.9433153 ], [ 115.2157093, -33.9433595 ], [ 115.2156828, -33.9433575 ] ], [ [ 115.2152522, -33.9436371 ], [ 115.2152257, -33.9436351 ], [ 115.2152376, -33.9435247 ], [ 115.2152641, -33.9435267 ], [ 115.2152712, -33.9434604 ], [ 115.2152977, -33.9434624 ], [ 115.2153, -33.9434403 ], [ 115.215353, -33.9434443 ], [ 115.2153578, -33.9434001 ], [ 115.2154108, -33.943404 ], [ 115.2154131, -33.943382 ], [ 115.2154396, -33.9433839 ], [ 115.2154373, -33.943406 ], [ 115.2154638, -33.943408 ], [ 115.2154543, -33.9434963 ], [ 115.2154278, -33.9434944 ], [ 115.2154254, -33.9435164 ], [ 115.2153459, -33.9435105 ], [ 115.2153412, -33.9435547 ], [ 115.2153147, -33.9435527 ], [ 115.2153052, -33.943641 ], [ 115.2152787, -33.9436391 ], [ 115.2152764, -33.9436611 ], [ 115.2152499, -33.9436592 ], [ 115.2152522, -33.9436371 ] ], [ [ 115.2160675, -33.9430078 ], [ 115.2161205, -33.9430117 ], [ 115.2161158, -33.9430559 ], [ 115.2160628, -33.943052 ], [ 115.2160675, -33.9430078 ] ], [ [ 115.2153114, -33.943085 ], [ 115.2153138, -33.9430629 ], [ 115.2153403, -33.9430649 ], [ 115.2153379, -33.943087 ], [ 115.2153114, -33.943085 ] ], [ [ 115.2154088, -33.943671 ], [ 115.2154353, -33.943673 ], [ 115.215433, -33.9436951 ], [ 115.2154065, -33.9436931 ], [ 115.2154088, -33.943671 ] ] ], [ [ [ 115.2156394, -33.9430152 ], [ 115.2156388, -33.9430204 ], [ 115.2156653, -33.9430224 ], [ 115.2156663, -33.9430138 ], [ 115.2156394, -33.9430152 ] ] ], [ [ [ 115.2158894, -33.9439218 ], [ 115.2159731, -33.9439301 ], [ 115.2159825, -33.9438473 ], [ 115.215951, -33.9438449 ], [ 115.2159487, -33.943867 ], [ 115.2159222, -33.9438651 ], [ 115.2159198, -33.9438871 ], [ 115.2158933, -33.9438852 ], [ 115.2158894, -33.9439218 ] ] ] ] } },
{ "type": "Feature", "properties": { "appName": "Rosa Brook 050425", "rate": 3.0, "rateInt": 3, "unit": "l/ha", "zone": 3 }, "geometry": { "type": "MultiPolygon", "coordinates": [ [ [ [ 115.2161158, -33.9430559 ], [ 115.2161205, -33.9430117 ], [ 115.2160675, -33.9430078 ], [ 115.2160628, -33.943052 ], [ 115.2161158, -33.9430559 ] ] ], [ [ [ 115.2157737, -33.9430082 ], [ 115.2156663, -33.9430138 ], [ 115.2156653, -33.9430224 ], [ 115.2156388, -33.9430204 ], [ 115.2156341, -33.9430645 ], [ 115.2156606, -33.9430665 ], [ 115.2156559, -33.9431107 ], [ 115.2156824, -33.9431127 ], [ 115.21568, -33.9431347 ], [ 115.215786, -33.9431426 ], [ 115.2157978, -33.9430322 ], [ 115.2157713, -33.9430302 ], [ 115.2157737, -33.9430082 ] ] ], [ [ [ 115.2159809, -33.9430681 ], [ 115.2159833, -33.943046 ], [ 115.2159568, -33.9430441 ], [ 115.2159544, -33.9430661 ], [ 115.2159809, -33.9430681 ] ] ], [ [ [ 115.2153379, -33.943087 ], [ 115.2153403, -33.9430649 ], [ 115.2153138, -33.9430629 ], [ 115.2153114, -33.943085 ], [ 115.2153379, -33.943087 ] ] ], [ [ [ 115.2157093, -33.9433595 ], [ 115.215714, -33.9433153 ], [ 115.2156876, -33.9433134 ], [ 115.2156828, -33.9433575 ], [ 115.2157093, -33.9433595 ] ] ], [ [ [ 115.2152376, -33.9435247 ], [ 115.2152257, -33.9436351 ], [ 115.2152522, -33.9436371 ], [ 115.2152499, -33.9436592 ], [ 115.2152764, -33.9436611 ], [ 115.2152787, -33.9436391 ], [ 115.2153052, -33.943641 ], [ 115.2153147, -33.9435527 ], [ 115.2153412, -33.9435547 ], [ 115.2153459, -33.9435105 ], [ 115.2154254, -33.9435164 ], [ 115.2154278, -33.9434944 ], [ 115.2154543, -33.9434963 ], [ 115.2154638, -33.943408 ], [ 115.2154373, -33.943406 ], [ 115.2154396, -33.9433839 ], [ 115.2154131, -33.943382 ], [ 115.2154108, -33.943404 ], [ 115.2153578, -33.9434001 ], [ 115.215353, -33.9434443 ], [ 115.2153, -33.9434403 ], [ 115.2152977, -33.9434624 ], [ 115.2152712, -33.9434604 ], [ 115.2152641, -33.9435267 ], [ 115.2152376, -33.9435247 ] ] ], [ [ [ 115.216222, -33.9436648 ], [ 115.2162108, -33.943664 ], [ 115.2162084, -33.943686 ], [ 115.2161819, -33.9436841 ], [ 115.2161748, -33.9437503 ], [ 115.2162013, -33.9437523 ], [ 115.216199, -33.9437744 ], [ 115.21621, -33.9437752 ], [ 115.216222, -33.9436648 ] ] ] ] } }
]
}
