{
"type": "FeatureCollection",
"name": "layer",
"crs": { "type": "name", "properties": { "name": "urn:ogc:def:crs:OGC:1.3:CRS84" } },
"features": [
{ "type": "Feature", "properties": { "color": "#fb40f4", "creationDate": "2026-07-08T03:12:12Z", "fill": 0.0, "name": "Block 1 Cab Sauv - 0.588 ha", "visualType": "BOUNDARY" }, "geometry": { "type": "Polygon", "coordinates": [ [ [ 115.075010112088592, -33.793790680794459 ], [ 115.074994306674284, -33.79250805305854 ], [ 115.074545481275834, -33.792467305207296 ], [ 115.074563226021155, -33.793744097745297 ], [ 115.075010112088592, -33.793790680794459 ] ] ] } },
{ "type": "Feature", "properties": { "color": "#fb40f4", "creationDate": "2026-07-08T03:12:08Z", "fill": 0.0, "name": "Block 2 Tempranillo - 0.267 ha", "visualType": "BOUNDARY" }, "geometry": { "type": "Polygon", "coordinates": [ [ [ 115.074553209959959, -33.79374268830319 ], [ 115.074537264415028, -33.792469813860514 ], [ 115.07433379540845, -33.792445384876736 ], [ 115.074347686250121, -33.79372115177371 ], [ 115.074553209959959, -33.79374268830319 ] ] ] } },
{ "type": "Feature", "properties": { "color": "#fb40f4", "creationDate": "2026-07-08T03:09:37Z", "fill": 0.0, "name": "Block 3 Cab Sauv - 0.704 ha", "visualType": "BOUNDARY" }, "geometry": { "type": "Polygon", "coordinates": [ [ [ 115.074251831349557, -33.793258173035063 ], [ 115.072937235203881, -33.793100164766777 ], [ 115.072866863111983, -33.793602016056866 ], [ 115.0742625264823, -33.793760566607808 ], [ 115.074251831349557, -33.793258173035063 ] ] ] } },
{ "type": "Feature", "properties": { "color": "#fb40f4", "creationDate": "2026-07-08T03:10:03Z", "fill": 0.0, "name": "Block 4 Tempranillo - 0.108 ha", "visualType": "BOUNDARY" }, "geometry": { "type": "Polygon", "coordinates": [ [ [ 115.074253058545708, -33.793169287185748 ], [ 115.072948025552137, -33.793016059781095 ], [ 115.072936742565503, -33.793093306324181 ], [ 115.074252024186876, -33.793251235307139 ], [ 115.074253058545708, -33.793169287185748 ] ] ] } },
{ "type": "Feature", "properties": { "color": "#fb40f4", "creationDate": "2026-07-08T03:09:32Z", "fill": 0.0, "name": "Block 5 Cab Sauv - 1.228 ha", "visualType": "BOUNDARY" }, "geometry": { "type": "Polygon", "coordinates": [ [ [ 115.073511103295687, -33.792397207950799 ], [ 115.071859729405389, -33.79233450807093 ], [ 115.07185074387769, -33.792788968023139 ], [ 115.072625052281637, -33.792826133129722 ], [ 115.072620425844775, -33.792936453012082 ], [ 115.07425337680769, -33.793012000112945 ], [ 115.074233238721035, -33.792556412795683 ], [ 115.073501920513706, -33.792525905553603 ], [ 115.073511103295687, -33.792397207950799 ] ] ] } },
{ "type": "Feature", "properties": { "color": "#fb40f4", "creationDate": "2026-07-08T03:11:52Z", "fill": 0.0, "name": "Block 5b Malbec - 0.082 ha", "visualType": "BOUNDARY" }, "geometry": { "type": "Polygon", "coordinates": [ [ [ 115.074230370330611, -33.792466651412063 ], [ 115.074153809368909, -33.792464337555288 ], [ 115.07415588048093, -33.792438396354989 ], [ 115.073513763388405, -33.792405326755542 ], [ 115.07350599024204, -33.792522583205326 ], [ 115.074232572142307, -33.792550684840222 ], [ 115.074230370330611, -33.792466651412063 ] ] ] } },
{ "type": "Feature", "properties": { "color": "#fb40f4", "creationDate": "2026-07-08T02:13:02Z", "fill": 0.0, "name": "Block 6 Chardonnay - 1.276 ha", "visualType": "BOUNDARY" }, "geometry": { "type": "Polygon", "coordinates": [ [ [ 115.071845023897595, -33.791936304610694 ], [ 115.07185309792925, -33.792313072214128 ], [ 115.072589046662131, -33.79235064819558 ], [ 115.07325111791846, -33.792377152693106 ], [ 115.074302357901786, -33.792377823706715 ], [ 115.074279750598521, -33.791814852920439 ], [ 115.072600753999382, -33.791813846403699 ], [ 115.072599542905664, -33.791933285105642 ], [ 115.071845023897595, -33.791936304610694 ] ] ] } },
{ "type": "Feature", "properties": { "color": "#fb40f4", "creationDate": "2026-07-08T03:07:47Z", "fill": 0.0, "name": "Block 7 Chardonnay - 0.597 ha", "visualType": "BOUNDARY" }, "geometry": { "type": "Polygon", "coordinates": [ [ [ 115.074364645983906, -33.791446749839764 ], [ 115.074366417338922, -33.792363950206095 ], [ 115.074973009365692, -33.792434416924088 ], [ 115.074984223576109, -33.791528161372945 ], [ 115.074954709907843, -33.791526943670839 ], [ 115.074952616736084, -33.791450750837463 ], [ 115.074364645983906, -33.791446749839764 ] ] ] } },
{ "type": "Feature", "properties": { "color": "#fb40f4", "creationDate": "2026-07-08T03:12:42Z", "fill": 0.0, "name": "Block 10 Pinot - 0.386 ha", "visualType": "BOUNDARY" }, "geometry": { "type": "Polygon", "coordinates": [ [ [ 115.075929207663819, -33.793889323595586 ], [ 115.075919967525863, -33.792800407383261 ], [ 115.075576007974178, -33.792768883043266 ], [ 115.075584083919125, -33.79386268542163 ], [ 115.075929207663819, -33.793889323595586 ] ] ] } },
{ "type": "Feature", "properties": { "color": "#fb40f4", "creationDate": "2026-07-08T03:12:35Z", "fill": 0.0, "name": "Block 11 Vermintino - 0.304 ha", "visualType": "BOUNDARY" }, "geometry": { "type": "Polygon", "coordinates": [ [ [ 115.075573440504627, -33.7938603624508 ], [ 115.075566756190597, -33.792769928467798 ], [ 115.075291646702283, -33.792740778880535 ], [ 115.075304312760409, -33.79382944703358 ], [ 115.075573440504627, -33.7938603624508 ] ] ] } },
{ "type": "Feature", "properties": { "color": "#fb40f4", "creationDate": "2026-07-08T03:12:18Z", "fill": 0.0, "name": "Block 12 Malbec - 0.302 ha", "visualType": "BOUNDARY" }, "geometry": { "type": "Polygon", "coordinates": [ [ [ 115.075293427313568, -33.793826315197201 ], [ 115.075282523781596, -33.792743391018824 ], [ 115.07500888948465, -33.792715216938348 ], [ 115.075021437541977, -33.793792011170254 ], [ 115.075293427313568, -33.793826315197201 ] ] ] } }
]
}
