{
"type": "FeatureCollection",
"name": "NDVI 302 Zone3_Rx",
"features": [
{ "type": "Feature", "properties": { "appName": "Brookland Valley 18 Feb 26", "rate": 1.0, "rateInt": 1, "unit": "l/ha", "zone": 1 }, "geometry": { "type": "MultiPolygon", "coordinates": [ [ [ [ 115.0299713, -33.7940191 ], [ 115.0299531, -33.7940073 ], [ 115.0299691, -33.7939902 ], [ 115.0299486, -33.7939769 ], [ 115.0299645, -33.7939598 ], [ 115.0296987, -33.7937871 ], [ 115.0296827, -33.7938041 ], [ 115.0296623, -33.7937909 ], [ 115.0296782, -33.7937738 ], [ 115.0296075, -33.7937278 ], [ 115.0294513, -33.7936297 ], [ 115.0294214, -33.7936617 ], [ 115.029401, -33.7936484 ], [ 115.029385, -33.7936655 ], [ 115.029345, -33.7936395 ], [ 115.0293425, -33.7936407 ], [ 115.0293123, -33.7936731 ], [ 115.0293328, -33.7936864 ], [ 115.0293168, -33.7937035 ], [ 115.0293577, -33.79373 ], [ 115.0293896, -33.7936959 ], [ 115.0294918, -33.7937623 ], [ 115.0295078, -33.7937453 ], [ 115.0295282, -33.7937586 ], [ 115.0295123, -33.7937756 ], [ 115.0296145, -33.7938421 ], [ 115.0295986, -33.7938592 ], [ 115.0296191, -33.7938724 ], [ 115.0296032, -33.7938895 ], [ 115.0296236, -33.7939028 ], [ 115.0296714, -33.7938516 ], [ 115.0296509, -33.7938383 ], [ 115.0296668, -33.7938212 ], [ 115.0297282, -33.7938611 ], [ 115.0296963, -33.7938952 ], [ 115.0296759, -33.793882 ], [ 115.0296281, -33.7939332 ], [ 115.0295463, -33.79388 ], [ 115.0295623, -33.7938629 ], [ 115.0295418, -33.7938496 ], [ 115.0295259, -33.7938667 ], [ 115.0295054, -33.7938534 ], [ 115.0295373, -33.7938193 ], [ 115.0294964, -33.7937927 ], [ 115.0294804, -33.7938098 ], [ 115.0294191, -33.7937699 ], [ 115.0294032, -33.793787 ], [ 115.0293623, -33.7937604 ], [ 115.0293145, -33.7938116 ], [ 115.0292941, -33.7937983 ], [ 115.02931, -33.7937813 ], [ 115.0292895, -33.793768 ], [ 115.0293214, -33.7937338 ], [ 115.02926, -33.7936939 ], [ 115.0292441, -33.793711 ], [ 115.0292646, -33.7937243 ], [ 115.0292486, -33.7937414 ], [ 115.0292077, -33.7937148 ], [ 115.0291918, -33.7937319 ], [ 115.0291751, -33.793721 ], [ 115.0291642, -33.7937262 ], [ 115.0291236, -33.7937698 ], [ 115.0291032, -33.7937565 ], [ 115.0290713, -33.7937907 ], [ 115.0290537, -33.7937792 ], [ 115.0290454, -33.7937832 ], [ 115.029019, -33.7938115 ], [ 115.0290052, -33.7938025 ], [ 115.028986, -33.7938117 ], [ 115.0289668, -33.7938324 ], [ 115.0292326, -33.7940052 ], [ 115.0292167, -33.7940222 ], [ 115.0294007, -33.7941419 ], [ 115.029353, -33.7941931 ], [ 115.0293325, -33.7941798 ], [ 115.0293007, -33.7942139 ], [ 115.0293212, -33.7942272 ], [ 115.0293052, -33.7942443 ], [ 115.0293257, -33.7942576 ], [ 115.0293098, -33.7942747 ], [ 115.0293711, -33.7943145 ], [ 115.029387, -33.7942975 ], [ 115.0294075, -33.7943108 ], [ 115.0294234, -33.7942937 ], [ 115.0294643, -33.7943203 ], [ 115.0294802, -33.7943032 ], [ 115.0295007, -33.7943165 ], [ 115.0295166, -33.7942994 ], [ 115.029537, -33.7943127 ], [ 115.029553, -33.7942956 ], [ 115.0295939, -33.7943222 ], [ 115.0296098, -33.7943051 ], [ 115.0296711, -33.794345 ], [ 115.0296871, -33.7943279 ], [ 115.0297075, -33.7943412 ], [ 115.0297234, -33.7943241 ], [ 115.0298387, -33.7943991 ], [ 115.0298465, -33.7943767 ], [ 115.0298416, -33.7943735 ], [ 115.0298512, -33.7943632 ], [ 115.0298621, -33.794332 ], [ 115.029853, -33.7943261 ], [ 115.0298689, -33.794309 ], [ 115.0298485, -33.7942957 ], [ 115.0298905, -33.7942506 ], [ 115.0299011, -33.7942202 ], [ 115.0298917, -33.7942141 ], [ 115.0299076, -33.794197 ], [ 115.0298871, -33.7941838 ], [ 115.029919, -33.7941496 ], [ 115.0298985, -33.7941363 ], [ 115.0299144, -33.7941192 ], [ 115.029894, -33.7941059 ], [ 115.0299099, -33.7940889 ], [ 115.0299304, -33.7941022 ], [ 115.0299463, -33.7940851 ], [ 115.0299258, -33.7940718 ], [ 115.029969, -33.7940255 ], [ 115.0299713, -33.7940191 ] ], [ [ 115.0297668, -33.7939958 ], [ 115.0298281, -33.7940357 ], [ 115.0297963, -33.7940699 ], [ 115.0297758, -33.7940566 ], [ 115.0297917, -33.7940395 ], [ 115.0297508, -33.7940129 ], [ 115.0297668, -33.7939958 ] ], [ [ 115.0298145, -33.7939446 ], [ 115.0298304, -33.7939275 ], [ 115.0298509, -33.7939408 ], [ 115.029835, -33.7939579 ], [ 115.0298145, -33.7939446 ] ], [ [ 115.0294895, -33.7938705 ], [ 115.0295509, -33.7939104 ], [ 115.0295349, -33.7939275 ], [ 115.029494, -33.7939009 ], [ 115.0294781, -33.7939179 ], [ 115.0294372, -33.7938914 ], [ 115.0294531, -33.7938743 ], [ 115.0294736, -33.7938876 ], [ 115.0294895, -33.7938705 ] ], [ [ 115.0296689, -33.7942065 ], [ 115.0296894, -33.7942197 ], [ 115.0296735, -33.7942368 ], [ 115.029653, -33.7942235 ], [ 115.0296689, -33.7942065 ] ], [ [ 115.0298599, -33.7940016 ], [ 115.029844, -33.7940186 ], [ 115.0298236, -33.7940053 ], [ 115.0298395, -33.7939883 ], [ 115.0298599, -33.7940016 ] ], [ [ 115.0296327, -33.7939635 ], [ 115.0296531, -33.7939768 ], [ 115.0296372, -33.7939939 ], [ 115.0296167, -33.7939806 ], [ 115.0296327, -33.7939635 ] ], [ [ 115.0297031, -33.7940641 ], [ 115.029719, -33.7940471 ], [ 115.0297395, -33.7940604 ], [ 115.0297235, -33.7940774 ], [ 115.0297031, -33.7940641 ] ], [ [ 115.0298645, -33.7940319 ], [ 115.0298804, -33.7940149 ], [ 115.0299008, -33.7940281 ], [ 115.0298849, -33.7940452 ], [ 115.0298645, -33.7940319 ] ], [ [ 115.0294214, -33.7936617 ], [ 115.0294419, -33.793675 ], [ 115.0294259, -33.7936921 ], [ 115.0294055, -33.7936788 ], [ 115.0294214, -33.7936617 ] ], [ [ 115.0298576, -33.7941097 ], [ 115.0298417, -33.7941268 ], [ 115.0298622, -33.7941401 ], [ 115.0298462, -33.7941572 ], [ 115.0298053, -33.7941306 ], [ 115.0298213, -33.7941135 ], [ 115.0298008, -33.7941002 ], [ 115.0298326, -33.7940661 ], [ 115.0298531, -33.7940794 ], [ 115.0298372, -33.7940964 ], [ 115.0298576, -33.7941097 ] ], [ [ 115.0298576, -33.7941097 ], [ 115.0298735, -33.7940927 ], [ 115.029894, -33.7941059 ], [ 115.0298781, -33.794123 ], [ 115.0298576, -33.7941097 ] ], [ [ 115.0296963, -33.7938952 ], [ 115.029819, -33.793975 ], [ 115.0298031, -33.7939921 ], [ 115.0297622, -33.7939655 ], [ 115.0297145, -33.7940167 ], [ 115.029694, -33.7940034 ], [ 115.0297099, -33.7939863 ], [ 115.0296895, -33.793973 ], [ 115.0297054, -33.793956 ], [ 115.0297259, -33.7939693 ], [ 115.0297418, -33.7939522 ], [ 115.0296804, -33.7939123 ], [ 115.0296963, -33.7938952 ] ], [ [ 115.0296623, -33.7937909 ], [ 115.0296305, -33.793825 ], [ 115.0295691, -33.7937851 ], [ 115.029585, -33.7937681 ], [ 115.0296259, -33.7937946 ], [ 115.0296418, -33.7937776 ], [ 115.0296623, -33.7937909 ] ] ], [ [ [ 115.029401, -33.7936484 ], [ 115.0294169, -33.7936314 ], [ 115.0293964, -33.7936181 ], [ 115.0293805, -33.7936352 ], [ 115.029401, -33.7936484 ] ] ], [ [ [ 115.0291166, -33.7940943 ], [ 115.0291326, -33.7940772 ], [ 115.0291121, -33.794064 ], [ 115.029128, -33.7940469 ], [ 115.0291076, -33.7940336 ], [ 115.0291235, -33.7940165 ], [ 115.0291031, -33.7940032 ], [ 115.0290871, -33.7940203 ], [ 115.0290667, -33.794007 ], [ 115.0290348, -33.7940412 ], [ 115.0290144, -33.7940279 ], [ 115.0289985, -33.7940449 ], [ 115.0290803, -33.7940981 ], [ 115.0290644, -33.7941152 ], [ 115.0291257, -33.794155 ], [ 115.0291098, -33.7941721 ], [ 115.0291302, -33.7941854 ], [ 115.0291462, -33.7941683 ], [ 115.0291666, -33.7941816 ], [ 115.0291825, -33.7941646 ], [ 115.0291621, -33.7941513 ], [ 115.029178, -33.7941342 ], [ 115.0291166, -33.7940943 ] ] ], [ [ [ 115.0287484, -33.7939257 ], [ 115.0287258, -33.79395 ], [ 115.0288485, -33.7940297 ], [ 115.0288644, -33.7940126 ], [ 115.0288848, -33.7940259 ], [ 115.0289008, -33.7940089 ], [ 115.0289212, -33.7940221 ], [ 115.028953, -33.793988 ], [ 115.0289326, -33.7939747 ], [ 115.0289485, -33.7939576 ], [ 115.0288463, -33.7938912 ], [ 115.0288303, -33.7939083 ], [ 115.028811, -33.7938957 ], [ 115.0288078, -33.7938972 ], [ 115.028794, -33.793912 ], [ 115.0287867, -33.7939073 ], [ 115.0287484, -33.7939257 ] ] ], [ [ [ 115.0297997, -33.7945108 ], [ 115.029787, -33.7945025 ], [ 115.0297552, -33.7945367 ], [ 115.0297756, -33.79455 ], [ 115.0297923, -33.794532 ], [ 115.0297997, -33.7945108 ] ] ], [ [ [ 115.0297763, -33.7945779 ], [ 115.0297597, -33.7945671 ], [ 115.029696, -33.7946353 ], [ 115.0296756, -33.7946221 ], [ 115.0296596, -33.7946391 ], [ 115.0296801, -33.7946524 ], [ 115.0296642, -33.7946695 ], [ 115.0296846, -33.7946828 ], [ 115.0296369, -33.794734 ], [ 115.0296164, -33.7947207 ], [ 115.0296005, -33.7947378 ], [ 115.0295801, -33.7947245 ], [ 115.0295641, -33.7947416 ], [ 115.0295437, -33.7947283 ], [ 115.0295278, -33.7947454 ], [ 115.0295073, -33.7947321 ], [ 115.0294755, -33.7947662 ], [ 115.0295368, -33.7948061 ], [ 115.0295209, -33.7948232 ], [ 115.0296436, -33.7949029 ], [ 115.0296745, -33.7948697 ], [ 115.0296828, -33.7948461 ], [ 115.0296709, -33.7948384 ], [ 115.0296942, -33.7948135 ], [ 115.0296984, -33.7948014 ], [ 115.0296619, -33.7947777 ], [ 115.0296937, -33.7947435 ], [ 115.029714, -33.7947567 ], [ 115.0297218, -33.7947343 ], [ 115.0297096, -33.7947264 ], [ 115.0297334, -33.7947009 ], [ 115.0297452, -33.7946673 ], [ 115.0297369, -33.7946619 ], [ 115.0297531, -33.7946446 ], [ 115.0297607, -33.7946226 ], [ 115.0297483, -33.7946145 ], [ 115.0297727, -33.7945883 ], [ 115.0297763, -33.7945779 ] ] ], [ [ [ 115.0282284, -33.7941751 ], [ 115.0282438, -33.7941851 ], [ 115.0282279, -33.7942022 ], [ 115.0282483, -33.7942155 ], [ 115.0282324, -33.7942326 ], [ 115.0282529, -33.7942459 ], [ 115.0282369, -33.7942629 ], [ 115.0282778, -33.7942895 ], [ 115.0282619, -33.7943066 ], [ 115.0283437, -33.7943598 ], [ 115.0283596, -33.7943427 ], [ 115.0283801, -33.794356 ], [ 115.028396, -33.7943389 ], [ 115.0284165, -33.7943522 ], [ 115.0284324, -33.7943351 ], [ 115.0284937, -33.794375 ], [ 115.0285096, -33.7943579 ], [ 115.0286324, -33.7944377 ], [ 115.0286164, -33.7944547 ], [ 115.0286573, -33.7944813 ], [ 115.0286414, -33.7944984 ], [ 115.0286619, -33.7945117 ], [ 115.0286778, -33.7944946 ], [ 115.0286982, -33.7945079 ], [ 115.0287301, -33.7944737 ], [ 115.0287505, -33.794487 ], [ 115.0287664, -33.79447 ], [ 115.0288278, -33.7945098 ], [ 115.0288596, -33.7944757 ], [ 115.0288801, -33.794489 ], [ 115.028896, -33.7944719 ], [ 115.0289369, -33.7944985 ], [ 115.0289528, -33.7944814 ], [ 115.0289733, -33.7944947 ], [ 115.0289892, -33.7944776 ], [ 115.0290096, -33.7944909 ], [ 115.0290256, -33.7944738 ], [ 115.0290665, -33.7945004 ], [ 115.0290824, -33.7944833 ], [ 115.0291846, -33.7945498 ], [ 115.0292801, -33.7944473 ], [ 115.0292597, -33.7944341 ], [ 115.0292915, -33.7943999 ], [ 115.0292711, -33.7943866 ], [ 115.029287, -33.7943695 ], [ 115.0292665, -33.7943563 ], [ 115.0292825, -33.7943392 ], [ 115.029262, -33.7943259 ], [ 115.0292461, -33.794343 ], [ 115.0292052, -33.7943164 ], [ 115.0291893, -33.7943335 ], [ 115.0291075, -33.7942803 ], [ 115.0290916, -33.7942974 ], [ 115.0290711, -33.7942841 ], [ 115.0290552, -33.7943012 ], [ 115.0290347, -33.7942879 ], [ 115.0290188, -33.7943049 ], [ 115.0289779, -33.7942784 ], [ 115.0289938, -33.7942613 ], [ 115.0289529, -33.7942347 ], [ 115.0289689, -33.7942176 ], [ 115.0289484, -33.7942043 ], [ 115.0289643, -33.7941873 ], [ 115.0289439, -33.794174 ], [ 115.0289757, -33.7941398 ], [ 115.0289553, -33.7941265 ], [ 115.0289712, -33.7941095 ], [ 115.0289303, -33.7940829 ], [ 115.0289144, -33.7940999 ], [ 115.0288939, -33.7940867 ], [ 115.0288621, -33.7941208 ], [ 115.0288416, -33.7941075 ], [ 115.0288257, -33.7941246 ], [ 115.0288052, -33.7941113 ], [ 115.0287893, -33.7941284 ], [ 115.0287484, -33.7941018 ], [ 115.0287325, -33.7941189 ], [ 115.0287121, -33.7941056 ], [ 115.0286802, -33.7941397 ], [ 115.0287007, -33.794153 ], [ 115.0286848, -33.7941701 ], [ 115.0287052, -33.7941834 ], [ 115.0286734, -33.7942175 ], [ 115.0286529, -33.7942042 ], [ 115.028637, -33.7942213 ], [ 115.0285961, -33.7941947 ], [ 115.028612, -33.7941777 ], [ 115.0285916, -33.7941644 ], [ 115.0286234, -33.7941302 ], [ 115.0285825, -33.7941036 ], [ 115.0286143, -33.7940695 ], [ 115.0285939, -33.7940562 ], [ 115.0286098, -33.7940391 ], [ 115.0285689, -33.7940125 ], [ 115.028553, -33.7940296 ], [ 115.028544, -33.7940238 ], [ 115.0285107, -33.7940397 ], [ 115.0285007, -33.7940505 ], [ 115.0284954, -33.7940471 ], [ 115.0283919, -33.7940967 ], [ 115.0283802, -33.7941093 ], [ 115.0283741, -33.7941053 ], [ 115.0283325, -33.7941252 ], [ 115.0283279, -33.7941301 ], [ 115.0283255, -33.7941286 ], [ 115.0282731, -33.7941537 ], [ 115.0282597, -33.7941681 ], [ 115.0282527, -33.7941635 ], [ 115.0282284, -33.7941751 ] ], [ [ 115.0284711, -33.7942232 ], [ 115.0285733, -33.7942896 ], [ 115.0285574, -33.7943067 ], [ 115.028537, -33.7942934 ], [ 115.028521, -33.7943105 ], [ 115.0284392, -33.7942573 ], [ 115.0284711, -33.7942232 ] ] ], [ [ [ 115.0293778, -33.7947301 ], [ 115.0293937, -33.7947131 ], [ 115.0293732, -33.7946998 ], [ 115.0293891, -33.7946827 ], [ 115.0293687, -33.7946694 ], [ 115.0294483, -33.794584 ], [ 115.0293869, -33.7945442 ], [ 115.029371, -33.7945612 ], [ 115.0293915, -33.7945745 ], [ 115.0293755, -33.7945916 ], [ 115.0293551, -33.7945783 ], [ 115.0293233, -33.7946125 ], [ 115.0293028, -33.7945992 ], [ 115.029255, -33.7946504 ], [ 115.0292755, -33.7946637 ], [ 115.0292596, -33.7946808 ], [ 115.02928, -33.794694 ], [ 115.0292482, -33.7947282 ], [ 115.0293709, -33.7948079 ], [ 115.0293868, -33.7947909 ], [ 115.0294073, -33.7948042 ], [ 115.0294391, -33.79477 ], [ 115.0293778, -33.7947301 ] ] ], [ [ [ 115.0288117, -33.7950203 ], [ 115.0288912, -33.7949349 ], [ 115.0288708, -33.7949216 ], [ 115.0289345, -33.7948533 ], [ 115.0289549, -33.7948666 ], [ 115.0289708, -33.7948496 ], [ 115.0289504, -33.7948363 ], [ 115.0289663, -33.7948192 ], [ 115.0289459, -33.7948059 ], [ 115.0289618, -33.7947888 ], [ 115.02888, -33.7947357 ], [ 115.0288959, -33.7947186 ], [ 115.028855, -33.794692 ], [ 115.0288391, -33.7947091 ], [ 115.0287368, -33.7946426 ], [ 115.0287209, -33.7946597 ], [ 115.0287004, -33.7946464 ], [ 115.0286845, -33.7946635 ], [ 115.0286641, -33.7946502 ], [ 115.0286322, -33.7946844 ], [ 115.0286527, -33.7946976 ], [ 115.0286368, -33.7947147 ], [ 115.0286572, -33.794728 ], [ 115.0286413, -33.7947451 ], [ 115.0286822, -33.7947717 ], [ 115.0286981, -33.7947546 ], [ 115.028739, -33.7947812 ], [ 115.0287231, -33.7947982 ], [ 115.0287436, -33.7948115 ], [ 115.0286799, -33.7948798 ], [ 115.0287208, -33.7949064 ], [ 115.0287049, -33.7949235 ], [ 115.0287253, -33.7949368 ], [ 115.0287094, -33.7949539 ], [ 115.0287298, -33.7949671 ], [ 115.0287139, -33.7949842 ], [ 115.0287548, -33.7950108 ], [ 115.0287708, -33.7949937 ], [ 115.0288117, -33.7950203 ] ] ], [ [ [ 115.0282278, -33.7944489 ], [ 115.0282437, -33.7944318 ], [ 115.0282232, -33.7944185 ], [ 115.0282073, -33.7944356 ], [ 115.0282278, -33.7944489 ] ] ], [ [ [ 115.0279686, -33.7944724 ], [ 115.0279732, -33.7944754 ], [ 115.0279891, -33.7944583 ], [ 115.02803, -33.7944849 ], [ 115.0280459, -33.7944678 ], [ 115.0280664, -33.7944811 ], [ 115.0280823, -33.794464 ], [ 115.0281027, -33.7944773 ], [ 115.0281187, -33.7944603 ], [ 115.0280982, -33.794447 ], [ 115.0281141, -33.7944299 ], [ 115.0280528, -33.79439 ], [ 115.0280209, -33.7944242 ], [ 115.0280005, -33.7944109 ], [ 115.02797, -33.7944436 ], [ 115.0279686, -33.7944724 ] ] ], [ [ [ 115.0294116, -33.7953279 ], [ 115.0293707, -33.7953013 ], [ 115.0293388, -33.7953355 ], [ 115.0293797, -33.7953621 ], [ 115.0294116, -33.7953279 ] ] ], [ [ [ 115.0293546, -33.7955651 ], [ 115.0292933, -33.7955253 ], [ 115.0292615, -33.7955594 ], [ 115.0292819, -33.7955727 ], [ 115.029266, -33.7955898 ], [ 115.0293069, -33.7956163 ], [ 115.0293228, -33.7955993 ], [ 115.0293433, -33.7956126 ], [ 115.0293592, -33.7955955 ], [ 115.0293387, -33.7955822 ], [ 115.0293546, -33.7955651 ] ] ], [ [ [ 115.0293787, -33.7957179 ], [ 115.0293773, -33.7957169 ], [ 115.0293614, -33.795734 ], [ 115.0293409, -33.7957207 ], [ 115.029325, -33.7957378 ], [ 115.0292841, -33.7957112 ], [ 115.0293, -33.7956941 ], [ 115.0292796, -33.7956809 ], [ 115.0292637, -33.7956979 ], [ 115.0292228, -33.7956714 ], [ 115.0291591, -33.7957396 ], [ 115.0291795, -33.7957529 ], [ 115.0291636, -33.79577 ], [ 115.029225, -33.7958099 ], [ 115.0292568, -33.7957757 ], [ 115.0292773, -33.795789 ], [ 115.0292932, -33.795772 ], [ 115.0293136, -33.7957852 ], [ 115.0293296, -33.7957682 ], [ 115.02935, -33.7957815 ], [ 115.0293341, -33.7957985 ], [ 115.0293653, -33.7958188 ], [ 115.0293676, -33.7957655 ], [ 115.0293659, -33.7957644 ], [ 115.0293677, -33.7957625 ], [ 115.0293684, -33.7957476 ], [ 115.0293787, -33.7957179 ] ] ], [ [ [ 115.029084, -33.7958554 ], [ 115.0291, -33.7958383 ], [ 115.0290795, -33.795825 ], [ 115.0290636, -33.7958421 ], [ 115.029084, -33.7958554 ] ] ], [ [ [ 115.0288537, -33.7968774 ], [ 115.0288654, -33.7968649 ], [ 115.0288449, -33.7968516 ], [ 115.0289086, -33.7967833 ], [ 115.0288881, -33.79677 ], [ 115.0289041, -33.7967529 ], [ 115.0289245, -33.7967662 ], [ 115.0289404, -33.7967492 ], [ 115.0289813, -33.7967757 ], [ 115.0289654, -33.7967928 ], [ 115.0289859, -33.7968061 ], [ 115.0289699, -33.7968232 ], [ 115.0290108, -33.7968498 ], [ 115.0290904, -33.7967644 ], [ 115.02907, -33.7967511 ], [ 115.0290859, -33.796734 ], [ 115.0290655, -33.7967207 ], [ 115.0290814, -33.7967037 ], [ 115.0290609, -33.7966904 ], [ 115.0290768, -33.7966733 ], [ 115.0290564, -33.79666 ], [ 115.0290723, -33.7966429 ], [ 115.0290519, -33.7966296 ], [ 115.0290359, -33.7966467 ], [ 115.0290155, -33.7966334 ], [ 115.0289996, -33.7966505 ], [ 115.0289587, -33.7966239 ], [ 115.0289746, -33.7966068 ], [ 115.0289541, -33.7965936 ], [ 115.028986, -33.7965594 ], [ 115.0290064, -33.7965727 ], [ 115.0290223, -33.7965556 ], [ 115.0290019, -33.7965423 ], [ 115.0290178, -33.7965253 ], [ 115.0289769, -33.7964987 ], [ 115.0289928, -33.7964816 ], [ 115.0289519, -33.796455 ], [ 115.028936, -33.7964721 ], [ 115.0288951, -33.7964455 ], [ 115.0288792, -33.7964626 ], [ 115.0287974, -33.7964094 ], [ 115.0288133, -33.7963924 ], [ 115.0287928, -33.7963791 ], [ 115.0288565, -33.7963108 ], [ 115.028877, -33.7963241 ], [ 115.0289566, -33.7962387 ], [ 115.028977, -33.796252 ], [ 115.0290089, -33.7962178 ], [ 115.0289884, -33.7962045 ], [ 115.0290043, -33.7961875 ], [ 115.0289634, -33.7961609 ], [ 115.0289793, -33.7961438 ], [ 115.0289384, -33.7961172 ], [ 115.0289544, -33.7961002 ], [ 115.0289135, -33.7960736 ], [ 115.0289294, -33.7960565 ], [ 115.0288885, -33.7960299 ], [ 115.0289044, -33.7960128 ], [ 115.0288839, -33.7959995 ], [ 115.028868, -33.7960166 ], [ 115.0288271, -33.79599 ], [ 115.0288112, -33.7960071 ], [ 115.0287294, -33.795954 ], [ 115.0286976, -33.7959881 ], [ 115.028718, -33.7960014 ], [ 115.0287021, -33.7960185 ], [ 115.0287225, -33.7960318 ], [ 115.0287066, -33.7960488 ], [ 115.0287271, -33.7960621 ], [ 115.0286952, -33.7960963 ], [ 115.028777, -33.7961494 ], [ 115.028793, -33.7961324 ], [ 115.0288543, -33.7961722 ], [ 115.0288384, -33.7961893 ], [ 115.0288588, -33.7962026 ], [ 115.0288111, -33.7962538 ], [ 115.0287906, -33.7962405 ], [ 115.0287747, -33.7962576 ], [ 115.0287543, -33.7962443 ], [ 115.0287384, -33.7962614 ], [ 115.0287179, -33.7962481 ], [ 115.0286701, -33.7962993 ], [ 115.0286906, -33.7963126 ], [ 115.0286747, -33.7963297 ], [ 115.0286951, -33.796343 ], [ 115.0286792, -33.79636 ], [ 115.0286997, -33.7963733 ], [ 115.0286678, -33.7964075 ], [ 115.0286883, -33.7964208 ], [ 115.0286405, -33.796472 ], [ 115.0286201, -33.7964587 ], [ 115.0286041, -33.7964758 ], [ 115.0285223, -33.7964226 ], [ 115.0285064, -33.7964397 ], [ 115.028486, -33.7964264 ], [ 115.0284541, -33.7964606 ], [ 115.0284746, -33.7964738 ], [ 115.0284587, -33.7964909 ], [ 115.0284996, -33.7965175 ], [ 115.0284836, -33.7965346 ], [ 115.0285246, -33.7965612 ], [ 115.0285086, -33.7965782 ], [ 115.0286109, -33.7966447 ], [ 115.0286268, -33.7966276 ], [ 115.0286677, -33.7966542 ], [ 115.0286836, -33.7966371 ], [ 115.0288063, -33.7967169 ], [ 115.0288223, -33.7966998 ], [ 115.0288632, -33.7967264 ], [ 115.0288472, -33.7967434 ], [ 115.0288677, -33.7967567 ], [ 115.0288199, -33.796808 ], [ 115.0287995, -33.7967947 ], [ 115.0287836, -33.7968117 ], [ 115.0287427, -33.7967852 ], [ 115.0287267, -33.7968022 ], [ 115.0285631, -33.7966959 ], [ 115.02852, -33.7967421 ], [ 115.0287359, -33.7968811 ], [ 115.0287861, -33.7968795 ], [ 115.0287926, -33.7968725 ], [ 115.0288027, -33.796879 ], [ 115.0288199, -33.7968784 ], [ 115.028829, -33.7968687 ], [ 115.0288429, -33.7968777 ], [ 115.0288537, -33.7968774 ] ] ], [ [ [ 115.0290338, -33.7962615 ], [ 115.0289383, -33.7963639 ], [ 115.0289997, -33.7964038 ], [ 115.0290793, -33.7963184 ], [ 115.0290588, -33.7963051 ], [ 115.0290747, -33.7962881 ], [ 115.0290338, -33.7962615 ] ] ], [ [ [ 115.0293369, -33.7964859 ], [ 115.0293378, -33.7964638 ], [ 115.0293247, -33.7964779 ], [ 115.0293369, -33.7964859 ] ] ], [ [ [ 115.0292474, -33.7964551 ], [ 115.0292679, -33.7964684 ], [ 115.0292838, -33.7964513 ], [ 115.0292224, -33.7964115 ], [ 115.0291906, -33.7964456 ], [ 115.0292315, -33.7964722 ], [ 115.0292474, -33.7964551 ] ] ], [ [ [ 115.0293358, -33.7965125 ], [ 115.0293363, -33.7965007 ], [ 115.0293292, -33.7965083 ], [ 115.0293358, -33.7965125 ] ] ], [ [ [ 115.0290678, -33.7966126 ], [ 115.0290996, -33.7965784 ], [ 115.0290792, -33.7965651 ], [ 115.0290473, -33.7965993 ], [ 115.0290678, -33.7966126 ] ] ] ] } },
{ "type": "Feature", "properties": { "appName": "Brookland Valley 18 Feb 26", "rate": 2.0, "rateInt": 2, "unit": "l/ha", "zone": 2 }, "geometry": { "type": "MultiPolygon", "coordinates": [ [ [ [ 115.0290537, -33.7937792 ], [ 115.0290713, -33.7937907 ], [ 115.0290872, -33.7937736 ], [ 115.029078, -33.7937676 ], [ 115.0290537, -33.7937792 ] ] ], [ [ [ 115.0296594, -33.7949132 ], [ 115.0295209, -33.7948232 ], [ 115.0295368, -33.7948061 ], [ 115.0294755, -33.7947662 ], [ 115.0295073, -33.7947321 ], [ 115.0295278, -33.7947454 ], [ 115.0295437, -33.7947283 ], [ 115.0295641, -33.7947416 ], [ 115.0295801, -33.7947245 ], [ 115.0296005, -33.7947378 ], [ 115.0296164, -33.7947207 ], [ 115.0296369, -33.794734 ], [ 115.0296846, -33.7946828 ], [ 115.0296642, -33.7946695 ], [ 115.0296801, -33.7946524 ], [ 115.0296596, -33.7946391 ], [ 115.0296756, -33.7946221 ], [ 115.029696, -33.7946353 ], [ 115.0297756, -33.79455 ], [ 115.0297552, -33.7945367 ], [ 115.029812, -33.7944757 ], [ 115.0298231, -33.7944438 ], [ 115.0298143, -33.794438 ], [ 115.0298316, -33.7944195 ], [ 115.0298387, -33.7943991 ], [ 115.0297234, -33.7943241 ], [ 115.0297075, -33.7943412 ], [ 115.0296871, -33.7943279 ], [ 115.0296711, -33.794345 ], [ 115.0296098, -33.7943051 ], [ 115.0295939, -33.7943222 ], [ 115.029553, -33.7942956 ], [ 115.029537, -33.7943127 ], [ 115.0295166, -33.7942994 ], [ 115.0295007, -33.7943165 ], [ 115.0294802, -33.7943032 ], [ 115.0294643, -33.7943203 ], [ 115.0294234, -33.7942937 ], [ 115.0294075, -33.7943108 ], [ 115.029387, -33.7942975 ], [ 115.0293711, -33.7943145 ], [ 115.0293098, -33.7942747 ], [ 115.0293257, -33.7942576 ], [ 115.0293052, -33.7942443 ], [ 115.0293212, -33.7942272 ], [ 115.0293007, -33.7942139 ], [ 115.0293325, -33.7941798 ], [ 115.029353, -33.7941931 ], [ 115.0294007, -33.7941419 ], [ 115.0292167, -33.7940222 ], [ 115.0292326, -33.7940052 ], [ 115.0289668, -33.7938324 ], [ 115.0289827, -33.7938153 ], [ 115.0289809, -33.7938142 ], [ 115.0289266, -33.7938402 ], [ 115.0289145, -33.7938532 ], [ 115.0289081, -33.7938491 ], [ 115.0288672, -33.7938687 ], [ 115.0288622, -33.7938741 ], [ 115.0288595, -33.7938724 ], [ 115.028811, -33.7938957 ], [ 115.0288303, -33.7939083 ], [ 115.0288463, -33.7938912 ], [ 115.0289485, -33.7939576 ], [ 115.0289326, -33.7939747 ], [ 115.028953, -33.793988 ], [ 115.0289212, -33.7940221 ], [ 115.0289008, -33.7940089 ], [ 115.0288848, -33.7940259 ], [ 115.0288644, -33.7940126 ], [ 115.0288485, -33.7940297 ], [ 115.0287258, -33.79395 ], [ 115.0287417, -33.7939329 ], [ 115.0287382, -33.7939306 ], [ 115.0286295, -33.7939827 ], [ 115.0286212, -33.7939917 ], [ 115.0286168, -33.7939888 ], [ 115.0285701, -33.7940112 ], [ 115.0285689, -33.7940125 ], [ 115.0286098, -33.7940391 ], [ 115.0285939, -33.7940562 ], [ 115.0286143, -33.7940695 ], [ 115.0285825, -33.7941036 ], [ 115.0286234, -33.7941302 ], [ 115.0285916, -33.7941644 ], [ 115.028612, -33.7941777 ], [ 115.0285961, -33.7941947 ], [ 115.028637, -33.7942213 ], [ 115.0286529, -33.7942042 ], [ 115.0286734, -33.7942175 ], [ 115.0287052, -33.7941834 ], [ 115.0286848, -33.7941701 ], [ 115.0287007, -33.794153 ], [ 115.0286802, -33.7941397 ], [ 115.0287121, -33.7941056 ], [ 115.0287325, -33.7941189 ], [ 115.0287484, -33.7941018 ], [ 115.0287893, -33.7941284 ], [ 115.0288052, -33.7941113 ], [ 115.0288257, -33.7941246 ], [ 115.0288416, -33.7941075 ], [ 115.0288621, -33.7941208 ], [ 115.0288939, -33.7940867 ], [ 115.0289144, -33.7940999 ], [ 115.0289303, -33.7940829 ], [ 115.0289712, -33.7941095 ], [ 115.0289553, -33.7941265 ], [ 115.0289757, -33.7941398 ], [ 115.0289439, -33.794174 ], [ 115.0289643, -33.7941873 ], [ 115.0289484, -33.7942043 ], [ 115.0289689, -33.7942176 ], [ 115.0289529, -33.7942347 ], [ 115.0289938, -33.7942613 ], [ 115.0289779, -33.7942784 ], [ 115.0290188, -33.7943049 ], [ 115.0290347, -33.7942879 ], [ 115.0290552, -33.7943012 ], [ 115.0290711, -33.7942841 ], [ 115.0290916, -33.7942974 ], [ 115.0291075, -33.7942803 ], [ 115.0291893, -33.7943335 ], [ 115.0292052, -33.7943164 ], [ 115.0292461, -33.794343 ], [ 115.029262, -33.7943259 ], [ 115.0292825, -33.7943392 ], [ 115.0292665, -33.7943563 ], [ 115.029287, -33.7943695 ], [ 115.0292711, -33.7943866 ], [ 115.0292915, -33.7943999 ], [ 115.0292597, -33.7944341 ], [ 115.0292801, -33.7944473 ], [ 115.0291846, -33.7945498 ], [ 115.0290824, -33.7944833 ], [ 115.0290665, -33.7945004 ], [ 115.0290256, -33.7944738 ], [ 115.0290096, -33.7944909 ], [ 115.0289892, -33.7944776 ], [ 115.0289733, -33.7944947 ], [ 115.0289528, -33.7944814 ], [ 115.0289369, -33.7944985 ], [ 115.028896, -33.7944719 ], [ 115.0288801, -33.794489 ], [ 115.0288596, -33.7944757 ], [ 115.0288278, -33.7945098 ], [ 115.0287664, -33.79447 ], [ 115.0287505, -33.794487 ], [ 115.0287301, -33.7944737 ], [ 115.0286982, -33.7945079 ], [ 115.0286778, -33.7944946 ], [ 115.0286619, -33.7945117 ], [ 115.0286414, -33.7944984 ], [ 115.0286573, -33.7944813 ], [ 115.0286164, -33.7944547 ], [ 115.0286324, -33.7944377 ], [ 115.0285096, -33.7943579 ], [ 115.0284937, -33.794375 ], [ 115.0284324, -33.7943351 ], [ 115.0284165, -33.7943522 ], [ 115.028396, -33.7943389 ], [ 115.0283801, -33.794356 ], [ 115.0283596, -33.7943427 ], [ 115.0283437, -33.7943598 ], [ 115.0282619, -33.7943066 ], [ 115.0282778, -33.7942895 ], [ 115.0282369, -33.7942629 ], [ 115.0282529, -33.7942459 ], [ 115.0282324, -33.7942326 ], [ 115.0282483, -33.7942155 ], [ 115.0282279, -33.7942022 ], [ 115.0282438, -33.7941851 ], [ 115.0282284, -33.7941751 ], [ 115.0282137, -33.7941822 ], [ 115.0282074, -33.7941889 ], [ 115.0282041, -33.7941868 ], [ 115.0281543, -33.7942107 ], [ 115.0281392, -33.7942268 ], [ 115.0281313, -33.7942217 ], [ 115.0280948, -33.7942392 ], [ 115.0280869, -33.7942477 ], [ 115.0280828, -33.794245 ], [ 115.0280354, -33.7942677 ], [ 115.0280346, -33.7942686 ], [ 115.0280342, -33.7942683 ], [ 115.0279857, -33.7942916 ], [ 115.0280028, -33.7943027 ], [ 115.0279755, -33.794332 ], [ 115.0279738, -33.7943661 ], [ 115.0279755, -33.7943672 ], [ 115.0279737, -33.7943692 ], [ 115.0279725, -33.7943927 ], [ 115.02798, -33.7943976 ], [ 115.0279718, -33.7944064 ], [ 115.0279712, -33.7944193 ], [ 115.0279846, -33.794428 ], [ 115.0280005, -33.7944109 ], [ 115.0280209, -33.7944242 ], [ 115.0280528, -33.79439 ], [ 115.0281141, -33.7944299 ], [ 115.0280982, -33.794447 ], [ 115.0281187, -33.7944603 ], [ 115.0281027, -33.7944773 ], [ 115.0280823, -33.794464 ], [ 115.0280664, -33.7944811 ], [ 115.0280459, -33.7944678 ], [ 115.02803, -33.7944849 ], [ 115.0279891, -33.7944583 ], [ 115.0279682, -33.7944808 ], [ 115.0279673, -33.794499 ], [ 115.0279777, -33.7945058 ], [ 115.0279663, -33.794518 ], [ 115.0279659, -33.7945255 ], [ 115.0279822, -33.7945361 ], [ 115.0279982, -33.7945191 ], [ 115.0280186, -33.7945323 ], [ 115.0280345, -33.7945153 ], [ 115.0281163, -33.7945684 ], [ 115.0281004, -33.7945855 ], [ 115.0281209, -33.7945988 ], [ 115.0281368, -33.7945817 ], [ 115.0281572, -33.794595 ], [ 115.0281731, -33.7945779 ], [ 115.0282141, -33.7946045 ], [ 115.02823, -33.7945874 ], [ 115.0285163, -33.7947735 ], [ 115.0285322, -33.7947564 ], [ 115.0285526, -33.7947697 ], [ 115.0285686, -33.7947527 ], [ 115.0286299, -33.7947925 ], [ 115.028614, -33.7948096 ], [ 115.0286344, -33.7948229 ], [ 115.0285867, -33.7948741 ], [ 115.0285662, -33.7948608 ], [ 115.0285344, -33.794895 ], [ 115.028514, -33.7948817 ], [ 115.028498, -33.7948988 ], [ 115.0285185, -33.794912 ], [ 115.0285026, -33.7949291 ], [ 115.028523, -33.7949424 ], [ 115.0285071, -33.7949595 ], [ 115.0285276, -33.7949728 ], [ 115.0285116, -33.7949898 ], [ 115.0285525, -33.7950164 ], [ 115.0285685, -33.7949994 ], [ 115.0285889, -33.7950126 ], [ 115.0286048, -33.7949956 ], [ 115.0286253, -33.7950089 ], [ 115.0286412, -33.7949918 ], [ 115.0287025, -33.7950317 ], [ 115.0286866, -33.7950487 ], [ 115.0288093, -33.7951285 ], [ 115.0288252, -33.7951114 ], [ 115.0289275, -33.7951779 ], [ 115.0289116, -33.7951949 ], [ 115.0289525, -33.7952215 ], [ 115.0289366, -33.7952386 ], [ 115.0289775, -33.7952652 ], [ 115.0289615, -33.7952822 ], [ 115.0290025, -33.7953088 ], [ 115.0289865, -33.7953259 ], [ 115.029007, -33.7953392 ], [ 115.0289751, -33.7953733 ], [ 115.0289342, -33.7953468 ], [ 115.0289024, -33.7953809 ], [ 115.0289229, -33.7953942 ], [ 115.028891, -33.7954283 ], [ 115.0289524, -33.7954682 ], [ 115.0289842, -33.7954341 ], [ 115.0289638, -33.7954208 ], [ 115.0289797, -33.7954037 ], [ 115.0290001, -33.795417 ], [ 115.029016, -33.7953999 ], [ 115.0290365, -33.7954132 ], [ 115.0290206, -33.7954303 ], [ 115.0291024, -33.7954834 ], [ 115.0290865, -33.7955005 ], [ 115.0291887, -33.795567 ], [ 115.029125, -33.7956353 ], [ 115.0291455, -33.7956486 ], [ 115.0290977, -33.7956998 ], [ 115.0291182, -33.7957131 ], [ 115.0290704, -33.7957643 ], [ 115.02905, -33.795751 ], [ 115.0290341, -33.7957681 ], [ 115.0290136, -33.7957548 ], [ 115.0289977, -33.7957719 ], [ 115.0289772, -33.7957586 ], [ 115.0289613, -33.7957756 ], [ 115.0289818, -33.7957889 ], [ 115.0289659, -33.795806 ], [ 115.0289863, -33.7958193 ], [ 115.0289704, -33.7958364 ], [ 115.0289908, -33.7958497 ], [ 115.0289749, -33.7958667 ], [ 115.0291385, -33.7959731 ], [ 115.0291545, -33.795956 ], [ 115.0291749, -33.7959693 ], [ 115.0291908, -33.7959522 ], [ 115.0292317, -33.7959788 ], [ 115.0292476, -33.7959617 ], [ 115.0292681, -33.795975 ], [ 115.029284, -33.7959579 ], [ 115.0293454, -33.7959978 ], [ 115.0293294, -33.7960149 ], [ 115.0293499, -33.7960282 ], [ 115.0293021, -33.7960794 ], [ 115.0293226, -33.7960927 ], [ 115.0293067, -33.7961097 ], [ 115.0292453, -33.7960699 ], [ 115.0292612, -33.7960528 ], [ 115.0292408, -33.7960395 ], [ 115.0292567, -33.7960224 ], [ 115.0292158, -33.7959959 ], [ 115.0291521, -33.7960642 ], [ 115.0291726, -33.7960774 ], [ 115.0291567, -33.7960945 ], [ 115.0291771, -33.7961078 ], [ 115.0291612, -33.7961249 ], [ 115.0292021, -33.7961515 ], [ 115.0291862, -33.7961685 ], [ 115.0292475, -33.7962084 ], [ 115.0292316, -33.7962255 ], [ 115.0292725, -33.7962521 ], [ 115.0292566, -33.7962691 ], [ 115.029277, -33.7962824 ], [ 115.0291656, -33.796402 ], [ 115.0291452, -33.7963887 ], [ 115.0291292, -33.7964057 ], [ 115.0291088, -33.7963924 ], [ 115.0291247, -33.7963754 ], [ 115.0291043, -33.7963621 ], [ 115.0291361, -33.7963279 ], [ 115.0291156, -33.7963146 ], [ 115.0291475, -33.7962805 ], [ 115.029127, -33.7962672 ], [ 115.029143, -33.7962501 ], [ 115.0290611, -33.796197 ], [ 115.0290771, -33.7961799 ], [ 115.0290157, -33.79614 ], [ 115.0290316, -33.7961229 ], [ 115.0290112, -33.7961097 ], [ 115.0290271, -33.7960926 ], [ 115.0290066, -33.7960793 ], [ 115.0290226, -33.7960622 ], [ 115.0290021, -33.7960489 ], [ 115.029018, -33.7960319 ], [ 115.0289976, -33.7960186 ], [ 115.0290135, -33.7960015 ], [ 115.0289931, -33.7959882 ], [ 115.029009, -33.7959711 ], [ 115.0288249, -33.7958515 ], [ 115.028809, -33.7958686 ], [ 115.0287272, -33.7958154 ], [ 115.0287113, -33.7958325 ], [ 115.0286908, -33.7958192 ], [ 115.0286749, -33.7958363 ], [ 115.0286544, -33.795823 ], [ 115.0286385, -33.7958401 ], [ 115.028659, -33.7958534 ], [ 115.0286431, -33.7958704 ], [ 115.0286635, -33.7958837 ], [ 115.0286317, -33.7959179 ], [ 115.0286521, -33.7959312 ], [ 115.0286203, -33.7959653 ], [ 115.0286407, -33.7959786 ], [ 115.0286248, -33.7959957 ], [ 115.0286453, -33.796009 ], [ 115.0286134, -33.7960431 ], [ 115.0286339, -33.7960564 ], [ 115.028602, -33.7960906 ], [ 115.0286225, -33.7961038 ], [ 115.0286066, -33.7961209 ], [ 115.028627, -33.7961342 ], [ 115.0285474, -33.7962196 ], [ 115.0286088, -33.7962594 ], [ 115.0285929, -33.7962765 ], [ 115.0286133, -33.7962898 ], [ 115.0285974, -33.7963069 ], [ 115.0286179, -33.7963202 ], [ 115.028586, -33.7963543 ], [ 115.0285656, -33.796341 ], [ 115.0285496, -33.7963581 ], [ 115.0285292, -33.7963448 ], [ 115.0285133, -33.7963619 ], [ 115.0284928, -33.7963486 ], [ 115.0284769, -33.7963657 ], [ 115.0284565, -33.7963524 ], [ 115.0284405, -33.7963695 ], [ 115.0284201, -33.7963562 ], [ 115.0283882, -33.7963903 ], [ 115.0283678, -33.796377 ], [ 115.028336, -33.7964112 ], [ 115.0282746, -33.7963713 ], [ 115.0282604, -33.7963865 ], [ 115.028259, -33.796416 ], [ 115.0282837, -33.796432 ], [ 115.0282996, -33.796415 ], [ 115.0283405, -33.7964415 ], [ 115.0283246, -33.7964586 ], [ 115.0283655, -33.7964852 ], [ 115.0283496, -33.7965023 ], [ 115.0284518, -33.7965687 ], [ 115.0284359, -33.7965858 ], [ 115.0284972, -33.7966257 ], [ 115.0284813, -33.7966427 ], [ 115.0285018, -33.796656 ], [ 115.0284859, -33.7966731 ], [ 115.0285063, -33.7966864 ], [ 115.028479, -33.7967157 ], [ 115.02852, -33.7967421 ], [ 115.0285631, -33.7966959 ], [ 115.0287267, -33.7968022 ], [ 115.0287427, -33.7967852 ], [ 115.0287836, -33.7968117 ], [ 115.0287995, -33.7967947 ], [ 115.0288199, -33.796808 ], [ 115.0288677, -33.7967567 ], [ 115.0288472, -33.7967434 ], [ 115.0288632, -33.7967264 ], [ 115.0288223, -33.7966998 ], [ 115.0288063, -33.7967169 ], [ 115.0286836, -33.7966371 ], [ 115.0286677, -33.7966542 ], [ 115.0286268, -33.7966276 ], [ 115.0286109, -33.7966447 ], [ 115.0285086, -33.7965782 ], [ 115.0285246, -33.7965612 ], [ 115.0284836, -33.7965346 ], [ 115.0284996, -33.7965175 ], [ 115.0284587, -33.7964909 ], [ 115.0284746, -33.7964738 ], [ 115.0284541, -33.7964606 ], [ 115.028486, -33.7964264 ], [ 115.0285064, -33.7964397 ], [ 115.0285223, -33.7964226 ], [ 115.0286041, -33.7964758 ], [ 115.0286201, -33.7964587 ], [ 115.0286405, -33.796472 ], [ 115.0286883, -33.7964208 ], [ 115.0286678, -33.7964075 ], [ 115.0286997, -33.7963733 ], [ 115.0286792, -33.79636 ], [ 115.0286951, -33.796343 ], [ 115.0286747, -33.7963297 ], [ 115.0286906, -33.7963126 ], [ 115.0286701, -33.7962993 ], [ 115.0287179, -33.7962481 ], [ 115.0287384, -33.7962614 ], [ 115.0287543, -33.7962443 ], [ 115.0287747, -33.7962576 ], [ 115.0287906, -33.7962405 ], [ 115.0288111, -33.7962538 ], [ 115.0288588, -33.7962026 ], [ 115.0288384, -33.7961893 ], [ 115.0288543, -33.7961722 ], [ 115.028793, -33.7961324 ], [ 115.028777, -33.7961494 ], [ 115.0286952, -33.7960963 ], [ 115.0287271, -33.7960621 ], [ 115.0287066, -33.7960488 ], [ 115.0287225, -33.7960318 ], [ 115.0287021, -33.7960185 ], [ 115.028718, -33.7960014 ], [ 115.0286976, -33.7959881 ], [ 115.0287294, -33.795954 ], [ 115.0288112, -33.7960071 ], [ 115.0288271, -33.79599 ], [ 115.028868, -33.7960166 ], [ 115.0288839, -33.7959995 ], [ 115.0289044, -33.7960128 ], [ 115.0288885, -33.7960299 ], [ 115.0289294, -33.7960565 ], [ 115.0289135, -33.7960736 ], [ 115.0289544, -33.7961002 ], [ 115.0289384, -33.7961172 ], [ 115.0289793, -33.7961438 ], [ 115.0289634, -33.7961609 ], [ 115.0290043, -33.7961875 ], [ 115.0289884, -33.7962045 ], [ 115.0290089, -33.7962178 ], [ 115.028977, -33.796252 ], [ 115.0289566, -33.7962387 ], [ 115.028877, -33.7963241 ], [ 115.0288565, -33.7963108 ], [ 115.0287928, -33.7963791 ], [ 115.0288133, -33.7963924 ], [ 115.0287974, -33.7964094 ], [ 115.0288792, -33.7964626 ], [ 115.0288951, -33.7964455 ], [ 115.028936, -33.7964721 ], [ 115.0289519, -33.796455 ], [ 115.0289928, -33.7964816 ], [ 115.0289769, -33.7964987 ], [ 115.0290178, -33.7965253 ], [ 115.0290019, -33.7965423 ], [ 115.0290223, -33.7965556 ], [ 115.0290064, -33.7965727 ], [ 115.028986, -33.7965594 ], [ 115.0289541, -33.7965936 ], [ 115.0289746, -33.7966068 ], [ 115.0289587, -33.7966239 ], [ 115.0289996, -33.7966505 ], [ 115.0290155, -33.7966334 ], [ 115.0290359, -33.7966467 ], [ 115.0290519, -33.7966296 ], [ 115.0290723, -33.7966429 ], [ 115.0290564, -33.79666 ], [ 115.0290768, -33.7966733 ], [ 115.0290609, -33.7966904 ], [ 115.0290814, -33.7967037 ], [ 115.0290655, -33.7967207 ], [ 115.0290859, -33.796734 ], [ 115.02907, -33.7967511 ], [ 115.0290904, -33.7967644 ], [ 115.0290108, -33.7968498 ], [ 115.0289699, -33.7968232 ], [ 115.0289859, -33.7968061 ], [ 115.0289654, -33.7967928 ], [ 115.0289813, -33.7967757 ], [ 115.0289404, -33.7967492 ], [ 115.0289245, -33.7967662 ], [ 115.0289041, -33.7967529 ], [ 115.0288881, -33.79677 ], [ 115.0289086, -33.7967833 ], [ 115.0288449, -33.7968516 ], [ 115.0288983, -33.7968863 ], [ 115.0289307, -33.7968978 ], [ 115.0289338, -33.7968972 ], [ 115.0289426, -33.7968877 ], [ 115.0289513, -33.7968933 ], [ 115.0289751, -33.7968881 ], [ 115.028979, -33.7968839 ], [ 115.0289829, -33.7968864 ], [ 115.0290576, -33.7968701 ], [ 115.0290677, -33.7968593 ], [ 115.0290776, -33.7968657 ], [ 115.0290988, -33.7968611 ], [ 115.029104, -33.7968555 ], [ 115.0291092, -33.7968588 ], [ 115.0291401, -33.796852 ], [ 115.0291404, -33.7968517 ], [ 115.0291407, -33.7968519 ], [ 115.0292226, -33.796834 ], [ 115.0292609, -33.7967929 ], [ 115.0292814, -33.7968062 ], [ 115.0292654, -33.7968233 ], [ 115.029267, -33.7968243 ], [ 115.029323, -33.796812 ], [ 115.0293346, -33.7965392 ], [ 115.0293338, -33.7965386 ], [ 115.0293347, -33.7965376 ], [ 115.0293358, -33.7965125 ], [ 115.0293292, -33.7965083 ], [ 115.0293363, -33.7965007 ], [ 115.0293369, -33.7964859 ], [ 115.0293247, -33.7964779 ], [ 115.0293378, -33.7964638 ], [ 115.0293392, -33.7964325 ], [ 115.0293361, -33.7964305 ], [ 115.0293394, -33.7964269 ], [ 115.0293403, -33.7964058 ], [ 115.0293315, -33.7964001 ], [ 115.029341, -33.79639 ], [ 115.0293471, -33.7962457 ], [ 115.0293453, -33.7962445 ], [ 115.0293473, -33.7962423 ], [ 115.0293517, -33.796139 ], [ 115.0293476, -33.7961363 ], [ 115.029352, -33.7961316 ], [ 115.0293551, -33.796059 ], [ 115.0293544, -33.7960585 ], [ 115.0293551, -33.7960578 ], [ 115.0293608, -33.7959256 ], [ 115.0293522, -33.79592 ], [ 115.0293614, -33.7959101 ], [ 115.0293642, -33.7958455 ], [ 115.0293591, -33.7958422 ], [ 115.0293646, -33.7958363 ], [ 115.0293653, -33.7958188 ], [ 115.0293341, -33.7957985 ], [ 115.02935, -33.7957815 ], [ 115.0293296, -33.7957682 ], [ 115.0293136, -33.7957852 ], [ 115.0292932, -33.795772 ], [ 115.0292773, -33.795789 ], [ 115.0292568, -33.7957757 ], [ 115.029225, -33.7958099 ], [ 115.0291636, -33.79577 ], [ 115.0291795, -33.7957529 ], [ 115.0291591, -33.7957396 ], [ 115.0292228, -33.7956714 ], [ 115.0292637, -33.7956979 ], [ 115.0292796, -33.7956809 ], [ 115.0293, -33.7956941 ], [ 115.0292841, -33.7957112 ], [ 115.029325, -33.7957378 ], [ 115.0293409, -33.7957207 ], [ 115.0293614, -33.795734 ], [ 115.0293801, -33.795714 ], [ 115.0293943, -33.7956732 ], [ 115.0293887, -33.7956695 ], [ 115.0293997, -33.7956577 ], [ 115.0294099, -33.7956284 ], [ 115.0294001, -33.7956221 ], [ 115.0294193, -33.7956014 ], [ 115.0294333, -33.7955614 ], [ 115.0294274, -33.7955576 ], [ 115.029439, -33.7955451 ], [ 115.0294489, -33.7955167 ], [ 115.0294388, -33.7955101 ], [ 115.0294586, -33.7954889 ], [ 115.0294723, -33.7954496 ], [ 115.0294661, -33.7954456 ], [ 115.0294782, -33.7954326 ], [ 115.0294879, -33.7954049 ], [ 115.0294775, -33.7953982 ], [ 115.0294979, -33.7953763 ], [ 115.0295113, -33.7953379 ], [ 115.0295048, -33.7953336 ], [ 115.0295175, -33.79532 ], [ 115.0295269, -33.7952932 ], [ 115.0295162, -33.7952862 ], [ 115.0295371, -33.7952637 ], [ 115.0295424, -33.7952485 ], [ 115.0295275, -33.7952388 ], [ 115.0295568, -33.7952074 ], [ 115.0295658, -33.7951814 ], [ 115.0295548, -33.7951743 ], [ 115.0295764, -33.7951512 ], [ 115.0295814, -33.7951367 ], [ 115.0295662, -33.7951268 ], [ 115.029596, -33.7950949 ], [ 115.0296048, -33.7950696 ], [ 115.0295935, -33.7950623 ], [ 115.0296156, -33.7950386 ], [ 115.0296282, -33.7950026 ], [ 115.0296208, -33.7949978 ], [ 115.0296353, -33.7949823 ], [ 115.0296438, -33.7949579 ], [ 115.0296322, -33.7949503 ], [ 115.0296549, -33.794926 ], [ 115.0296594, -33.7949132 ] ], [ [ 115.0292315, -33.7964722 ], [ 115.0291906, -33.7964456 ], [ 115.0292224, -33.7964115 ], [ 115.0292838, -33.7964513 ], [ 115.0292679, -33.7964684 ], [ 115.0292474, -33.7964551 ], [ 115.0292315, -33.7964722 ] ], [ [ 115.0286322, -33.7946844 ], [ 115.0286641, -33.7946502 ], [ 115.0286845, -33.7946635 ], [ 115.0287004, -33.7946464 ], [ 115.0287209, -33.7946597 ], [ 115.0287368, -33.7946426 ], [ 115.0288391, -33.7947091 ], [ 115.028855, -33.794692 ], [ 115.0288959, -33.7947186 ], [ 115.02888, -33.7947357 ], [ 115.0289618, -33.7947888 ], [ 115.0289459, -33.7948059 ], [ 115.0289663, -33.7948192 ], [ 115.0289504, -33.7948363 ], [ 115.0289708, -33.7948496 ], [ 115.0289549, -33.7948666 ], [ 115.0289345, -33.7948533 ], [ 115.0288708, -33.7949216 ], [ 115.0288912, -33.7949349 ], [ 115.0288117, -33.7950203 ], [ 115.0287708, -33.7949937 ], [ 115.0287548, -33.7950108 ], [ 115.0287139, -33.7949842 ], [ 115.0287298, -33.7949671 ], [ 115.0287094, -33.7949539 ], [ 115.0287253, -33.7949368 ], [ 115.0287049, -33.7949235 ], [ 115.0287208, -33.7949064 ], [ 115.0286799, -33.7948798 ], [ 115.0287436, -33.7948115 ], [ 115.0287231, -33.7947982 ], [ 115.028739, -33.7947812 ], [ 115.0286981, -33.7947546 ], [ 115.0286822, -33.7947717 ], [ 115.0286413, -33.7947451 ], [ 115.0286572, -33.794728 ], [ 115.0286368, -33.7947147 ], [ 115.0286527, -33.7946976 ], [ 115.0286322, -33.7946844 ] ], [ [ 115.0291326, -33.7940772 ], [ 115.0291166, -33.7940943 ], [ 115.029178, -33.7941342 ], [ 115.0291621, -33.7941513 ], [ 115.0291825, -33.7941646 ], [ 115.0291666, -33.7941816 ], [ 115.0291462, -33.7941683 ], [ 115.0291302, -33.7941854 ], [ 115.0291098, -33.7941721 ], [ 115.0291257, -33.794155 ], [ 115.0290644, -33.7941152 ], [ 115.0290803, -33.7940981 ], [ 115.0289985, -33.7940449 ], [ 115.0290144, -33.7940279 ], [ 115.0290348, -33.7940412 ], [ 115.0290667, -33.794007 ], [ 115.0290871, -33.7940203 ], [ 115.0291031, -33.7940032 ], [ 115.0291235, -33.7940165 ], [ 115.0291076, -33.7940336 ], [ 115.029128, -33.7940469 ], [ 115.0291121, -33.794064 ], [ 115.0291326, -33.7940772 ] ], [ [ 115.0293592, -33.7955955 ], [ 115.0293433, -33.7956126 ], [ 115.0293228, -33.7955993 ], [ 115.0293069, -33.7956163 ], [ 115.029266, -33.7955898 ], [ 115.0292819, -33.7955727 ], [ 115.0292615, -33.7955594 ], [ 115.0292933, -33.7955253 ], [ 115.0293546, -33.7955651 ], [ 115.0293387, -33.7955822 ], [ 115.0293592, -33.7955955 ] ], [ [ 115.029255, -33.7946504 ], [ 115.0293028, -33.7945992 ], [ 115.0293233, -33.7946125 ], [ 115.0293551, -33.7945783 ], [ 115.0293755, -33.7945916 ], [ 115.0293915, -33.7945745 ], [ 115.029371, -33.7945612 ], [ 115.0293869, -33.7945442 ], [ 115.0294483, -33.794584 ], [ 115.0293687, -33.7946694 ], [ 115.0293891, -33.7946827 ], [ 115.0293732, -33.7946998 ], [ 115.0293937, -33.7947131 ], [ 115.0293778, -33.7947301 ], [ 115.0294391, -33.79477 ], [ 115.0294073, -33.7948042 ], [ 115.0293868, -33.7947909 ], [ 115.0293709, -33.7948079 ], [ 115.0292482, -33.7947282 ], [ 115.02928, -33.794694 ], [ 115.0292596, -33.7946808 ], [ 115.0292755, -33.7946637 ], [ 115.029255, -33.7946504 ] ], [ [ 115.0285345, -33.7946483 ], [ 115.0285141, -33.794635 ], [ 115.0284981, -33.7946521 ], [ 115.0284572, -33.7946255 ], [ 115.0284732, -33.7946084 ], [ 115.0284118, -33.7945685 ], [ 115.0284755, -33.7945002 ], [ 115.028455, -33.7944869 ], [ 115.0284869, -33.7944528 ], [ 115.0285073, -33.7944661 ], [ 115.0285232, -33.794449 ], [ 115.0285437, -33.7944623 ], [ 115.0285278, -33.7944794 ], [ 115.0285687, -33.794506 ], [ 115.0285528, -33.794523 ], [ 115.0285732, -33.7945363 ], [ 115.0285573, -33.7945534 ], [ 115.0285368, -33.7945401 ], [ 115.0285209, -33.7945572 ], [ 115.0285414, -33.7945705 ], [ 115.0285255, -33.7945875 ], [ 115.0285459, -33.7946008 ], [ 115.02853, -33.7946179 ], [ 115.0285504, -33.7946312 ], [ 115.0285345, -33.7946483 ] ], [ [ 115.0295141, -33.794901 ], [ 115.029555, -33.7949276 ], [ 115.029539, -33.7949446 ], [ 115.0295595, -33.7949579 ], [ 115.0295436, -33.794975 ], [ 115.029564, -33.7949883 ], [ 115.0295481, -33.7950054 ], [ 115.0294868, -33.7949655 ], [ 115.0295027, -33.7949484 ], [ 115.0294822, -33.7949351 ], [ 115.0295141, -33.794901 ] ], [ [ 115.0295003, -33.7950566 ], [ 115.0294526, -33.7951078 ], [ 115.0294321, -33.7950945 ], [ 115.0294162, -33.7951116 ], [ 115.0293549, -33.7950717 ], [ 115.0293708, -33.7950546 ], [ 115.0293094, -33.7950148 ], [ 115.0293254, -33.7949977 ], [ 115.0293049, -33.7949844 ], [ 115.0293208, -33.7949673 ], [ 115.0293004, -33.794954 ], [ 115.0293163, -33.794937 ], [ 115.0293776, -33.7949768 ], [ 115.0293936, -33.7949598 ], [ 115.0294754, -33.7950129 ], [ 115.0294594, -33.79503 ], [ 115.0295003, -33.7950566 ] ], [ [ 115.0282278, -33.7944489 ], [ 115.0282073, -33.7944356 ], [ 115.0282232, -33.7944185 ], [ 115.0282437, -33.7944318 ], [ 115.0282278, -33.7944489 ] ], [ [ 115.0289383, -33.7963639 ], [ 115.0290338, -33.7962615 ], [ 115.0290747, -33.7962881 ], [ 115.0290588, -33.7963051 ], [ 115.0290793, -33.7963184 ], [ 115.0289997, -33.7964038 ], [ 115.0289383, -33.7963639 ] ], [ [ 115.0290254, -33.7947205 ], [ 115.0290732, -33.7946693 ], [ 115.0290937, -33.7946826 ], [ 115.0291096, -33.7946655 ], [ 115.0291709, -33.7947054 ], [ 115.029155, -33.7947225 ], [ 115.0291755, -33.7947358 ], [ 115.0291595, -33.7947528 ], [ 115.0292413, -33.794806 ], [ 115.0292573, -33.7947889 ], [ 115.0292982, -33.7948155 ], [ 115.0292822, -33.7948326 ], [ 115.0293231, -33.7948592 ], [ 115.0293072, -33.7948762 ], [ 115.0293277, -33.7948895 ], [ 115.0292958, -33.7949237 ], [ 115.0292549, -33.7948971 ], [ 115.029239, -33.7949142 ], [ 115.0291572, -33.794861 ], [ 115.0291413, -33.7948781 ], [ 115.029039, -33.7948116 ], [ 115.029055, -33.7947946 ], [ 115.0290141, -33.794768 ], [ 115.0290459, -33.7947338 ], [ 115.0290254, -33.7947205 ] ], [ [ 115.0292388, -33.7954076 ], [ 115.029207, -33.7954417 ], [ 115.0291865, -33.7954284 ], [ 115.0292183, -33.7953943 ], [ 115.0292388, -33.7954076 ] ], [ [ 115.0291, -33.7958383 ], [ 115.029084, -33.7958554 ], [ 115.0290636, -33.7958421 ], [ 115.0290795, -33.795825 ], [ 115.0291, -33.7958383 ] ], [ [ 115.0292139, -33.7951172 ], [ 115.0291821, -33.7951514 ], [ 115.0291616, -33.7951381 ], [ 115.0291457, -33.7951552 ], [ 115.0291048, -33.7951286 ], [ 115.0291367, -33.7950944 ], [ 115.0291162, -33.7950811 ], [ 115.0291321, -33.7950641 ], [ 115.0291117, -33.7950508 ], [ 115.0291435, -33.7950166 ], [ 115.0292049, -33.7950565 ], [ 115.0291889, -33.7950736 ], [ 115.0292094, -33.7950869 ], [ 115.0291935, -33.7951039 ], [ 115.0292139, -33.7951172 ] ], [ [ 115.0295097, -33.7943772 ], [ 115.0295506, -33.7944038 ], [ 115.0295188, -33.7944379 ], [ 115.0294984, -33.7944246 ], [ 115.0295143, -33.7944076 ], [ 115.0294938, -33.7943943 ], [ 115.0295097, -33.7943772 ] ], [ [ 115.0290996, -33.7965784 ], [ 115.0290678, -33.7966126 ], [ 115.0290473, -33.7965993 ], [ 115.0290792, -33.7965651 ], [ 115.0290996, -33.7965784 ] ], [ [ 115.0293388, -33.7953355 ], [ 115.0293707, -33.7953013 ], [ 115.0294116, -33.7953279 ], [ 115.0293797, -33.7953621 ], [ 115.0293388, -33.7953355 ] ], [ [ 115.0292609, -33.7967929 ], [ 115.0291791, -33.7967398 ], [ 115.029195, -33.7967227 ], [ 115.0291541, -33.7966961 ], [ 115.0292178, -33.7966278 ], [ 115.0292382, -33.7966411 ], [ 115.0292701, -33.7966069 ], [ 115.0292905, -33.7966202 ], [ 115.0292746, -33.7966373 ], [ 115.0292951, -33.7966506 ], [ 115.0292791, -33.7966677 ], [ 115.0292996, -33.796681 ], [ 115.0292837, -33.796698 ], [ 115.0293041, -33.7967113 ], [ 115.0292564, -33.7967625 ], [ 115.0292768, -33.7967758 ], [ 115.0292609, -33.7967929 ] ] ], [ [ [ 115.029714, -33.7947567 ], [ 115.0296937, -33.7947435 ], [ 115.0296619, -33.7947777 ], [ 115.0296823, -33.794791 ], [ 115.0297138, -33.7947572 ], [ 115.029714, -33.7947567 ] ] ], [ [ [ 115.028521, -33.7943105 ], [ 115.028537, -33.7942934 ], [ 115.0285574, -33.7943067 ], [ 115.0285733, -33.7942896 ], [ 115.0284711, -33.7942232 ], [ 115.0284392, -33.7942573 ], [ 115.028521, -33.7943105 ] ] ], [ [ [ 115.0280373, -33.7948735 ], [ 115.0280934, -33.79491 ], [ 115.0280746, -33.7949302 ], [ 115.028132, -33.7950173 ], [ 115.0282093, -33.7950676 ], [ 115.0282411, -33.7950334 ], [ 115.0282207, -33.7950201 ], [ 115.0282525, -33.794986 ], [ 115.0281707, -33.7949328 ], [ 115.0281548, -33.7949499 ], [ 115.0281343, -33.7949366 ], [ 115.0281503, -33.7949195 ], [ 115.028048, -33.7948531 ], [ 115.0280338, -33.7948683 ], [ 115.0280373, -33.7948735 ] ] ], [ [ [ 115.0286456, -33.7952689 ], [ 115.0285025, -33.7951758 ], [ 115.0284865, -33.7951929 ], [ 115.0284047, -33.7951397 ], [ 115.0283888, -33.7951568 ], [ 115.0284093, -33.7951701 ], [ 115.0283933, -33.7951872 ], [ 115.0284138, -33.7952005 ], [ 115.0283979, -33.7952175 ], [ 115.0284183, -33.7952308 ], [ 115.0284024, -33.7952479 ], [ 115.0284229, -33.7952612 ], [ 115.028391, -33.7952953 ], [ 115.0285137, -33.7953751 ], [ 115.0285296, -33.795358 ], [ 115.0285705, -33.7953846 ], [ 115.0285865, -33.7953675 ], [ 115.0286069, -33.7953808 ], [ 115.0286388, -33.7953467 ], [ 115.0286183, -33.7953334 ], [ 115.0286501, -33.7952992 ], [ 115.0286297, -33.7952859 ], [ 115.0286456, -33.7952689 ] ] ], [ [ [ 115.0283133, -33.7952722 ], [ 115.0283138, -33.7952725 ], [ 115.0283297, -33.7952555 ], [ 115.0283145, -33.7952456 ], [ 115.0283133, -33.7952722 ] ] ], [ [ [ 115.028312, -33.7952988 ], [ 115.0283183, -33.7953029 ], [ 115.0283342, -33.7952858 ], [ 115.0283138, -33.7952725 ], [ 115.0283132, -33.7952731 ], [ 115.028312, -33.7952988 ] ] ], [ [ [ 115.0288795, -33.7957225 ], [ 115.0288386, -33.7956959 ], [ 115.0288227, -33.795713 ], [ 115.0288636, -33.7957396 ], [ 115.0288795, -33.7957225 ] ] ], [ [ [ 115.0282943, -33.7956712 ], [ 115.0282999, -33.7956749 ], [ 115.0283158, -33.7956578 ], [ 115.0282956, -33.7956446 ], [ 115.0282943, -33.7956712 ] ] ], [ [ [ 115.0282754, -33.7960702 ], [ 115.0282745, -33.7960896 ], [ 115.0282861, -33.7960772 ], [ 115.0282754, -33.7960702 ] ] ], [ [ [ 115.0282729, -33.7961234 ], [ 115.0282747, -33.7961246 ], [ 115.0282906, -33.7961075 ], [ 115.0282742, -33.7960968 ], [ 115.0282729, -33.7961234 ] ] ], [ [ [ 115.0282679, -33.7962298 ], [ 115.0282724, -33.7962328 ], [ 115.0282883, -33.7962157 ], [ 115.0282691, -33.7962032 ], [ 115.0282679, -33.7962298 ] ] ], [ [ [ 115.0282666, -33.7962564 ], [ 115.0282769, -33.7962631 ], [ 115.0282928, -33.7962461 ], [ 115.0282724, -33.7962328 ], [ 115.0282675, -33.7962381 ], [ 115.0282666, -33.7962564 ] ] ], [ [ [ 115.0282641, -33.7963096 ], [ 115.0282655, -33.7963106 ], [ 115.0282815, -33.7962935 ], [ 115.0282653, -33.796283 ], [ 115.0282641, -33.7963096 ] ] ], [ [ [ 115.0282628, -33.7963362 ], [ 115.0282701, -33.7963409 ], [ 115.028286, -33.7963239 ], [ 115.0282655, -33.7963106 ], [ 115.0282639, -33.7963123 ], [ 115.0282628, -33.7963362 ] ] ], [ [ [ 115.0282738, -33.7965836 ], [ 115.0283559, -33.7966364 ], [ 115.0283677, -33.7966237 ], [ 115.0283472, -33.7966104 ], [ 115.0283632, -33.7965934 ], [ 115.0283427, -33.7965801 ], [ 115.0283268, -33.7965972 ], [ 115.0282859, -33.7965706 ], [ 115.0282738, -33.7965836 ] ] ], [ [ [ 115.0282527, -33.796549 ], [ 115.0282518, -33.7965694 ], [ 115.0282533, -33.7965703 ], [ 115.0282654, -33.7965573 ], [ 115.0282527, -33.796549 ] ] ] ] } },
{ "type": "Feature", "properties": { "appName": "Brookland Valley 18 Feb 26", "rate": 3.0, "rateInt": 3, "unit": "l/ha", "zone": 3 }, "geometry": { "type": "MultiPolygon", "coordinates": [ [ [ [ 115.0295506, -33.7944038 ], [ 115.0295097, -33.7943772 ], [ 115.0294938, -33.7943943 ], [ 115.0295143, -33.7944076 ], [ 115.0294984, -33.7944246 ], [ 115.0295188, -33.7944379 ], [ 115.0295506, -33.7944038 ] ] ], [ [ [ 115.0295481, -33.7950054 ], [ 115.029564, -33.7949883 ], [ 115.0295436, -33.794975 ], [ 115.0295595, -33.7949579 ], [ 115.029539, -33.7949446 ], [ 115.029555, -33.7949276 ], [ 115.0295141, -33.794901 ], [ 115.0294822, -33.7949351 ], [ 115.0295027, -33.7949484 ], [ 115.0294868, -33.7949655 ], [ 115.0295481, -33.7950054 ] ] ], [ [ [ 115.0290937, -33.7946826 ], [ 115.0290732, -33.7946693 ], [ 115.0290254, -33.7947205 ], [ 115.0290459, -33.7947338 ], [ 115.0290141, -33.794768 ], [ 115.029055, -33.7947946 ], [ 115.029039, -33.7948116 ], [ 115.0291413, -33.7948781 ], [ 115.0291572, -33.794861 ], [ 115.029239, -33.7949142 ], [ 115.0292549, -33.7948971 ], [ 115.0292958, -33.7949237 ], [ 115.0293277, -33.7948895 ], [ 115.0293072, -33.7948762 ], [ 115.0293231, -33.7948592 ], [ 115.0292822, -33.7948326 ], [ 115.0292982, -33.7948155 ], [ 115.0292573, -33.7947889 ], [ 115.0292413, -33.794806 ], [ 115.0291595, -33.7947528 ], [ 115.0291755, -33.7947358 ], [ 115.029155, -33.7947225 ], [ 115.0291709, -33.7947054 ], [ 115.0291096, -33.7946655 ], [ 115.0290937, -33.7946826 ] ] ], [ [ [ 115.0294754, -33.7950129 ], [ 115.0293936, -33.7949598 ], [ 115.0293776, -33.7949768 ], [ 115.0293163, -33.794937 ], [ 115.0293004, -33.794954 ], [ 115.0293208, -33.7949673 ], [ 115.0293049, -33.7949844 ], [ 115.0293254, -33.7949977 ], [ 115.0293094, -33.7950148 ], [ 115.0293708, -33.7950546 ], [ 115.0293549, -33.7950717 ], [ 115.0294162, -33.7951116 ], [ 115.0294321, -33.7950945 ], [ 115.0294526, -33.7951078 ], [ 115.0295003, -33.7950566 ], [ 115.0294594, -33.79503 ], [ 115.0294754, -33.7950129 ] ] ], [ [ [ 115.0285345, -33.7946483 ], [ 115.0285504, -33.7946312 ], [ 115.02853, -33.7946179 ], [ 115.0285459, -33.7946008 ], [ 115.0285255, -33.7945875 ], [ 115.0285414, -33.7945705 ], [ 115.0285209, -33.7945572 ], [ 115.0285368, -33.7945401 ], [ 115.0285573, -33.7945534 ], [ 115.0285732, -33.7945363 ], [ 115.0285528, -33.794523 ], [ 115.0285687, -33.794506 ], [ 115.0285278, -33.7944794 ], [ 115.0285437, -33.7944623 ], [ 115.0285232, -33.794449 ], [ 115.0285073, -33.7944661 ], [ 115.0284869, -33.7944528 ], [ 115.028455, -33.7944869 ], [ 115.0284755, -33.7945002 ], [ 115.0284118, -33.7945685 ], [ 115.0284732, -33.7946084 ], [ 115.0284572, -33.7946255 ], [ 115.0284981, -33.7946521 ], [ 115.0285141, -33.794635 ], [ 115.0285345, -33.7946483 ] ] ], [ [ [ 115.0291935, -33.7951039 ], [ 115.0292094, -33.7950869 ], [ 115.0291889, -33.7950736 ], [ 115.0292049, -33.7950565 ], [ 115.0291435, -33.7950166 ], [ 115.0291117, -33.7950508 ], [ 115.0291321, -33.7950641 ], [ 115.0291162, -33.7950811 ], [ 115.0291367, -33.7950944 ], [ 115.0291048, -33.7951286 ], [ 115.0291457, -33.7951552 ], [ 115.0291616, -33.7951381 ], [ 115.0291821, -33.7951514 ], [ 115.0292139, -33.7951172 ], [ 115.0291935, -33.7951039 ] ] ], [ [ [ 115.0279764, -33.794313 ], [ 115.0279869, -33.7943198 ], [ 115.0280028, -33.7943027 ], [ 115.0279857, -33.7942916 ], [ 115.0279773, -33.7942956 ], [ 115.0279764, -33.794313 ] ] ], [ [ [ 115.0283145, -33.7952456 ], [ 115.0283297, -33.7952555 ], [ 115.0283138, -33.7952725 ], [ 115.0283342, -33.7952858 ], [ 115.0283115, -33.7953102 ], [ 115.0283107, -33.7953254 ], [ 115.0283228, -33.7953333 ], [ 115.0283097, -33.7953474 ], [ 115.0283082, -33.7953786 ], [ 115.0283114, -33.7953807 ], [ 115.0283079, -33.7953845 ], [ 115.028307, -33.7954052 ], [ 115.028316, -33.7954111 ], [ 115.0283062, -33.7954216 ], [ 115.0283044, -33.7954584 ], [ 115.0283046, -33.7954585 ], [ 115.0283044, -33.7954587 ], [ 115.0283032, -33.795485 ], [ 115.0283091, -33.7954889 ], [ 115.0283027, -33.7954958 ], [ 115.0283019, -33.7955116 ], [ 115.0283136, -33.7955192 ], [ 115.0283009, -33.7955329 ], [ 115.0282994, -33.7955648 ], [ 115.0283023, -33.7955667 ], [ 115.0282991, -33.79557 ], [ 115.0282981, -33.7955914 ], [ 115.0283068, -33.7955971 ], [ 115.0282974, -33.7956071 ], [ 115.0282969, -33.795618 ], [ 115.0283113, -33.7956274 ], [ 115.0282956, -33.7956443 ], [ 115.0282956, -33.7956446 ], [ 115.0283158, -33.7956578 ], [ 115.0282939, -33.7956814 ], [ 115.0282906, -33.795751 ], [ 115.0282931, -33.7957527 ], [ 115.0282903, -33.7957556 ], [ 115.0282893, -33.7957776 ], [ 115.0282976, -33.795783 ], [ 115.0282886, -33.7957927 ], [ 115.0282855, -33.7958574 ], [ 115.0282908, -33.7958608 ], [ 115.0282851, -33.7958669 ], [ 115.0282843, -33.795884 ], [ 115.0282953, -33.7958912 ], [ 115.0282833, -33.795904 ], [ 115.0282817, -33.7959372 ], [ 115.0282839, -33.7959386 ], [ 115.0282815, -33.7959412 ], [ 115.0282805, -33.7959638 ], [ 115.0282884, -33.795969 ], [ 115.0282798, -33.7959783 ], [ 115.0282792, -33.7959904 ], [ 115.028293, -33.7959994 ], [ 115.028278, -33.7960154 ], [ 115.0282767, -33.7960436 ], [ 115.0282816, -33.7960468 ], [ 115.0282763, -33.7960525 ], [ 115.0282754, -33.7960702 ], [ 115.0282861, -33.7960772 ], [ 115.0282745, -33.7960896 ], [ 115.0282742, -33.7960968 ], [ 115.0282906, -33.7961075 ], [ 115.0282727, -33.7961267 ], [ 115.0282716, -33.79615 ], [ 115.0282793, -33.796155 ], [ 115.028271, -33.7961638 ], [ 115.0282704, -33.7961766 ], [ 115.0282838, -33.7961853 ], [ 115.0282692, -33.7962009 ], [ 115.0282691, -33.7962032 ], [ 115.0282883, -33.7962157 ], [ 115.0282724, -33.7962328 ], [ 115.0282928, -33.7962461 ], [ 115.0282657, -33.7962752 ], [ 115.0282653, -33.796283 ], [ 115.0282815, -33.7962935 ], [ 115.0282655, -33.7963106 ], [ 115.028286, -33.7963239 ], [ 115.0282622, -33.7963494 ], [ 115.0282616, -33.7963628 ], [ 115.028336, -33.7964112 ], [ 115.0283678, -33.796377 ], [ 115.0283882, -33.7963903 ], [ 115.0284201, -33.7963562 ], [ 115.0284405, -33.7963695 ], [ 115.0284565, -33.7963524 ], [ 115.0284769, -33.7963657 ], [ 115.0284928, -33.7963486 ], [ 115.0285133, -33.7963619 ], [ 115.0285292, -33.7963448 ], [ 115.0285496, -33.7963581 ], [ 115.0285656, -33.796341 ], [ 115.028586, -33.7963543 ], [ 115.0286179, -33.7963202 ], [ 115.0285974, -33.7963069 ], [ 115.0286133, -33.7962898 ], [ 115.0285929, -33.7962765 ], [ 115.0286088, -33.7962594 ], [ 115.0285474, -33.7962196 ], [ 115.028627, -33.7961342 ], [ 115.0286066, -33.7961209 ], [ 115.0286225, -33.7961038 ], [ 115.028602, -33.7960906 ], [ 115.0286339, -33.7960564 ], [ 115.0286134, -33.7960431 ], [ 115.0286453, -33.796009 ], [ 115.0286248, -33.7959957 ], [ 115.0286407, -33.7959786 ], [ 115.0286203, -33.7959653 ], [ 115.0286521, -33.7959312 ], [ 115.0286317, -33.7959179 ], [ 115.0286635, -33.7958837 ], [ 115.0286431, -33.7958704 ], [ 115.028659, -33.7958534 ], [ 115.0286385, -33.7958401 ], [ 115.0286544, -33.795823 ], [ 115.0286749, -33.7958363 ], [ 115.0286908, -33.7958192 ], [ 115.0287113, -33.7958325 ], [ 115.0287272, -33.7958154 ], [ 115.028809, -33.7958686 ], [ 115.0288249, -33.7958515 ], [ 115.029009, -33.7959711 ], [ 115.0289931, -33.7959882 ], [ 115.0290135, -33.7960015 ], [ 115.0289976, -33.7960186 ], [ 115.029018, -33.7960319 ], [ 115.0290021, -33.7960489 ], [ 115.0290226, -33.7960622 ], [ 115.0290066, -33.7960793 ], [ 115.0290271, -33.7960926 ], [ 115.0290112, -33.7961097 ], [ 115.0290316, -33.7961229 ], [ 115.0290157, -33.79614 ], [ 115.0290771, -33.7961799 ], [ 115.0290611, -33.796197 ], [ 115.029143, -33.7962501 ], [ 115.029127, -33.7962672 ], [ 115.0291475, -33.7962805 ], [ 115.0291156, -33.7963146 ], [ 115.0291361, -33.7963279 ], [ 115.0291043, -33.7963621 ], [ 115.0291247, -33.7963754 ], [ 115.0291088, -33.7963924 ], [ 115.0291292, -33.7964057 ], [ 115.0291452, -33.7963887 ], [ 115.0291656, -33.796402 ], [ 115.029277, -33.7962824 ], [ 115.0292566, -33.7962691 ], [ 115.0292725, -33.7962521 ], [ 115.0292316, -33.7962255 ], [ 115.0292475, -33.7962084 ], [ 115.0291862, -33.7961685 ], [ 115.0292021, -33.7961515 ], [ 115.0291612, -33.7961249 ], [ 115.0291771, -33.7961078 ], [ 115.0291567, -33.7960945 ], [ 115.0291726, -33.7960774 ], [ 115.0291521, -33.7960642 ], [ 115.0292158, -33.7959959 ], [ 115.0292567, -33.7960224 ], [ 115.0292408, -33.7960395 ], [ 115.0292612, -33.7960528 ], [ 115.0292453, -33.7960699 ], [ 115.0293067, -33.7961097 ], [ 115.0293226, -33.7960927 ], [ 115.0293021, -33.7960794 ], [ 115.0293499, -33.7960282 ], [ 115.0293294, -33.7960149 ], [ 115.0293454, -33.7959978 ], [ 115.029284, -33.7959579 ], [ 115.0292681, -33.795975 ], [ 115.0292476, -33.7959617 ], [ 115.0292317, -33.7959788 ], [ 115.0291908, -33.7959522 ], [ 115.0291749, -33.7959693 ], [ 115.0291545, -33.795956 ], [ 115.0291385, -33.7959731 ], [ 115.0289749, -33.7958667 ], [ 115.0289908, -33.7958497 ], [ 115.0289704, -33.7958364 ], [ 115.0289863, -33.7958193 ], [ 115.0289659, -33.795806 ], [ 115.0289818, -33.7957889 ], [ 115.0289613, -33.7957756 ], [ 115.0289772, -33.7957586 ], [ 115.0289977, -33.7957719 ], [ 115.0290136, -33.7957548 ], [ 115.0290341, -33.7957681 ], [ 115.02905, -33.795751 ], [ 115.0290704, -33.7957643 ], [ 115.0291182, -33.7957131 ], [ 115.0290977, -33.7956998 ], [ 115.0291455, -33.7956486 ], [ 115.029125, -33.7956353 ], [ 115.0291887, -33.795567 ], [ 115.0290865, -33.7955005 ], [ 115.0291024, -33.7954834 ], [ 115.0290206, -33.7954303 ], [ 115.0290365, -33.7954132 ], [ 115.029016, -33.7953999 ], [ 115.0290001, -33.795417 ], [ 115.0289797, -33.7954037 ], [ 115.0289638, -33.7954208 ], [ 115.0289842, -33.7954341 ], [ 115.0289524, -33.7954682 ], [ 115.028891, -33.7954283 ], [ 115.0289229, -33.7953942 ], [ 115.0289024, -33.7953809 ], [ 115.0289342, -33.7953468 ], [ 115.0289751, -33.7953733 ], [ 115.029007, -33.7953392 ], [ 115.0289865, -33.7953259 ], [ 115.0290025, -33.7953088 ], [ 115.0289615, -33.7952822 ], [ 115.0289775, -33.7952652 ], [ 115.0289366, -33.7952386 ], [ 115.0289525, -33.7952215 ], [ 115.0289116, -33.7951949 ], [ 115.0289275, -33.7951779 ], [ 115.0288252, -33.7951114 ], [ 115.0288093, -33.7951285 ], [ 115.0286866, -33.7950487 ], [ 115.0287025, -33.7950317 ], [ 115.0286412, -33.7949918 ], [ 115.0286253, -33.7950089 ], [ 115.0286048, -33.7949956 ], [ 115.0285889, -33.7950126 ], [ 115.0285685, -33.7949994 ], [ 115.0285525, -33.7950164 ], [ 115.0285116, -33.7949898 ], [ 115.0285276, -33.7949728 ], [ 115.0285071, -33.7949595 ], [ 115.028523, -33.7949424 ], [ 115.0285026, -33.7949291 ], [ 115.0285185, -33.794912 ], [ 115.028498, -33.7948988 ], [ 115.028514, -33.7948817 ], [ 115.0285344, -33.794895 ], [ 115.0285662, -33.7948608 ], [ 115.0285867, -33.7948741 ], [ 115.0286344, -33.7948229 ], [ 115.028614, -33.7948096 ], [ 115.0286299, -33.7947925 ], [ 115.0285686, -33.7947527 ], [ 115.0285526, -33.7947697 ], [ 115.0285322, -33.7947564 ], [ 115.0285163, -33.7947735 ], [ 115.02823, -33.7945874 ], [ 115.0282141, -33.7946045 ], [ 115.0281731, -33.7945779 ], [ 115.0281572, -33.794595 ], [ 115.0281368, -33.7945817 ], [ 115.0281209, -33.7945988 ], [ 115.0281004, -33.7945855 ], [ 115.0281163, -33.7945684 ], [ 115.0280345, -33.7945153 ], [ 115.0280186, -33.7945323 ], [ 115.0279982, -33.7945191 ], [ 115.0279822, -33.7945361 ], [ 115.0279659, -33.7945255 ], [ 115.0279646, -33.7945521 ], [ 115.0279663, -33.7945532 ], [ 115.0279645, -33.7945552 ], [ 115.0279633, -33.7945787 ], [ 115.0279709, -33.7945836 ], [ 115.0279627, -33.7945924 ], [ 115.027962, -33.7946052 ], [ 115.0279754, -33.7946139 ], [ 115.0279608, -33.7946296 ], [ 115.0279594, -33.7946584 ], [ 115.027964, -33.7946614 ], [ 115.027959, -33.7946667 ], [ 115.0279581, -33.7946849 ], [ 115.0279685, -33.7946917 ], [ 115.0279572, -33.7947039 ], [ 115.0279568, -33.7947115 ], [ 115.0279731, -33.7947221 ], [ 115.0279553, -33.7947411 ], [ 115.027955, -33.7947485 ], [ 115.0280057, -33.7948256 ], [ 115.0281503, -33.7949195 ], [ 115.0281343, -33.7949366 ], [ 115.0281548, -33.7949499 ], [ 115.0281707, -33.7949328 ], [ 115.0282525, -33.794986 ], [ 115.0282207, -33.7950201 ], [ 115.0282411, -33.7950334 ], [ 115.0282093, -33.7950676 ], [ 115.028132, -33.7950173 ], [ 115.0281951, -33.7951132 ], [ 115.0282229, -33.7951312 ], [ 115.0282399, -33.7951418 ], [ 115.0282252, -33.7951602 ], [ 115.0283251, -33.7952251 ], [ 115.028315, -33.795236 ], [ 115.0283145, -33.7952456 ] ], [ [ 115.0288636, -33.7957396 ], [ 115.0288227, -33.795713 ], [ 115.0288386, -33.7956959 ], [ 115.0288795, -33.7957225 ], [ 115.0288636, -33.7957396 ] ], [ [ 115.0284047, -33.7951397 ], [ 115.0284865, -33.7951929 ], [ 115.0285025, -33.7951758 ], [ 115.0286456, -33.7952689 ], [ 115.0286297, -33.7952859 ], [ 115.0286501, -33.7952992 ], [ 115.0286183, -33.7953334 ], [ 115.0286388, -33.7953467 ], [ 115.0286069, -33.7953808 ], [ 115.0285865, -33.7953675 ], [ 115.0285705, -33.7953846 ], [ 115.0285296, -33.795358 ], [ 115.0285137, -33.7953751 ], [ 115.028391, -33.7952953 ], [ 115.0284229, -33.7952612 ], [ 115.0284024, -33.7952479 ], [ 115.0284183, -33.7952308 ], [ 115.0283979, -33.7952175 ], [ 115.0284138, -33.7952005 ], [ 115.0283933, -33.7951872 ], [ 115.0284093, -33.7951701 ], [ 115.0283888, -33.7951568 ], [ 115.0284047, -33.7951397 ] ] ], [ [ [ 115.029207, -33.7954417 ], [ 115.0292388, -33.7954076 ], [ 115.0292183, -33.7953943 ], [ 115.0291865, -33.7954284 ], [ 115.029207, -33.7954417 ] ] ], [ [ [ 115.0292178, -33.7966278 ], [ 115.0291541, -33.7966961 ], [ 115.029195, -33.7967227 ], [ 115.0291791, -33.7967398 ], [ 115.0292609, -33.7967929 ], [ 115.0292768, -33.7967758 ], [ 115.0292564, -33.7967625 ], [ 115.0293041, -33.7967113 ], [ 115.0292837, -33.796698 ], [ 115.0292996, -33.796681 ], [ 115.0292791, -33.7966677 ], [ 115.0292951, -33.7966506 ], [ 115.0292746, -33.7966373 ], [ 115.0292905, -33.7966202 ], [ 115.0292701, -33.7966069 ], [ 115.0292382, -33.7966411 ], [ 115.0292178, -33.7966278 ] ] ], [ [ [ 115.0292354, -33.7968312 ], [ 115.0292638, -33.796825 ], [ 115.0292814, -33.7968062 ], [ 115.0292609, -33.7967929 ], [ 115.0292291, -33.7968271 ], [ 115.0292354, -33.7968312 ] ] ], [ [ [ 115.0282533, -33.7965703 ], [ 115.0282738, -33.7965836 ], [ 115.0282859, -33.7965706 ], [ 115.0283268, -33.7965972 ], [ 115.0283427, -33.7965801 ], [ 115.0283632, -33.7965934 ], [ 115.0283472, -33.7966104 ], [ 115.0283677, -33.7966237 ], [ 115.0283559, -33.7966364 ], [ 115.028479, -33.7967157 ], [ 115.0285063, -33.7966864 ], [ 115.0284859, -33.7966731 ], [ 115.0285018, -33.796656 ], [ 115.0284813, -33.7966427 ], [ 115.0284972, -33.7966257 ], [ 115.0284359, -33.7965858 ], [ 115.0284518, -33.7965687 ], [ 115.0283496, -33.7965023 ], [ 115.0283655, -33.7964852 ], [ 115.0283246, -33.7964586 ], [ 115.0283405, -33.7964415 ], [ 115.0282996, -33.796415 ], [ 115.0282837, -33.796432 ], [ 115.0282632, -33.7964187 ], [ 115.0282587, -33.7964236 ], [ 115.0282578, -33.7964426 ], [ 115.0282678, -33.7964491 ], [ 115.0282569, -33.7964607 ], [ 115.0282552, -33.7964958 ], [ 115.0282564, -33.7964965 ], [ 115.0282552, -33.7964978 ], [ 115.028254, -33.7965224 ], [ 115.0282609, -33.7965269 ], [ 115.0282534, -33.796535 ], [ 115.0282527, -33.796549 ], [ 115.0282654, -33.7965573 ], [ 115.0282533, -33.7965703 ] ] ] ] } }
]
}
