{
"type": "FeatureCollection",
"name": "block2boundary",
"crs": { "type": "name", "properties": { "name": "urn:ogc:def:crs:OGC:1.3:CRS84" } },
"features": [
{ "type": "Feature", "properties": { "name": "Brookland Valley 18 Feb 26" }, "geometry": { "type": "MultiPolygon", "coordinates": [ [ [ [ 115.026060944159497, -33.795095716472936 ], [ 115.027269764540733, -33.794632709405917 ], [ 115.027396983274798, -33.794670023561338 ], [ 115.027702379525522, -33.794872881932875 ], [ 115.028000779114961, -33.795308505023087 ], [ 115.027942219610907, -33.796544401134881 ], [ 115.027047391514827, -33.796887465204982 ], [ 115.026060944159497, -33.795095716472936 ] ] ] ] } }
]
}
