{
"type": "FeatureCollection",
"name": "NDVI - SBRK01 3 zones_Rx",
"features": [
{ "type": "Feature", "properties": { "appName": "Rosa Brook 050425", "rate": 1.0, "rateInt": 1, "unit": "l/ha", "zone": 1 }, "geometry": { "type": "MultiPolygon", "coordinates": [ [ [ [ 115.2134709, -33.9410703 ], [ 115.2134352, -33.9410657 ], [ 115.2134356, -33.94112 ], [ 115.2134448, -33.94112 ], [ 115.2134446, -33.9410978 ], [ 115.2134712, -33.9410976 ], [ 115.2134709, -33.9410703 ] ] ], [ [ [ 115.214559, -33.9412665 ], [ 115.2145376, -33.9412223 ], [ 115.2145366, -33.9412224 ], [ 115.2145371, -33.9412667 ], [ 115.214559, -33.9412665 ] ] ], [ [ [ 115.2145698, -33.9412886 ], [ 115.2145638, -33.9412764 ], [ 115.214564, -33.9412887 ], [ 115.2145698, -33.9412886 ] ] ], [ [ [ 115.2141172, -33.9417799 ], [ 115.2141177, -33.9418242 ], [ 115.2141709, -33.9418238 ], [ 115.2141702, -33.9417573 ], [ 115.2141968, -33.9417571 ], [ 115.2141963, -33.9417128 ], [ 115.2141697, -33.941713 ], [ 115.2141694, -33.9416908 ], [ 115.2141162, -33.9416912 ], [ 115.214116, -33.941669 ], [ 115.2140894, -33.9416692 ], [ 115.2140891, -33.9416471 ], [ 115.2140625, -33.9416473 ], [ 115.2140618, -33.9415808 ], [ 115.2142214, -33.9415795 ], [ 115.2142211, -33.9415574 ], [ 115.2142477, -33.9415572 ], [ 115.214247, -33.9414907 ], [ 115.2142736, -33.9414905 ], [ 115.2142733, -33.9414683 ], [ 115.2142201, -33.9414687 ], [ 115.2142199, -33.9414465 ], [ 115.2141401, -33.9414471 ], [ 115.2141404, -33.9414693 ], [ 115.2140606, -33.9414699 ], [ 115.2140608, -33.9414921 ], [ 115.2140076, -33.9414925 ], [ 115.2140074, -33.9414703 ], [ 115.2139276, -33.941471 ], [ 115.2139281, -33.9415153 ], [ 115.2139015, -33.9415155 ], [ 115.2139019, -33.9415598 ], [ 115.2138753, -33.94156 ], [ 115.2138758, -33.9416044 ], [ 115.2139024, -33.9416042 ], [ 115.2139027, -33.9416264 ], [ 115.2139293, -33.9416261 ], [ 115.2139295, -33.9416483 ], [ 115.2139561, -33.9416481 ], [ 115.2139566, -33.9416924 ], [ 115.2140364, -33.9416918 ], [ 115.2140367, -33.941714 ], [ 115.2140899, -33.9417136 ], [ 115.2140906, -33.9417801 ], [ 115.2141172, -33.9417799 ] ] ], [ [ [ 115.2137426, -33.9415832 ], [ 115.213716, -33.9415835 ], [ 115.2137167, -33.94165 ], [ 115.2137699, -33.9416496 ], [ 115.2137697, -33.9416274 ], [ 115.2137963, -33.9416272 ], [ 115.213796, -33.941605 ], [ 115.2138226, -33.9416048 ], [ 115.2138224, -33.9415826 ], [ 115.2137958, -33.9415828 ], [ 115.2137955, -33.9415607 ], [ 115.2137424, -33.9415611 ], [ 115.2137426, -33.9415832 ] ] ], [ [ [ 115.2136692, -33.9421556 ], [ 115.2139085, -33.9421455 ], [ 115.2139084, -33.9421362 ], [ 115.2138818, -33.9421365 ], [ 115.2138815, -33.9421143 ], [ 115.2138283, -33.9421147 ], [ 115.2138276, -33.9420482 ], [ 115.2138542, -33.942048 ], [ 115.2138532, -33.9419593 ], [ 115.2138798, -33.9419591 ], [ 115.2138795, -33.9419369 ], [ 115.2139593, -33.9419363 ], [ 115.2139596, -33.9419585 ], [ 115.2139862, -33.9419583 ], [ 115.2139872, -33.942047 ], [ 115.2140138, -33.9420467 ], [ 115.214014, -33.9420689 ], [ 115.2140406, -33.9420687 ], [ 115.2140404, -33.9420465 ], [ 115.2141202, -33.9420459 ], [ 115.2141199, -33.9420238 ], [ 115.2141465, -33.9420235 ], [ 115.2141448, -33.9418684 ], [ 115.2140118, -33.9418694 ], [ 115.2140113, -33.9418251 ], [ 115.2139847, -33.9418253 ], [ 115.2139845, -33.9418031 ], [ 115.2139579, -33.9418033 ], [ 115.2139576, -33.9417811 ], [ 115.2138512, -33.9417819 ], [ 115.213851, -33.9417598 ], [ 115.2138244, -33.94176 ], [ 115.2138239, -33.9417156 ], [ 115.2137707, -33.9417161 ], [ 115.2137709, -33.9417382 ], [ 115.2137443, -33.9417384 ], [ 115.2137448, -33.9417828 ], [ 115.2137182, -33.941783 ], [ 115.213718, -33.9417608 ], [ 115.2136914, -33.941761 ], [ 115.2136911, -33.9417388 ], [ 115.2136645, -33.9417391 ], [ 115.2136643, -33.9417169 ], [ 115.2136377, -33.9417171 ], [ 115.2136379, -33.9417393 ], [ 115.2135847, -33.9417397 ], [ 115.213585, -33.9417618 ], [ 115.2136116, -33.9417616 ], [ 115.2136118, -33.9417838 ], [ 115.2136384, -33.9417836 ], [ 115.2136397, -33.9418944 ], [ 115.2136131, -33.9418946 ], [ 115.2136136, -33.941939 ], [ 115.2135604, -33.9419394 ], [ 115.2135606, -33.9419616 ], [ 115.213534, -33.9419618 ], [ 115.2135343, -33.9419839 ], [ 115.2135077, -33.9419842 ], [ 115.2135079, -33.9420063 ], [ 115.2134813, -33.9420065 ], [ 115.213482, -33.942073 ], [ 115.2135086, -33.9420728 ], [ 115.2135089, -33.942095 ], [ 115.2135621, -33.9420946 ], [ 115.2135623, -33.9421168 ], [ 115.2136687, -33.9421159 ], [ 115.2136692, -33.9421556 ] ], [ [ 115.2137727, -33.9418934 ], [ 115.2137993, -33.9418932 ], [ 115.2137995, -33.9419154 ], [ 115.2137729, -33.9419156 ], [ 115.2137727, -33.9418934 ] ], [ [ 115.2140387, -33.9418914 ], [ 115.2140653, -33.9418911 ], [ 115.2140655, -33.9419133 ], [ 115.2140389, -33.9419135 ], [ 115.2140387, -33.9418914 ] ], [ [ 115.2138512, -33.9417819 ], [ 115.213852, -33.9418485 ], [ 115.2137988, -33.9418489 ], [ 115.213798, -33.9417824 ], [ 115.2138512, -33.9417819 ] ] ], [ [ [ 115.2144098, -33.9417776 ], [ 115.2144093, -33.9417333 ], [ 115.2143827, -33.9417335 ], [ 115.2143832, -33.9417778 ], [ 115.2144098, -33.9417776 ] ] ], [ [ [ 115.2147464, -33.9421076 ], [ 115.214746, -33.9420854 ], [ 115.2147325, -33.9420855 ], [ 115.2147327, -33.9421077 ], [ 115.2147464, -33.9421076 ] ] ], [ [ [ 115.2140414, -33.9421352 ], [ 115.2140411, -33.942113 ], [ 115.2140145, -33.9421133 ], [ 115.2140148, -33.9421354 ], [ 115.2140414, -33.9421352 ] ] ], [ [ [ 115.2141735, -33.9421342 ], [ 115.2141744, -33.9421342 ], [ 115.2141741, -33.942112 ], [ 115.2141475, -33.9421122 ], [ 115.2141478, -33.9421344 ], [ 115.2141735, -33.9421342 ] ] ], [ [ [ 115.2147062, -33.9421115 ], [ 115.2147327, -33.9421104 ], [ 115.2147327, -33.9421077 ], [ 115.2147061, -33.9421079 ], [ 115.2147062, -33.9421115 ] ] ], [ [ [ 115.2140414, -33.9421398 ], [ 115.214068, -33.9421387 ], [ 115.214068, -33.942135 ], [ 115.2140414, -33.9421352 ], [ 115.2140414, -33.9421398 ] ] ], [ [ [ 115.2141212, -33.9421364 ], [ 115.2141478, -33.9421353 ], [ 115.2141478, -33.9421344 ], [ 115.2141212, -33.9421346 ], [ 115.2141212, -33.9421364 ] ] ] ] } },
{ "type": "Feature", "properties": { "appName": "Rosa Brook 050425", "rate": 2.0, "rateInt": 2, "unit": "l/ha", "zone": 2 }, "geometry": { "type": "MultiPolygon", "coordinates": [ [ [ [ 115.213443, -33.9421177 ], [ 115.2134559, -33.9421176 ], [ 115.2134564, -33.9421619 ], [ 115.2135357, -33.9421613 ], [ 115.2136692, -33.9421556 ], [ 115.2136687, -33.9421159 ], [ 115.2135623, -33.9421168 ], [ 115.2135621, -33.9420946 ], [ 115.2135089, -33.942095 ], [ 115.2135086, -33.9420728 ], [ 115.213482, -33.942073 ], [ 115.2134813, -33.9420065 ], [ 115.2135079, -33.9420063 ], [ 115.2135077, -33.9419842 ], [ 115.2135343, -33.9419839 ], [ 115.213534, -33.9419618 ], [ 115.2135606, -33.9419616 ], [ 115.2135604, -33.9419394 ], [ 115.2136136, -33.941939 ], [ 115.2136131, -33.9418946 ], [ 115.2136397, -33.9418944 ], [ 115.2136384, -33.9417836 ], [ 115.2136118, -33.9417838 ], [ 115.2136116, -33.9417616 ], [ 115.213585, -33.9417618 ], [ 115.2135847, -33.9417397 ], [ 115.2136379, -33.9417393 ], [ 115.2136377, -33.9417171 ], [ 115.2136643, -33.9417169 ], [ 115.2136645, -33.9417391 ], [ 115.2136911, -33.9417388 ], [ 115.2136914, -33.941761 ], [ 115.213718, -33.9417608 ], [ 115.2137182, -33.941783 ], [ 115.2137448, -33.9417828 ], [ 115.2137443, -33.9417384 ], [ 115.2137709, -33.9417382 ], [ 115.2137707, -33.9417161 ], [ 115.2138239, -33.9417156 ], [ 115.2138244, -33.94176 ], [ 115.213851, -33.9417598 ], [ 115.2138512, -33.9417819 ], [ 115.2139576, -33.9417811 ], [ 115.2139579, -33.9418033 ], [ 115.2139845, -33.9418031 ], [ 115.2139847, -33.9418253 ], [ 115.2140113, -33.9418251 ], [ 115.2140118, -33.9418694 ], [ 115.2141448, -33.9418684 ], [ 115.2141465, -33.9420235 ], [ 115.2141199, -33.9420238 ], [ 115.2141202, -33.9420459 ], [ 115.2140404, -33.9420465 ], [ 115.2140406, -33.9420687 ], [ 115.214014, -33.9420689 ], [ 115.2140138, -33.9420467 ], [ 115.2139872, -33.942047 ], [ 115.2139862, -33.9419583 ], [ 115.2139596, -33.9419585 ], [ 115.2139593, -33.9419363 ], [ 115.2138795, -33.9419369 ], [ 115.2138798, -33.9419591 ], [ 115.2138532, -33.9419593 ], [ 115.2138542, -33.942048 ], [ 115.2138276, -33.9420482 ], [ 115.2138283, -33.9421147 ], [ 115.2138815, -33.9421143 ], [ 115.2138818, -33.9421365 ], [ 115.2140148, -33.9421354 ], [ 115.2140145, -33.9421133 ], [ 115.2140411, -33.942113 ], [ 115.2140414, -33.9421352 ], [ 115.2141478, -33.9421344 ], [ 115.2141475, -33.9421122 ], [ 115.2141741, -33.942112 ], [ 115.2141744, -33.9421342 ], [ 115.2144934, -33.9421206 ], [ 115.2144933, -33.9421095 ], [ 115.2147327, -33.9421077 ], [ 115.214732, -33.9420412 ], [ 115.2147054, -33.9420414 ], [ 115.2147056, -33.9420636 ], [ 115.2146524, -33.942064 ], [ 115.2146527, -33.9420861 ], [ 115.2143867, -33.9420882 ], [ 115.2143864, -33.942066 ], [ 115.2143598, -33.9420662 ], [ 115.2143593, -33.9420219 ], [ 115.2143859, -33.9420217 ], [ 115.2143857, -33.9419995 ], [ 115.2144123, -33.9419993 ], [ 115.214412, -33.9419771 ], [ 115.2144386, -33.9419769 ], [ 115.2144384, -33.9419548 ], [ 115.214465, -33.9419546 ], [ 115.2144647, -33.9419324 ], [ 115.2145711, -33.9419316 ], [ 115.2145709, -33.9419094 ], [ 115.2145975, -33.9419092 ], [ 115.214597, -33.9418649 ], [ 115.2146236, -33.9418646 ], [ 115.2146226, -33.941776 ], [ 115.214596, -33.9417762 ], [ 115.2145958, -33.941754 ], [ 115.2145692, -33.9417542 ], [ 115.2145689, -33.941732 ], [ 115.2144891, -33.9417327 ], [ 115.2144889, -33.9417105 ], [ 115.2144623, -33.9417107 ], [ 115.2144615, -33.9416442 ], [ 115.2144881, -33.941644 ], [ 115.2144876, -33.9415996 ], [ 115.214461, -33.9415999 ], [ 115.2144608, -33.9415777 ], [ 115.2143544, -33.9415785 ], [ 115.2143536, -33.941512 ], [ 115.2143802, -33.9415118 ], [ 115.2143797, -33.9414675 ], [ 115.2144063, -33.9414673 ], [ 115.2144058, -33.9414229 ], [ 115.2144324, -33.9414227 ], [ 115.2144322, -33.9414005 ], [ 115.2144588, -33.9414003 ], [ 115.2144583, -33.941356 ], [ 115.2144849, -33.9413558 ], [ 115.2144847, -33.9413336 ], [ 115.2145379, -33.9413332 ], [ 115.2145381, -33.9413554 ], [ 115.2145647, -33.9413552 ], [ 115.2145652, -33.9413995 ], [ 115.2145918, -33.9413993 ], [ 115.2145923, -33.9414436 ], [ 115.2146189, -33.9414434 ], [ 115.2146191, -33.9414656 ], [ 115.2146557, -33.9414653 ], [ 115.2145912, -33.9413328 ], [ 115.2145911, -33.9413328 ], [ 115.214591, -33.9413324 ], [ 115.2145698, -33.9412886 ], [ 115.214564, -33.9412887 ], [ 115.2145638, -33.9412764 ], [ 115.214559, -33.9412665 ], [ 115.2145371, -33.9412667 ], [ 115.2145366, -33.9412204 ], [ 115.2145299, -33.9412067 ], [ 115.2144828, -33.9412006 ], [ 115.2144566, -33.9412008 ], [ 115.2144576, -33.9412895 ], [ 115.214431, -33.9412897 ], [ 115.2144307, -33.9412675 ], [ 115.2143243, -33.9412683 ], [ 115.2143246, -33.9412905 ], [ 115.2142714, -33.9412909 ], [ 115.2142711, -33.9412688 ], [ 115.2140051, -33.9412708 ], [ 115.2140049, -33.9412486 ], [ 115.2139783, -33.9412489 ], [ 115.2139778, -33.9412045 ], [ 115.213898, -33.9412051 ], [ 115.2138977, -33.941183 ], [ 115.2138445, -33.9411834 ], [ 115.2138438, -33.9411183 ], [ 115.2138333, -33.9411169 ], [ 115.2137906, -33.9411173 ], [ 115.2137905, -33.9411114 ], [ 115.2137106, -33.9411011 ], [ 115.2137108, -33.9411179 ], [ 115.2136842, -33.9411181 ], [ 115.2136845, -33.9411403 ], [ 115.2136313, -33.9411407 ], [ 115.2136315, -33.9411629 ], [ 115.2136049, -33.9411631 ], [ 115.2136052, -33.9411852 ], [ 115.213552, -33.9411856 ], [ 115.2135517, -33.9411635 ], [ 115.2135251, -33.9411637 ], [ 115.2135249, -33.9411415 ], [ 115.2135781, -33.9411411 ], [ 115.2135778, -33.9411189 ], [ 115.213631, -33.9411185 ], [ 115.2136308, -33.9410963 ], [ 115.2136042, -33.9410966 ], [ 115.2136041, -33.9410874 ], [ 115.2135086, -33.9410751 ], [ 115.2134975, -33.9410752 ], [ 115.2134975, -33.9410737 ], [ 115.2134709, -33.9410703 ], [ 115.2134712, -33.9410976 ], [ 115.2134446, -33.9410978 ], [ 115.2134448, -33.94112 ], [ 115.2134356, -33.94112 ], [ 115.21344, -33.9417186 ], [ 115.2134515, -33.9417185 ], [ 115.2134525, -33.9418072 ], [ 115.2134407, -33.9418073 ], [ 115.213443, -33.9421177 ] ], [ [ 115.2138758, -33.9416044 ], [ 115.2138753, -33.94156 ], [ 115.2139019, -33.9415598 ], [ 115.2139015, -33.9415155 ], [ 115.2139281, -33.9415153 ], [ 115.2139276, -33.941471 ], [ 115.2140074, -33.9414703 ], [ 115.2140076, -33.9414925 ], [ 115.2140608, -33.9414921 ], [ 115.2140606, -33.9414699 ], [ 115.2141404, -33.9414693 ], [ 115.2141401, -33.9414471 ], [ 115.2142199, -33.9414465 ], [ 115.2142201, -33.9414687 ], [ 115.2142733, -33.9414683 ], [ 115.2142736, -33.9414905 ], [ 115.214247, -33.9414907 ], [ 115.2142477, -33.9415572 ], [ 115.2142211, -33.9415574 ], [ 115.2142214, -33.9415795 ], [ 115.2140618, -33.9415808 ], [ 115.2140625, -33.9416473 ], [ 115.2140891, -33.9416471 ], [ 115.2140894, -33.9416692 ], [ 115.214116, -33.941669 ], [ 115.2141162, -33.9416912 ], [ 115.2141694, -33.9416908 ], [ 115.2141697, -33.941713 ], [ 115.2141963, -33.9417128 ], [ 115.2141968, -33.9417571 ], [ 115.2141702, -33.9417573 ], [ 115.2141709, -33.9418238 ], [ 115.2141177, -33.9418242 ], [ 115.2141172, -33.9417799 ], [ 115.2140906, -33.9417801 ], [ 115.2140899, -33.9417136 ], [ 115.2140367, -33.941714 ], [ 115.2140364, -33.9416918 ], [ 115.2139566, -33.9416924 ], [ 115.2139561, -33.9416481 ], [ 115.2139295, -33.9416483 ], [ 115.2139293, -33.9416261 ], [ 115.2139027, -33.9416264 ], [ 115.2139024, -33.9416042 ], [ 115.2138758, -33.9416044 ] ], [ [ 115.2137958, -33.9415828 ], [ 115.2138224, -33.9415826 ], [ 115.2138226, -33.9416048 ], [ 115.213796, -33.941605 ], [ 115.2137963, -33.9416272 ], [ 115.2137697, -33.9416274 ], [ 115.2137699, -33.9416496 ], [ 115.2137167, -33.94165 ], [ 115.213716, -33.9415835 ], [ 115.2137426, -33.9415832 ], [ 115.2137424, -33.9415611 ], [ 115.2137955, -33.9415607 ], [ 115.2137958, -33.9415828 ] ], [ [ 115.2134761, -33.941541 ], [ 115.2135559, -33.9415404 ], [ 115.2135562, -33.9415625 ], [ 115.2135828, -33.9415623 ], [ 115.2135835, -33.9416288 ], [ 115.2135037, -33.9416294 ], [ 115.2135032, -33.9415851 ], [ 115.2134766, -33.9415853 ], [ 115.2134761, -33.941541 ] ], [ [ 115.2138192, -33.9412944 ], [ 115.2138724, -33.941294 ], [ 115.2138744, -33.9414714 ], [ 115.2138478, -33.9414716 ], [ 115.213848, -33.9414937 ], [ 115.2138214, -33.941494 ], [ 115.2138212, -33.9414718 ], [ 115.2137946, -33.941472 ], [ 115.2137928, -33.9413168 ], [ 115.2138194, -33.9413166 ], [ 115.2138192, -33.9412944 ] ], [ [ 115.2143827, -33.9417335 ], [ 115.2144093, -33.9417333 ], [ 115.2144098, -33.9417776 ], [ 115.2143832, -33.9417778 ], [ 115.2143827, -33.9417335 ] ], [ [ 115.214198, -33.9418679 ], [ 115.2141714, -33.9418682 ], [ 115.2141712, -33.941846 ], [ 115.2141978, -33.9418458 ], [ 115.214198, -33.9418679 ] ] ], [ [ [ 115.2139957, -33.9411379 ], [ 115.213977, -33.941138 ], [ 115.213977, -33.9411355 ], [ 115.2139504, -33.941132 ], [ 115.2139507, -33.9411604 ], [ 115.2140039, -33.94116 ], [ 115.2140037, -33.9411389 ], [ 115.2139957, -33.9411379 ] ] ], [ [ [ 115.2143204, -33.9411797 ], [ 115.2142701, -33.9411732 ], [ 115.2142701, -33.9411801 ], [ 115.2143204, -33.9411797 ] ] ], [ [ [ 115.2147408, -33.9418194 ], [ 115.2147371, -33.9416329 ], [ 115.2147094, -33.9415758 ], [ 115.2147002, -33.9415758 ], [ 115.2147026, -33.9417975 ], [ 115.2147292, -33.9417973 ], [ 115.2147295, -33.9418195 ], [ 115.2147408, -33.9418194 ] ] ], [ [ [ 115.213852, -33.9418485 ], [ 115.2138512, -33.9417819 ], [ 115.213798, -33.9417824 ], [ 115.2137988, -33.9418489 ], [ 115.213852, -33.9418485 ] ] ], [ [ [ 115.2147429, -33.9419302 ], [ 115.2147412, -33.9418416 ], [ 115.2147297, -33.9418417 ], [ 115.2147307, -33.9419303 ], [ 115.2147429, -33.9419302 ] ] ] ] } },
{ "type": "Feature", "properties": { "appName": "Rosa Brook 050425", "rate": 3.0, "rateInt": 3, "unit": "l/ha", "zone": 3 }, "geometry": { "type": "MultiPolygon", "coordinates": [ [ [ [ 115.213671, -33.941096 ], [ 115.2136308, -33.9410963 ], [ 115.213631, -33.9411185 ], [ 115.2135778, -33.9411189 ], [ 115.2135781, -33.9411411 ], [ 115.2135249, -33.9411415 ], [ 115.2135251, -33.9411637 ], [ 115.2135517, -33.9411635 ], [ 115.213552, -33.9411856 ], [ 115.2136052, -33.9411852 ], [ 115.2136049, -33.9411631 ], [ 115.2136315, -33.9411629 ], [ 115.2136313, -33.9411407 ], [ 115.2136845, -33.9411403 ], [ 115.2136842, -33.9411181 ], [ 115.2137108, -33.9411179 ], [ 115.2137106, -33.9411011 ], [ 115.213671, -33.941096 ] ] ], [ [ [ 115.2141369, -33.941156 ], [ 115.2140037, -33.9411389 ], [ 115.2140039, -33.94116 ], [ 115.2139507, -33.9411604 ], [ 115.2139504, -33.941132 ], [ 115.2138438, -33.9411183 ], [ 115.2138445, -33.9411834 ], [ 115.2138977, -33.941183 ], [ 115.213898, -33.9412051 ], [ 115.2139778, -33.9412045 ], [ 115.2139783, -33.9412489 ], [ 115.2140049, -33.9412486 ], [ 115.2140051, -33.9412708 ], [ 115.2142711, -33.9412688 ], [ 115.2142714, -33.9412909 ], [ 115.2143246, -33.9412905 ], [ 115.2143243, -33.9412683 ], [ 115.2144307, -33.9412675 ], [ 115.214431, -33.9412897 ], [ 115.2144576, -33.9412895 ], [ 115.2144566, -33.9412008 ], [ 115.21443, -33.941201 ], [ 115.2144299, -33.9411938 ], [ 115.2143204, -33.9411797 ], [ 115.2142701, -33.9411801 ], [ 115.2142701, -33.9411732 ], [ 115.2141581, -33.9411588 ], [ 115.2141369, -33.9411589 ], [ 115.2141369, -33.941156 ] ] ], [ [ [ 115.2138194, -33.9413166 ], [ 115.2137928, -33.9413168 ], [ 115.2137946, -33.941472 ], [ 115.2138212, -33.9414718 ], [ 115.2138214, -33.941494 ], [ 115.213848, -33.9414937 ], [ 115.2138478, -33.9414716 ], [ 115.2138744, -33.9414714 ], [ 115.2138724, -33.941294 ], [ 115.2138192, -33.9412944 ], [ 115.2138194, -33.9413166 ] ] ], [ [ [ 115.2146557, -33.9414653 ], [ 115.2146191, -33.9414656 ], [ 115.2146189, -33.9414434 ], [ 115.2145923, -33.9414436 ], [ 115.2145918, -33.9413993 ], [ 115.2145652, -33.9413995 ], [ 115.2145647, -33.9413552 ], [ 115.2145381, -33.9413554 ], [ 115.2145379, -33.9413332 ], [ 115.2144847, -33.9413336 ], [ 115.2144849, -33.9413558 ], [ 115.2144583, -33.941356 ], [ 115.2144588, -33.9414003 ], [ 115.2144322, -33.9414005 ], [ 115.2144324, -33.9414227 ], [ 115.2144058, -33.9414229 ], [ 115.2144063, -33.9414673 ], [ 115.2143797, -33.9414675 ], [ 115.2143802, -33.9415118 ], [ 115.2143536, -33.941512 ], [ 115.2143544, -33.9415785 ], [ 115.2144608, -33.9415777 ], [ 115.214461, -33.9415999 ], [ 115.2144876, -33.9415996 ], [ 115.2144881, -33.941644 ], [ 115.2144615, -33.9416442 ], [ 115.2144623, -33.9417107 ], [ 115.2144889, -33.9417105 ], [ 115.2144891, -33.9417327 ], [ 115.2145689, -33.941732 ], [ 115.2145692, -33.9417542 ], [ 115.2145958, -33.941754 ], [ 115.214596, -33.9417762 ], [ 115.2146226, -33.941776 ], [ 115.2146236, -33.9418646 ], [ 115.214597, -33.9418649 ], [ 115.2145975, -33.9419092 ], [ 115.2145709, -33.9419094 ], [ 115.2145711, -33.9419316 ], [ 115.2144647, -33.9419324 ], [ 115.214465, -33.9419546 ], [ 115.2144384, -33.9419548 ], [ 115.2144386, -33.9419769 ], [ 115.214412, -33.9419771 ], [ 115.2144123, -33.9419993 ], [ 115.2143857, -33.9419995 ], [ 115.2143859, -33.9420217 ], [ 115.2143593, -33.9420219 ], [ 115.2143598, -33.9420662 ], [ 115.2143864, -33.942066 ], [ 115.2143867, -33.9420882 ], [ 115.2146527, -33.9420861 ], [ 115.2146524, -33.942064 ], [ 115.2147056, -33.9420636 ], [ 115.2147054, -33.9420414 ], [ 115.214732, -33.9420412 ], [ 115.2147292, -33.9417973 ], [ 115.2147026, -33.9417975 ], [ 115.2147002, -33.9415758 ], [ 115.2147094, -33.9415758 ], [ 115.2146557, -33.9414653 ] ] ], [ [ [ 115.2135559, -33.9415404 ], [ 115.2134761, -33.941541 ], [ 115.2134766, -33.9415853 ], [ 115.2135032, -33.9415851 ], [ 115.2135037, -33.9416294 ], [ 115.2135835, -33.9416288 ], [ 115.2135828, -33.9415623 ], [ 115.2135562, -33.9415625 ], [ 115.2135559, -33.9415404 ] ] ] ] } }
]
}
