{
"type": "FeatureCollection",
"name": "block1rx",
"crs": { "type": "name", "properties": { "name": "urn:ogc:def:crs:OGC:1.3:CRS84" } },
"features": [
{ "type": "Feature", "properties": { "appName": "Brindle 17 Jan 2026", "rate": 1.0, "rateInt": 1, "unit": "l/ha", "zone": 1 }, "geometry": { "type": "MultiPolygon", "coordinates": [ [ [ [ 115.02660907178155, -33.786013523929711 ], [ 115.026946939492973, -33.786015247521092 ], [ 115.026958902518956, -33.7860153848398 ], [ 115.026957700506486, -33.786088403683308 ], [ 115.0268994012402, -33.786087734556887 ], [ 115.026899000551737, -33.786112074170404 ], [ 115.026869850911226, -33.786111739596485 ], [ 115.026869450213937, -33.78613607920952 ], [ 115.026840300565738, -33.786135744628318 ], [ 115.026839499152928, -33.7861844238533 ], [ 115.026810349488869, -33.786184089264445 ], [ 115.02680954805723, -33.786232768488262 ], [ 115.026751248697849, -33.786232099288327 ], [ 115.026751649430437, -33.786207759677247 ], [ 115.026722499759884, -33.786207425067332 ], [ 115.026723301239784, -33.786158745845647 ], [ 115.026635852281018, -33.786157741976965 ], [ 115.026636253044828, -33.786133402367135 ], [ 115.026607103401318, -33.786133067730859 ], [ 115.02660907178155, -33.786013523929711 ] ], [ [ 115.026811952345142, -33.786086730815605 ], [ 115.026841101976245, -33.786087065402917 ], [ 115.026841502680639, -33.786062725790067 ], [ 115.026812353057764, -33.786062391203139 ], [ 115.026811952345142, -33.786086730815605 ] ] ], [ [ [ 115.026227356329443, -33.786177396041523 ], [ 115.026256505981905, -33.78617773076806 ], [ 115.026257708594812, -33.786104711953783 ], [ 115.026286858223102, -33.786105046672269 ], [ 115.026283250442859, -33.78632410311593 ], [ 115.026312400145926, -33.786324437831034 ], [ 115.02631199928679, -33.786348777435776 ], [ 115.026341148998682, -33.786349112144393 ], [ 115.026339545589295, -33.786446470563909 ], [ 115.026310395844447, -33.786446135853744 ], [ 115.026308792392783, -33.786543494270099 ], [ 115.026221343062787, -33.786542490093595 ], [ 115.026221743951297, -33.786518150490828 ], [ 115.026192594184025, -33.786517815751942 ], [ 115.026196202228689, -33.786298759326009 ], [ 115.026225351921767, -33.786299094061384 ], [ 115.026227356329443, -33.786177396041523 ] ] ], [ [ [ 115.027770324122059, -33.786487235138999 ], [ 115.027770159381504, -33.786511577466392 ], [ 115.027767082899118, -33.786511542177166 ], [ 115.027764680183935, -33.786657579916714 ], [ 115.027769170938186, -33.786657631428817 ], [ 115.027768841457075, -33.78670631608226 ], [ 115.027763879274247, -33.786706259162443 ], [ 115.027763078362227, -33.786754938407761 ], [ 115.027768511975978, -33.78675500073534 ], [ 115.027768347235423, -33.786779343061738 ], [ 115.027762677905329, -33.786779278030266 ], [ 115.027761876989828, -33.786827957274994 ], [ 115.027768017754326, -33.7868280277143 ], [ 115.027767029311065, -33.786974081667267 ], [ 115.027730324282913, -33.786973660625705 ], [ 115.027730724752686, -33.786949321004379 ], [ 115.027701574815069, -33.786948986616849 ], [ 115.027703977670981, -33.786802948889147 ], [ 115.027674827783414, -33.78680261449707 ], [ 115.027675228265593, -33.786778274875822 ], [ 115.027646078386852, -33.786777940477251 ], [ 115.027646478876704, -33.786753600856287 ], [ 115.027675628747204, -33.786753935254488 ], [ 115.027677631146545, -33.786632237146286 ], [ 115.027648481317271, -33.786631902750031 ], [ 115.027650884226759, -33.786485865019216 ], [ 115.027680034006593, -33.786486199413126 ], [ 115.027681635901672, -33.786388840922363 ], [ 115.02771078564912, -33.786389175307839 ], [ 115.027711186113194, -33.786364835684502 ], [ 115.027769485593353, -33.786365504434016 ], [ 115.027767483349606, -33.786487202553552 ], [ 115.027770324122059, -33.786487235138999 ] ] ], [ [ [ 115.027534285113205, -33.786484527374739 ], [ 115.02750513533627, -33.786484192946418 ], [ 115.027505936383875, -33.786435513705904 ], [ 115.027535086144326, -33.786435848133451 ], [ 115.027534285113205, -33.786484527374739 ] ] ], [ [ [ 115.027034732392607, -33.786722237291208 ], [ 115.02703353040377, -33.786795256129558 ], [ 115.026975230655935, -33.786794587021838 ], [ 115.026975631335944, -33.786770247409947 ], [ 115.026946481471128, -33.786769912846147 ], [ 115.026947282845924, -33.786721233622835 ], [ 115.027034732392607, -33.786722237291208 ] ] ], [ [ [ 115.026508832756932, -33.786789233168854 ], [ 115.026479682893168, -33.786788898494528 ], [ 115.026480484532897, -33.786740219283871 ], [ 115.026509634380162, -33.786740553957429 ], [ 115.026508832756932, -33.786789233168854 ] ] ], [ [ [ 115.026446123879367, -33.787056299460524 ], [ 115.026475273833185, -33.787056634146005 ], [ 115.026474071350094, -33.787129652957951 ], [ 115.02641577139353, -33.787128983577745 ], [ 115.026416172238299, -33.787104643974637 ], [ 115.026387022269162, -33.787104309274604 ], [ 115.026387823973437, -33.787055630068878 ], [ 115.026358674021338, -33.787055295362734 ], [ 115.026359475739781, -33.787006616157385 ], [ 115.026330325804764, -33.787006281445144 ], [ 115.026331528402821, -33.786933262637532 ], [ 115.026302378493085, -33.786932927919565 ], [ 115.026304783722907, -33.786786890304022 ], [ 115.026363083444011, -33.786787559728388 ], [ 115.026362682590303, -33.786811899332008 ], [ 115.026391832459979, -33.786812234034258 ], [ 115.026391431613945, -33.786836573638176 ], [ 115.026420581492431, -33.786836908333939 ], [ 115.026418978135425, -33.786934266750137 ], [ 115.026389828223984, -33.786933932052825 ], [ 115.026389026525507, -33.786982611259539 ], [ 115.026418176453433, -33.786982945957639 ], [ 115.026417374769139, -33.78703162516473 ], [ 115.02644652471416, -33.787031959856726 ], [ 115.026446123879367, -33.787056299460524 ] ] ], [ [ [ 115.027318417390561, -33.787200333394992 ], [ 115.02722752692118, -33.787211333999693 ], [ 115.027143319097917, -33.787210367689092 ], [ 115.027143719738348, -33.787186028076562 ], [ 115.027114569729946, -33.787185693547443 ], [ 115.027114970378051, -33.787161353935197 ], [ 115.02708582037846, -33.787161019399605 ], [ 115.027086221034224, -33.787136679787636 ], [ 115.026998771063631, -33.787135676140693 ], [ 115.026998370383154, -33.787160015751482 ], [ 115.026940070389188, -33.787159346618331 ], [ 115.026939669691615, -33.787183686228232 ], [ 115.026881369683508, -33.787183017066759 ], [ 115.026880968968882, -33.787207356675779 ], [ 115.026822668946593, -33.787206687485998 ], [ 115.026823470408232, -33.787158008269394 ], [ 115.026794320414467, -33.787157673664943 ], [ 115.02679712556963, -33.786987296406394 ], [ 115.026738825699198, -33.786986627182308 ], [ 115.026739627199831, -33.786937947966237 ], [ 115.026827076956891, -33.786938951789701 ], [ 115.026826676231593, -33.786963291398969 ], [ 115.026855826160016, -33.786963625993408 ], [ 115.026855425442363, -33.786987965602947 ], [ 115.026884575379611, -33.786988300190892 ], [ 115.026884174669647, -33.787012639800729 ], [ 115.026942474562361, -33.787013308956752 ], [ 115.026942875255841, -33.786988969346147 ], [ 115.026972025194837, -33.786989303913437 ], [ 115.026972826563593, -33.786940624691148 ], [ 115.027001976486687, -33.786940959250785 ], [ 115.027002777836628, -33.786892280027303 ], [ 115.027061077651567, -33.786892949124358 ], [ 115.027061478309193, -33.786868609511686 ], [ 115.02709062820928, -33.786868944049495 ], [ 115.027091028858081, -33.786844604436347 ], [ 115.027149328643532, -33.786845273490542 ], [ 115.027149729275251, -33.78682093387652 ], [ 115.027237178933078, -33.786821937405023 ], [ 115.027236778326085, -33.786846277020217 ], [ 115.027265928221439, -33.786846611516339 ], [ 115.02726512702219, -33.786895290747239 ], [ 115.027294276934597, -33.786895625237243 ], [ 115.027293876342327, -33.786919964852935 ], [ 115.027323026263559, -33.786920299336451 ], [ 115.027322625678991, -33.78694463895242 ], [ 115.027380925539674, -33.7869453078996 ], [ 115.027381326107786, -33.786920968282836 ], [ 115.027439625954329, -33.786921637201708 ], [ 115.027440026505374, -33.786897297584069 ], [ 115.027527476254789, -33.786898300909563 ], [ 115.02752627467413, -33.786971319765648 ], [ 115.027497124732349, -33.786970985329546 ], [ 115.027496724196027, -33.786995324947647 ], [ 115.027467574246586, -33.786994990504262 ], [ 115.027467173701467, -33.787019330121886 ], [ 115.027438023744352, -33.787018995671218 ], [ 115.027437623190423, -33.787043335288338 ], [ 115.02740847322562, -33.787043000830423 ], [ 115.027408072662851, -33.787067340447045 ], [ 115.027378922690417, -33.787067005981847 ], [ 115.027378522118823, -33.787091345598007 ], [ 115.02734937213873, -33.787091011125518 ], [ 115.027348971558311, -33.787115350741175 ], [ 115.027319821570558, -33.787115016261431 ], [ 115.027318417390561, -33.787200333394992 ] ] ], [ [ [ 115.026623428314338, -33.786912269831952 ], [ 115.026652578222212, -33.786912604473798 ], [ 115.026652177448014, -33.786936944080814 ], [ 115.026681327364727, -33.786937278716174 ], [ 115.026680926598189, -33.786961618323481 ], [ 115.026593476825155, -33.786960614395575 ], [ 115.026594679197132, -33.786887595576879 ], [ 115.026623829096181, -33.786887930225213 ], [ 115.026623428314338, -33.786912269831952 ] ] ] ] } },
{ "type": "Feature", "properties": { "appName": "Brindle 17 Jan 2026", "rate": 2.0, "rateInt": 2, "unit": "l/ha", "zone": 2 }, "geometry": { "type": "MultiPolygon", "coordinates": [ [ [ [ 115.026550766454221, -33.786013226492109 ], [ 115.02660907178155, -33.786013523929711 ], [ 115.026607103401318, -33.786133067730859 ], [ 115.026636253044828, -33.786133402367135 ], [ 115.026635852281018, -33.786157741976965 ], [ 115.026723301239784, -33.786158745845647 ], [ 115.026722499759884, -33.786207425067332 ], [ 115.026751649430437, -33.786207759677247 ], [ 115.026751248697849, -33.786232099288327 ], [ 115.02680954805723, -33.786232768488262 ], [ 115.026810349488869, -33.786184089264445 ], [ 115.026839499152928, -33.7861844238533 ], [ 115.026840300565738, -33.786135744628318 ], [ 115.026869450213937, -33.78613607920952 ], [ 115.026869850911226, -33.786111739596485 ], [ 115.026899000551737, -33.786112074170404 ], [ 115.0268994012402, -33.786087734556887 ], [ 115.026957700506486, -33.786088403683308 ], [ 115.026958902518956, -33.7860153848398 ], [ 115.02719209940949, -33.78601806106083 ], [ 115.027191698805197, -33.786042400678568 ], [ 115.027220848427376, -33.786042735175613 ], [ 115.027221249023441, -33.786018395557498 ], [ 115.027541894815059, -33.786022074566354 ], [ 115.027541494309659, -33.786046414188753 ], [ 115.027599793568541, -33.78604708301075 ], [ 115.027599393079043, -33.786071422633825 ], [ 115.027657692356755, -33.786072091429055 ], [ 115.027658092829753, -33.786047751805206 ], [ 115.027716392093282, -33.786048420572136 ], [ 115.027716792549214, -33.786024080947399 ], [ 115.02774594217361, -33.786024415320156 ], [ 115.027745541725906, -33.786048754945277 ], [ 115.027773289452171, -33.7860490732307 ], [ 115.027772309613212, -33.786193855798864 ], [ 115.027769485593353, -33.786365504434016 ], [ 115.027711186113194, -33.786364835684502 ], [ 115.02771078564912, -33.786389175307839 ], [ 115.027681635901672, -33.786388840922363 ], [ 115.027680034006593, -33.786486199413126 ], [ 115.027650884226759, -33.786485865019216 ], [ 115.027648481317271, -33.786631902750031 ], [ 115.027677631146545, -33.786632237146286 ], [ 115.027675628747204, -33.786753935254488 ], [ 115.027646478876704, -33.786753600856287 ], [ 115.027646078386852, -33.786777940477251 ], [ 115.027675228265593, -33.786778274875822 ], [ 115.027674827783414, -33.78680261449707 ], [ 115.027703977670981, -33.786802948889147 ], [ 115.027701574815069, -33.786948986616849 ], [ 115.027730724752686, -33.786949321004379 ], [ 115.027730324282913, -33.786973660625705 ], [ 115.027767029311065, -33.786974081667267 ], [ 115.027765876127305, -33.787144477940181 ], [ 115.027669220971703, -33.787143369183966 ], [ 115.027668981810493, -33.787157904077254 ], [ 115.027594971949171, -33.787166861597598 ], [ 115.027552220441706, -33.787166371143172 ], [ 115.027552127038803, -33.787172047178942 ], [ 115.027411248625739, -33.787189097896608 ], [ 115.027318619801079, -33.787188035106645 ], [ 115.027319821570558, -33.787115016261431 ], [ 115.027348971558311, -33.787115350741175 ], [ 115.02734937213873, -33.787091011125518 ], [ 115.027378522118823, -33.787091345598007 ], [ 115.027378922690417, -33.787067005981847 ], [ 115.027408072662851, -33.787067340447045 ], [ 115.02740847322562, -33.787043000830423 ], [ 115.027437623190423, -33.787043335288338 ], [ 115.027438023744352, -33.787018995671218 ], [ 115.027467173701467, -33.787019330121886 ], [ 115.027467574246586, -33.786994990504262 ], [ 115.027496724196027, -33.786995324947647 ], [ 115.027497124732349, -33.786970985329546 ], [ 115.02752627467413, -33.786971319765648 ], [ 115.027527476254789, -33.786898300909563 ], [ 115.027440026505374, -33.786897297584069 ], [ 115.027439625954329, -33.786921637201708 ], [ 115.027381326107786, -33.786920968282836 ], [ 115.027380925539674, -33.7869453078996 ], [ 115.027322625678991, -33.78694463895242 ], [ 115.027323026263559, -33.786920299336451 ], [ 115.027293876342327, -33.786919964852935 ], [ 115.027294276934597, -33.786895625237243 ], [ 115.02726512702219, -33.786895290747239 ], [ 115.027265928221439, -33.786846611516339 ], [ 115.027236778326085, -33.786846277020217 ], [ 115.027237178933078, -33.786821937405023 ], [ 115.027149729275251, -33.78682093387652 ], [ 115.027149328643532, -33.786845273490542 ], [ 115.027091028858081, -33.786844604436347 ], [ 115.02709062820928, -33.786868944049495 ], [ 115.027061478309193, -33.786868609511686 ], [ 115.027061077651567, -33.786892949124358 ], [ 115.027002777836628, -33.786892280027303 ], [ 115.027001976486687, -33.786940959250785 ], [ 115.026972826563593, -33.786940624691148 ], [ 115.026972025194837, -33.786989303913437 ], [ 115.026942875255841, -33.786988969346147 ], [ 115.026942474562361, -33.787013308956752 ], [ 115.026884174669647, -33.787012639800729 ], [ 115.026884575379611, -33.786988300190892 ], [ 115.026855425442363, -33.786987965602947 ], [ 115.026855826160016, -33.786963625993408 ], [ 115.026826676231593, -33.786963291398969 ], [ 115.026827076956891, -33.786938951789701 ], [ 115.026739627199831, -33.786937947966237 ], [ 115.026738825699198, -33.786986627182308 ], [ 115.02679712556963, -33.786987296406394 ], [ 115.026794320414467, -33.787157673664943 ], [ 115.026823470408232, -33.787158008269394 ], [ 115.026822668946593, -33.787206687485998 ], [ 115.026880968968882, -33.787207356675779 ], [ 115.026881369683508, -33.787183017066759 ], [ 115.026939669691615, -33.787183686228232 ], [ 115.026940070389188, -33.787159346618331 ], [ 115.026998370383154, -33.787160015751482 ], [ 115.026998771063631, -33.787135676140693 ], [ 115.027086221034224, -33.787136679787636 ], [ 115.02708582037846, -33.787161019399605 ], [ 115.027114970378051, -33.787161353935197 ], [ 115.027114569729946, -33.787185693547443 ], [ 115.027143719738348, -33.787186028076562 ], [ 115.027143319097917, -33.787210367689092 ], [ 115.027114169081244, -33.787210033159596 ], [ 115.027113921335015, -33.787225083847758 ], [ 115.027043808206457, -33.787233569740906 ], [ 115.026589068083069, -33.787228350056516 ], [ 115.026589468880729, -33.787204010451475 ], [ 115.026560318875113, -33.787203675791169 ], [ 115.026560719680404, -33.787179336186426 ], [ 115.026356669715057, -33.787176993374345 ], [ 115.02635707057749, -33.787152653772225 ], [ 115.026327920593005, -33.787152319057633 ], [ 115.026329123201492, -33.78707930025184 ], [ 115.026286325916502, -33.787078808818293 ], [ 115.026288806091145, -33.786884992035482 ], [ 115.026274010661382, -33.786885109145324 ], [ 115.026274030346045, -33.786883913990728 ], [ 115.026259916968456, -33.786883751925487 ], [ 115.026259597505032, -33.786830251122296 ], [ 115.026228415012554, -33.786830933119333 ], [ 115.026230056199552, -33.786777736802122 ], [ 115.026198545473676, -33.786777600402615 ], [ 115.026200843127413, -33.786714583165875 ], [ 115.026189352215994, -33.786714643994877 ], [ 115.026189386993678, -33.786712532568217 ], [ 115.026175043256899, -33.78671236784858 ], [ 115.026174255962417, -33.786656749137329 ], [ 115.026142581119871, -33.786657021936705 ], [ 115.026143073489891, -33.786600415467291 ], [ 115.026132921451676, -33.786600513576794 ], [ 115.026133091909784, -33.786590165058058 ], [ 115.026114926696295, -33.786589956445937 ], [ 115.026117702253387, -33.786224825230804 ], [ 115.026139105564823, -33.786225071026507 ], [ 115.026141911892381, -33.786054693804083 ], [ 115.02617106150187, -33.786055028549328 ], [ 115.026171781859503, -33.786011293147908 ], [ 115.026317545158392, -33.786012036741802 ], [ 115.026317210410198, -33.78603236256636 ], [ 115.026346360014941, -33.78603269726991 ], [ 115.026345558326526, -33.786081376482464 ], [ 115.026374707948321, -33.786081711179904 ], [ 115.026373505436069, -33.786154729999183 ], [ 115.026344355789533, -33.786154395300571 ], [ 115.026342351549616, -33.786276093328709 ], [ 115.02637150123735, -33.786276428029261 ], [ 115.026371100395878, -33.786300767634991 ], [ 115.026400250092451, -33.786301102329048 ], [ 115.026399047589223, -33.786374121146793 ], [ 115.026428197311091, -33.786374455835137 ], [ 115.026425391507587, -33.786544833075737 ], [ 115.026454541287734, -33.786545167759925 ], [ 115.02645414046458, -33.786569507365712 ], [ 115.026483290253566, -33.786569842043427 ], [ 115.026482889438071, -33.786594181649498 ], [ 115.026453739640857, -33.786593846971414 ], [ 115.026452537166151, -33.786666865787879 ], [ 115.02662743610658, -33.786668873760178 ], [ 115.026626233775005, -33.786741892582761 ], [ 115.026597083925424, -33.78674155793675 ], [ 115.026595881563907, -33.786814576757266 ], [ 115.026625031438215, -33.786814911404441 ], [ 115.026624630658119, -33.786839251011465 ], [ 115.026712080309281, -33.786840254912875 ], [ 115.026712481064635, -33.786815915304665 ], [ 115.026741630941274, -33.786816249924328 ], [ 115.026742833179156, -33.786743231097965 ], [ 115.026713683327259, -33.786742896479481 ], [ 115.026715687086636, -33.786621198435512 ], [ 115.026686537276518, -33.786620863812104 ], [ 115.026686938034899, -33.786596524203397 ], [ 115.026657788233621, -33.786596189573494 ], [ 115.026658188999633, -33.786571849965071 ], [ 115.026599889415309, -33.786571180685385 ], [ 115.026600290197237, -33.786546841077659 ], [ 115.026571140414191, -33.786546506427882 ], [ 115.026571941992785, -33.786497827212891 ], [ 115.026601091759375, -33.786498161861886 ], [ 115.026601893319196, -33.786449482645715 ], [ 115.026572743569105, -33.786449147997494 ], [ 115.026573144356377, -33.786424808389647 ], [ 115.026514844874427, -33.786424139073333 ], [ 115.026515245677601, -33.786399799466167 ], [ 115.026486095945756, -33.786399464798066 ], [ 115.026486897566855, -33.786350785584226 ], [ 115.026457747852049, -33.786350450910021 ], [ 115.026458549487316, -33.78630177169655 ], [ 115.026429399789592, -33.786301437016235 ], [ 115.026430201439013, -33.786252757803155 ], [ 115.026401051758356, -33.786252423116736 ], [ 115.026402655083189, -33.786155064690917 ], [ 115.026431804730876, -33.786155399375751 ], [ 115.026432205552382, -33.786131059768664 ], [ 115.026461355192438, -33.78613139444623 ], [ 115.026461756005119, -33.786107054838645 ], [ 115.026520055270439, -33.786107724172375 ], [ 115.026520856861097, -33.786059044955344 ], [ 115.026550006478175, -33.786059379611096 ], [ 115.026550766454221, -33.786013226492109 ] ], [ [ 115.027358585327974, -33.786531199937727 ], [ 115.027358184760899, -33.786555539555685 ], [ 115.027329034962733, -33.786555205084881 ], [ 115.027328233810394, -33.786603884319717 ], [ 115.027299083996311, -33.78660354984126 ], [ 115.027299484581022, -33.786579210224282 ], [ 115.027270334775764, -33.786578875739323 ], [ 115.027271536551098, -33.786505856888958 ], [ 115.027300686331614, -33.786506191372744 ], [ 115.027302288657637, -33.786408832902616 ], [ 115.02727313891009, -33.786408498420393 ], [ 115.02727394008609, -33.786359819185506 ], [ 115.02724479035561, -33.786359484697172 ], [ 115.027246392733616, -33.786262126227768 ], [ 115.027304692129235, -33.786262795194446 ], [ 115.027306695006232, -33.786141097101542 ], [ 115.027190096382157, -33.786139759148448 ], [ 115.027188894558805, -33.786212777999815 ], [ 115.027159744879498, -33.786212443493156 ], [ 115.027159344262301, -33.786236783109693 ], [ 115.027071895203193, -33.786235779547276 ], [ 115.027072295845116, -33.786211439931904 ], [ 115.027043146168154, -33.786211105397712 ], [ 115.027043546817737, -33.786186765782638 ], [ 115.0270143971496, -33.786186431241958 ], [ 115.027014797806842, -33.786162091627176 ], [ 115.026927348830625, -33.786161087964999 ], [ 115.026926948148642, -33.786185427578616 ], [ 115.026897798482821, -33.786185093010396 ], [ 115.026895795023037, -33.786306791075035 ], [ 115.026924944730055, -33.786307125645202 ], [ 115.026922941296945, -33.786428823709294 ], [ 115.026952091045771, -33.786429158274515 ], [ 115.026951690365649, -33.786453497887429 ], [ 115.026980840123301, -33.786453832446156 ], [ 115.026980439450838, -33.786478172059361 ], [ 115.0270095892173, -33.786478506611594 ], [ 115.027008787887127, -33.786527185838487 ], [ 115.027037937670656, -33.786527520384595 ], [ 115.027037537012959, -33.786551859998276 ], [ 115.027066686805313, -33.786552194537919 ], [ 115.027066286155232, -33.786576534151891 ], [ 115.02715373556056, -33.786577537730658 ], [ 115.027153334934624, -33.786601877345682 ], [ 115.027182484745822, -33.786602211858579 ], [ 115.027182084127546, -33.786626551473908 ], [ 115.027211233947568, -33.786626885980297 ], [ 115.027210833336966, -33.786651225595911 ], [ 115.027239983165785, -33.786651560095791 ], [ 115.027239582562856, -33.786675899711689 ], [ 115.027268732400501, -33.786676234205089 ], [ 115.027267931209394, -33.786724913437396 ], [ 115.02729708106412, -33.786725247924679 ], [ 115.027296680475928, -33.786749587541046 ], [ 115.02732583033945, -33.786749922021848 ], [ 115.027325029177831, -33.786798601255093 ], [ 115.02735417905842, -33.786798935729792 ], [ 115.027353377910956, -33.786847614963399 ], [ 115.02741167770688, -33.786848283893697 ], [ 115.027412078264405, -33.786823944276158 ], [ 115.027441228155013, -33.786824278730585 ], [ 115.027441628703713, -33.786799939112562 ], [ 115.027529078354235, -33.786800942433388 ], [ 115.027529879400461, -33.786752263194693 ], [ 115.027559029268673, -33.786752597620413 ], [ 115.02755942978267, -33.786728258000529 ], [ 115.027588579643194, -33.786728592418974 ], [ 115.027588980148352, -33.786704252798607 ], [ 115.027618130001215, -33.786704587209783 ], [ 115.027618930993356, -33.786655907967969 ], [ 115.027589781156976, -33.786655573557567 ], [ 115.027590982665529, -33.786582554695237 ], [ 115.027561832854474, -33.786582220279115 ], [ 115.027562233364392, -33.786557880658549 ], [ 115.027503933760499, -33.786557211806418 ], [ 115.027504334286348, -33.78653287218652 ], [ 115.027358585327974, -33.786531199937727 ] ], [ [ 115.026256505981905, -33.78617773076806 ], [ 115.026227356329443, -33.786177396041523 ], [ 115.026225351921767, -33.786299094061384 ], [ 115.026196202228689, -33.786298759326009 ], [ 115.026192594184025, -33.786517815751942 ], [ 115.026221743951297, -33.786518150490828 ], [ 115.026221343062787, -33.786542490093595 ], [ 115.026308792392783, -33.786543494270099 ], [ 115.026310395844447, -33.786446135853744 ], [ 115.026339545589295, -33.786446470563909 ], [ 115.026341148998682, -33.786349112144393 ], [ 115.02631199928679, -33.786348777435776 ], [ 115.026312400145926, -33.786324437831034 ], [ 115.026283250442859, -33.78632410311593 ], [ 115.026286858223102, -33.786105046672269 ], [ 115.026257708594812, -33.786104711953783 ], [ 115.026256505981905, -33.78617773076806 ] ], [ [ 115.027728321925338, -33.787095358730809 ], [ 115.027729122870113, -33.787046679489073 ], [ 115.027670822929508, -33.787046010703996 ], [ 115.027670422440934, -33.787070350324129 ], [ 115.027641272463271, -33.787070015920882 ], [ 115.027640871965858, -33.787094355540532 ], [ 115.027728321925338, -33.787095358730809 ] ], [ [ 115.026946481471128, -33.786769912846147 ], [ 115.026975631335944, -33.786770247409947 ], [ 115.026975230655935, -33.786794587021838 ], [ 115.02703353040377, -33.786795256129558 ], [ 115.027034732392607, -33.786722237291208 ], [ 115.026947282845924, -33.786721233622835 ], [ 115.026946481471128, -33.786769912846147 ] ], [ [ 115.026474071350094, -33.787129652957951 ], [ 115.026475273833185, -33.787056634146005 ], [ 115.026446123879367, -33.787056299460524 ], [ 115.02644652471416, -33.787031959856726 ], [ 115.026417374769139, -33.78703162516473 ], [ 115.026418176453433, -33.786982945957639 ], [ 115.026389026525507, -33.786982611259539 ], [ 115.026389828223984, -33.786933932052825 ], [ 115.026418978135425, -33.786934266750137 ], [ 115.026420581492431, -33.786836908333939 ], [ 115.026391431613945, -33.786836573638176 ], [ 115.026391832459979, -33.786812234034258 ], [ 115.026362682590303, -33.786811899332008 ], [ 115.026363083444011, -33.786787559728388 ], [ 115.026304783722907, -33.786786890304022 ], [ 115.026302378493085, -33.786932927919565 ], [ 115.026331528402821, -33.786933262637532 ], [ 115.026330325804764, -33.787006281445144 ], [ 115.026359475739781, -33.787006616157385 ], [ 115.026358674021338, -33.787055295362734 ], [ 115.026387823973437, -33.787055630068878 ], [ 115.026387022269162, -33.787104309274604 ], [ 115.026416172238299, -33.787104643974637 ], [ 115.02641577139353, -33.787128983577745 ], [ 115.026474071350094, -33.787129652957951 ] ], [ [ 115.027568240943708, -33.786192786337786 ], [ 115.027539091265083, -33.786192451921018 ], [ 115.027539491773965, -33.786168112299222 ], [ 115.027510342104193, -33.786167777875953 ], [ 115.02750994158707, -33.78619211749735 ], [ 115.027451642232762, -33.786191448629395 ], [ 115.027451241698586, -33.786215788249912 ], [ 115.027422092014064, -33.786215453805227 ], [ 115.02742129092745, -33.786264133045172 ], [ 115.027392141227025, -33.786263798592827 ], [ 115.027391740674602, -33.786288138212278 ], [ 115.027362590966518, -33.786287803752636 ], [ 115.027361389281054, -33.786360822609204 ], [ 115.027390539013879, -33.786361157070026 ], [ 115.027390138459111, -33.786385496689064 ], [ 115.027419288200761, -33.78638583114337 ], [ 115.027419688747273, -33.786361491523934 ], [ 115.027448838481234, -33.786361825970964 ], [ 115.027449239018921, -33.786337486351044 ], [ 115.027478388745223, -33.786337820790791 ], [ 115.027478789274085, -33.786313481170389 ], [ 115.027507938992755, -33.786313815602874 ], [ 115.027508339512778, -33.786289475981974 ], [ 115.027537489223761, -33.786289810407183 ], [ 115.027537889734958, -33.786265470785793 ], [ 115.02756703943831, -33.786265805203733 ], [ 115.027568240943708, -33.786192786337786 ] ], [ [ 115.026832286332933, -33.786622536860328 ], [ 115.026831484896846, -33.786671216081324 ], [ 115.026860634726347, -33.786671550671109 ], [ 115.02686143614595, -33.78662287144931 ], [ 115.026832286332933, -33.786622536860328 ] ], [ [ 115.026593476825155, -33.786960614395575 ], [ 115.026680926598189, -33.786961618323481 ], [ 115.026681327364727, -33.786937278716174 ], [ 115.026652177448014, -33.786936944080814 ], [ 115.026652578222212, -33.786912604473798 ], [ 115.026623428314338, -33.786912269831952 ], [ 115.026623829096181, -33.786887930225213 ], [ 115.026594679197132, -33.786887595576879 ], [ 115.026593476825155, -33.786960614395575 ] ], [ [ 115.027535086144326, -33.786435848133451 ], [ 115.027505936383875, -33.786435513705904 ], [ 115.02750513533627, -33.786484192946418 ], [ 115.027534285113205, -33.786484527374739 ], [ 115.027535086144326, -33.786435848133451 ] ], [ [ 115.026534776171047, -33.786984284681161 ], [ 115.026535176979351, -33.786959945075907 ], [ 115.026506027057337, -33.786959610405738 ], [ 115.026506427873301, -33.786935270800775 ], [ 115.026477277960112, -33.786934936124112 ], [ 115.026476476311075, -33.786983615333163 ], [ 115.026534776171047, -33.786984284681161 ] ], [ [ 115.026508832756932, -33.786789233168854 ], [ 115.026509634380162, -33.786740553957429 ], [ 115.026480484532897, -33.786740219283871 ], [ 115.026479682893168, -33.786788898494528 ], [ 115.026508832756932, -33.786789233168854 ] ] ], [ [ [ 115.027770324122059, -33.786487235138999 ], [ 115.027767483349606, -33.786487202553552 ], [ 115.027768284248836, -33.786438523306039 ], [ 115.02777065360317, -33.786438550483979 ], [ 115.027770324122059, -33.786487235138999 ] ] ] ] } },
{ "type": "Feature", "properties": { "appName": "Brindle 17 Jan 2026", "rate": 3.0, "rateInt": 3, "unit": "l/ha", "zone": 3 }, "geometry": { "type": "MultiPolygon", "coordinates": [ [ [ [ 115.026117702253387, -33.786224825230804 ], [ 115.02611932745873, -33.786011025558111 ], [ 115.026171781859503, -33.786011293147908 ], [ 115.02617106150187, -33.786055028549328 ], [ 115.026141911892381, -33.786054693804083 ], [ 115.026139105564823, -33.786225071026507 ], [ 115.026117702253387, -33.786224825230804 ] ] ], [ [ [ 115.026317545158392, -33.786012036741802 ], [ 115.026550766454221, -33.786013226492109 ], [ 115.026550006478175, -33.786059379611096 ], [ 115.026520856861097, -33.786059044955344 ], [ 115.026520055270439, -33.786107724172375 ], [ 115.026461756005119, -33.786107054838645 ], [ 115.026461355192438, -33.78613139444623 ], [ 115.026432205552382, -33.786131059768664 ], [ 115.026431804730876, -33.786155399375751 ], [ 115.026402655083189, -33.786155064690917 ], [ 115.026401051758356, -33.786252423116736 ], [ 115.026430201439013, -33.786252757803155 ], [ 115.026429399789592, -33.786301437016235 ], [ 115.026458549487316, -33.78630177169655 ], [ 115.026457747852049, -33.786350450910021 ], [ 115.026486897566855, -33.786350785584226 ], [ 115.026486095945756, -33.786399464798066 ], [ 115.026515245677601, -33.786399799466167 ], [ 115.026514844874427, -33.786424139073333 ], [ 115.026573144356377, -33.786424808389647 ], [ 115.026572743569105, -33.786449147997494 ], [ 115.026601893319196, -33.786449482645715 ], [ 115.026601091759375, -33.786498161861886 ], [ 115.026571941992785, -33.786497827212891 ], [ 115.026571140414191, -33.786546506427882 ], [ 115.026600290197237, -33.786546841077659 ], [ 115.026599889415309, -33.786571180685385 ], [ 115.026658188999633, -33.786571849965071 ], [ 115.026657788233621, -33.786596189573494 ], [ 115.026686938034899, -33.786596524203397 ], [ 115.026686537276518, -33.786620863812104 ], [ 115.026715687086636, -33.786621198435512 ], [ 115.026713683327259, -33.786742896479481 ], [ 115.026742833179156, -33.786743231097965 ], [ 115.026741630941274, -33.786816249924328 ], [ 115.026712481064635, -33.786815915304665 ], [ 115.026712080309281, -33.786840254912875 ], [ 115.026624630658119, -33.786839251011465 ], [ 115.026625031438215, -33.786814911404441 ], [ 115.026595881563907, -33.786814576757266 ], [ 115.026597083925424, -33.78674155793675 ], [ 115.026626233775005, -33.786741892582761 ], [ 115.02662743610658, -33.786668873760178 ], [ 115.026452537166151, -33.786666865787879 ], [ 115.026453739640857, -33.786593846971414 ], [ 115.026482889438071, -33.786594181649498 ], [ 115.026483290253566, -33.786569842043427 ], [ 115.02645414046458, -33.786569507365712 ], [ 115.026454541287734, -33.786545167759925 ], [ 115.026425391507587, -33.786544833075737 ], [ 115.026428197311091, -33.786374455835137 ], [ 115.026399047589223, -33.786374121146793 ], [ 115.026400250092451, -33.786301102329048 ], [ 115.026371100395878, -33.786300767634991 ], [ 115.02637150123735, -33.786276428029261 ], [ 115.026342351549616, -33.786276093328709 ], [ 115.026344355789533, -33.786154395300571 ], [ 115.026373505436069, -33.786154729999183 ], [ 115.026374707948321, -33.786081711179904 ], [ 115.026345558326526, -33.786081376482464 ], [ 115.026346360014941, -33.78603269726991 ], [ 115.026317210410198, -33.78603236256636 ], [ 115.026317545158392, -33.786012036741802 ] ] ], [ [ [ 115.027220848427376, -33.786042735175613 ], [ 115.027191698805197, -33.786042400678568 ], [ 115.02719209940949, -33.78601806106083 ], [ 115.027221249023441, -33.786018395557498 ], [ 115.027220848427376, -33.786042735175613 ] ] ], [ [ [ 115.027541494309659, -33.786046414188753 ], [ 115.027541894815059, -33.786022074566354 ], [ 115.027716792549214, -33.786024080947399 ], [ 115.027716392093282, -33.786048420572136 ], [ 115.027658092829753, -33.786047751805206 ], [ 115.027657692356755, -33.786072091429055 ], [ 115.027599393079043, -33.786071422633825 ], [ 115.027599793568541, -33.78604708301075 ], [ 115.027541494309659, -33.786046414188753 ] ] ], [ [ [ 115.027773289452171, -33.7860490732307 ], [ 115.027745541725906, -33.786048754945277 ], [ 115.02774594217361, -33.786024415320156 ], [ 115.02777345419274, -33.786024730901588 ], [ 115.027773289452171, -33.7860490732307 ] ] ], [ [ [ 115.027529078354235, -33.786800942433388 ], [ 115.027441628703713, -33.786799939112562 ], [ 115.027441228155013, -33.786824278730585 ], [ 115.027412078264405, -33.786823944276158 ], [ 115.02741167770688, -33.786848283893697 ], [ 115.027353377910956, -33.786847614963399 ], [ 115.02735417905842, -33.786798935729792 ], [ 115.027325029177831, -33.786798601255093 ], [ 115.02732583033945, -33.786749922021848 ], [ 115.027296680475928, -33.786749587541046 ], [ 115.02729708106412, -33.786725247924679 ], [ 115.027267931209394, -33.786724913437396 ], [ 115.027268732400501, -33.786676234205089 ], [ 115.027239582562856, -33.786675899711689 ], [ 115.027239983165785, -33.786651560095791 ], [ 115.027210833336966, -33.786651225595911 ], [ 115.027211233947568, -33.786626885980297 ], [ 115.027182084127546, -33.786626551473908 ], [ 115.027182484745822, -33.786602211858579 ], [ 115.027153334934624, -33.786601877345682 ], [ 115.02715373556056, -33.786577537730658 ], [ 115.027066286155232, -33.786576534151891 ], [ 115.027066686805313, -33.786552194537919 ], [ 115.027037537012959, -33.786551859998276 ], [ 115.027037937670656, -33.786527520384595 ], [ 115.027008787887127, -33.786527185838487 ], [ 115.0270095892173, -33.786478506611594 ], [ 115.026980439450838, -33.786478172059361 ], [ 115.026980840123301, -33.786453832446156 ], [ 115.026951690365649, -33.786453497887429 ], [ 115.026952091045771, -33.786429158274515 ], [ 115.026922941296945, -33.786428823709294 ], [ 115.026924944730055, -33.786307125645202 ], [ 115.026895795023037, -33.786306791075035 ], [ 115.026897798482821, -33.786185093010396 ], [ 115.026926948148642, -33.786185427578616 ], [ 115.026927348830625, -33.786161087964999 ], [ 115.027014797806842, -33.786162091627176 ], [ 115.0270143971496, -33.786186431241958 ], [ 115.027043546817737, -33.786186765782638 ], [ 115.027043146168154, -33.786211105397712 ], [ 115.027072295845116, -33.786211439931904 ], [ 115.027071895203193, -33.786235779547276 ], [ 115.027159344262301, -33.786236783109693 ], [ 115.027159744879498, -33.786212443493156 ], [ 115.027188894558805, -33.786212777999815 ], [ 115.027190096382157, -33.786139759148448 ], [ 115.027306695006232, -33.786141097101542 ], [ 115.027304692129235, -33.786262795194446 ], [ 115.027246392733616, -33.786262126227768 ], [ 115.02724479035561, -33.786359484697172 ], [ 115.02727394008609, -33.786359819185506 ], [ 115.02727313891009, -33.786408498420393 ], [ 115.027302288657637, -33.786408832902616 ], [ 115.027300686331614, -33.786506191372744 ], [ 115.027271536551098, -33.786505856888958 ], [ 115.027270334775764, -33.786578875739323 ], [ 115.027299484581022, -33.786579210224282 ], [ 115.027299083996311, -33.78660354984126 ], [ 115.027328233810394, -33.786603884319717 ], [ 115.027329034962733, -33.786555205084881 ], [ 115.027358184760899, -33.786555539555685 ], [ 115.027358585327974, -33.786531199937727 ], [ 115.027504334286348, -33.78653287218652 ], [ 115.027503933760499, -33.786557211806418 ], [ 115.027562233364392, -33.786557880658549 ], [ 115.027561832854474, -33.786582220279115 ], [ 115.027590982665529, -33.786582554695237 ], [ 115.027589781156976, -33.786655573557567 ], [ 115.027618930993356, -33.786655907967969 ], [ 115.027618130001215, -33.786704587209783 ], [ 115.027588980148352, -33.786704252798607 ], [ 115.027588579643194, -33.786728592418974 ], [ 115.02755942978267, -33.786728258000529 ], [ 115.027559029268673, -33.786752597620413 ], [ 115.027529879400461, -33.786752263194693 ], [ 115.027529078354235, -33.786800942433388 ] ] ], [ [ [ 115.027539091265083, -33.786192451921018 ], [ 115.027568240943708, -33.786192786337786 ], [ 115.02756703943831, -33.786265805203733 ], [ 115.027537889734958, -33.786265470785793 ], [ 115.027537489223761, -33.786289810407183 ], [ 115.027508339512778, -33.786289475981974 ], [ 115.027507938992755, -33.786313815602874 ], [ 115.027478789274085, -33.786313481170389 ], [ 115.027478388745223, -33.786337820790791 ], [ 115.027449239018921, -33.786337486351044 ], [ 115.027448838481234, -33.786361825970964 ], [ 115.027419688747273, -33.786361491523934 ], [ 115.027419288200761, -33.78638583114337 ], [ 115.027390138459111, -33.786385496689064 ], [ 115.027390539013879, -33.786361157070026 ], [ 115.027361389281054, -33.786360822609204 ], [ 115.027362590966518, -33.786287803752636 ], [ 115.027391740674602, -33.786288138212278 ], [ 115.027392141227025, -33.786263798592827 ], [ 115.02742129092745, -33.786264133045172 ], [ 115.027422092014064, -33.786215453805227 ], [ 115.027451241698586, -33.786215788249912 ], [ 115.027451642232762, -33.786191448629395 ], [ 115.02750994158707, -33.78619211749735 ], [ 115.027510342104193, -33.786167777875953 ], [ 115.027539491773965, -33.786168112299222 ], [ 115.027539091265083, -33.786192451921018 ] ] ], [ [ [ 115.026860634726347, -33.786671550671109 ], [ 115.026831484896846, -33.786671216081324 ], [ 115.026832286332933, -33.786622536860328 ], [ 115.02686143614595, -33.78662287144931 ], [ 115.026860634726347, -33.786671550671109 ] ] ], [ [ [ 115.026506027057337, -33.786959610405738 ], [ 115.026535176979351, -33.786959945075907 ], [ 115.026534776171047, -33.786984284681161 ], [ 115.026476476311075, -33.786983615333163 ], [ 115.026477277960112, -33.786934936124112 ], [ 115.026506427873301, -33.786935270800775 ], [ 115.026506027057337, -33.786959610405738 ] ] ], [ [ [ 115.027729122870113, -33.787046679489073 ], [ 115.027728321925338, -33.787095358730809 ], [ 115.027640871965858, -33.787094355540532 ], [ 115.027641272463271, -33.787070015920882 ], [ 115.027670422440934, -33.787070350324129 ], [ 115.027670822929508, -33.787046010703996 ], [ 115.027729122870113, -33.787046679489073 ] ] ], [ [ [ 115.026286325916502, -33.787078808818293 ], [ 115.026329123201492, -33.78707930025184 ], [ 115.026327920593005, -33.787152319057633 ], [ 115.02635707057749, -33.787152653772225 ], [ 115.026356669715057, -33.787176993374345 ], [ 115.026560719680404, -33.787179336186426 ], [ 115.026560318875113, -33.787203675791169 ], [ 115.026589468880729, -33.787204010451475 ], [ 115.026589068083069, -33.787228350056516 ], [ 115.026284457069025, -33.787224852568464 ], [ 115.026286325916502, -33.787078808818293 ] ] ] ] } }
]
}
