{
"type": "FeatureCollection",
"name": "block1boundary",
"crs": { "type": "name", "properties": { "name": "urn:ogc:def:crs:OGC:1.3:CRS84" } },
"features": [
{ "type": "Feature", "properties": { "name": "Brindle 17 Jan 2026" }, "geometry": { "type": "MultiPolygon", "coordinates": [ [ [ [ 115.02611932745873, -33.786011025558111 ], [ 115.027773489836875, -33.786019464067984 ], [ 115.027765864620449, -33.787146178210932 ], [ 115.027032060848796, -33.787234991540558 ], [ 115.026284378984485, -33.787230954596076 ], [ 115.026288806091145, -33.786884992035482 ], [ 115.026259925738373, -33.786885220631305 ], [ 115.026259597505032, -33.786830251122296 ], [ 115.026228415012554, -33.786830933119333 ], [ 115.026230056199552, -33.786777736802122 ], [ 115.026198545473676, -33.786777600402615 ], [ 115.026200843127413, -33.786714583165875 ], [ 115.02617507654594, -33.786714719565452 ], [ 115.026174255962417, -33.786656749137329 ], [ 115.026142581119871, -33.786657021936705 ], [ 115.026143073489891, -33.786600415467291 ], [ 115.026114845118002, -33.786600688266851 ], [ 115.02611932745873, -33.786011025558111 ] ] ] ] } }
]
}
