{
"type": "FeatureCollection",
"name": "NDVI - Block A 3 zones_Rx",
"features": [
{ "type": "Feature", "properties": { "appName": "Island Brook 080125", "rate": 1.0, "rateInt": 1, "unit": "l/ha", "zone": 1 }, "geometry": { "type": "MultiPolygon", "coordinates": [ [ [ [ 115.1527494, -33.7534617 ], [ 115.1526805, -33.753453 ], [ 115.1526851, -33.7535009 ], [ 115.1527087, -33.753504 ], [ 115.1527036, -33.7535307 ], [ 115.1526877, -33.7535286 ], [ 115.152693, -33.7535841 ], [ 115.1526936, -33.7535841 ], [ 115.1526932, -33.753586 ], [ 115.1526956, -33.7536118 ], [ 115.1527845, -33.7536235 ], [ 115.1527744, -33.7536769 ], [ 115.1528064, -33.7536811 ], [ 115.1528114, -33.7536544 ], [ 115.1528434, -33.7536586 ], [ 115.1528384, -33.7536853 ], [ 115.1529983, -33.7537064 ], [ 115.1530033, -33.7536797 ], [ 115.1530353, -33.7536839 ], [ 115.1530404, -33.7536572 ], [ 115.1530723, -33.7536614 ], [ 115.1530875, -33.7535812 ], [ 115.1528956, -33.753556 ], [ 115.1528905, -33.7535827 ], [ 115.1527946, -33.75357 ], [ 115.1527996, -33.7535433 ], [ 115.1527676, -33.7535391 ], [ 115.1527777, -33.7534857 ], [ 115.1527457, -33.7534815 ], [ 115.1527494, -33.7534617 ] ] ], [ [ [ 115.1527009, -33.7536672 ], [ 115.1527104, -33.7536685 ], [ 115.1527155, -33.7536418 ], [ 115.1526983, -33.7536395 ], [ 115.1527009, -33.7536672 ] ] ], [ [ [ 115.1527088, -33.7537504 ], [ 115.1527273, -33.7537529 ], [ 115.1527424, -33.7536727 ], [ 115.1527104, -33.7536685 ], [ 115.1527042, -33.7537015 ], [ 115.1527088, -33.7537504 ] ] ], [ [ [ 115.1536466, -33.7539287 ], [ 115.1536448, -33.7539284 ], [ 115.1536498, -33.7539017 ], [ 115.1536179, -33.7538975 ], [ 115.1536128, -33.7539242 ], [ 115.1535808, -33.75392 ], [ 115.1535762, -33.7539447 ], [ 115.1536416, -33.7539528 ], [ 115.1536466, -33.7539287 ] ] ], [ [ [ 115.1527141, -33.7538059 ], [ 115.1527152, -33.753817 ], [ 115.1527172, -33.7538063 ], [ 115.1527141, -33.7538059 ] ] ], [ [ [ 115.1530956, -33.7538853 ], [ 115.153096, -33.7538835 ], [ 115.153032, -33.7538751 ], [ 115.1530371, -33.7538484 ], [ 115.1529411, -33.7538358 ], [ 115.1529361, -33.7538625 ], [ 115.1529041, -33.7538583 ], [ 115.1529034, -33.7538616 ], [ 115.1530956, -33.7538853 ] ] ], [ [ [ 115.1532238, -33.7539012 ], [ 115.1532239, -33.7539004 ], [ 115.15316, -33.753892 ], [ 115.1531597, -33.7538933 ], [ 115.1532238, -33.7539012 ] ] ] ] } },
{ "type": "Feature", "properties": { "appName": "Island Brook 080125", "rate": 2.0, "rateInt": 2, "unit": "l/ha", "zone": 2 }, "geometry": { "type": "Polygon", "coordinates": [ [ [ 115.1537018, -33.7536621 ], [ 115.1537181, -33.7535833 ], [ 115.153614, -33.7535702 ], [ 115.1535992, -33.7536486 ], [ 115.1535673, -33.7536444 ], [ 115.1535622, -33.7536711 ], [ 115.1535302, -33.7536669 ], [ 115.1535202, -33.7537203 ], [ 115.1534882, -33.7537161 ], [ 115.1534831, -33.7537428 ], [ 115.1534511, -33.7537386 ], [ 115.1534461, -33.7537653 ], [ 115.1532862, -33.7537443 ], [ 115.1532811, -33.753771 ], [ 115.1532491, -33.7537668 ], [ 115.1532441, -33.7537935 ], [ 115.1532121, -33.7537893 ], [ 115.1532071, -33.753816 ], [ 115.1531751, -33.7538118 ], [ 115.15317, -33.7538385 ], [ 115.1530741, -33.7538259 ], [ 115.1530791, -33.7537992 ], [ 115.1530471, -33.753795 ], [ 115.1530522, -33.7537682 ], [ 115.1530842, -33.7537725 ], [ 115.1530892, -33.7537457 ], [ 115.1531212, -33.75375 ], [ 115.1531313, -33.7536965 ], [ 115.1531633, -33.7537007 ], [ 115.1531733, -33.7536473 ], [ 115.1532053, -33.7536515 ], [ 115.1532104, -33.7536248 ], [ 115.1532424, -33.753629 ], [ 115.1532524, -33.7535756 ], [ 115.1532205, -33.7535713 ], [ 115.1532255, -33.7535446 ], [ 115.1531935, -33.7535404 ], [ 115.1531977, -33.753518 ], [ 115.1527494, -33.7534617 ], [ 115.1527457, -33.7534815 ], [ 115.1527777, -33.7534857 ], [ 115.1527676, -33.7535391 ], [ 115.1527996, -33.7535433 ], [ 115.1527946, -33.75357 ], [ 115.1528905, -33.7535827 ], [ 115.1528956, -33.753556 ], [ 115.1530875, -33.7535812 ], [ 115.1530723, -33.7536614 ], [ 115.1530404, -33.7536572 ], [ 115.1530353, -33.7536839 ], [ 115.1530033, -33.7536797 ], [ 115.1529983, -33.7537064 ], [ 115.1528384, -33.7536853 ], [ 115.1528434, -33.7536586 ], [ 115.1528114, -33.7536544 ], [ 115.1528064, -33.7536811 ], [ 115.1527424, -33.7536727 ], [ 115.1527273, -33.7537529 ], [ 115.1527088, -33.7537504 ], [ 115.1527141, -33.7538059 ], [ 115.1527172, -33.7538063 ], [ 115.1527152, -33.753817 ], [ 115.1527172, -33.7538386 ], [ 115.1529034, -33.7538616 ], [ 115.1529041, -33.7538583 ], [ 115.1529361, -33.7538625 ], [ 115.1529411, -33.7538358 ], [ 115.1530371, -33.7538484 ], [ 115.153032, -33.7538751 ], [ 115.153128, -33.7538878 ], [ 115.1531277, -33.7538893 ], [ 115.1531597, -33.7538933 ], [ 115.15316, -33.753892 ], [ 115.1532239, -33.7539004 ], [ 115.1532238, -33.7539012 ], [ 115.1535762, -33.7539447 ], [ 115.1535808, -33.75392 ], [ 115.1536128, -33.7539242 ], [ 115.1536179, -33.7538975 ], [ 115.1536498, -33.7539017 ], [ 115.153665, -33.7538215 ], [ 115.1536687, -33.753822 ], [ 115.1536742, -33.7537954 ], [ 115.15367, -33.7537948 ], [ 115.1536851, -33.7537147 ], [ 115.1536908, -33.7537154 ], [ 115.1536963, -33.7536888 ], [ 115.1536902, -33.7536879 ], [ 115.1536952, -33.7536612 ], [ 115.1537018, -33.7536621 ] ], [ [ 115.1528552, -33.7537697 ], [ 115.1528451, -33.7538231 ], [ 115.1528132, -33.7538189 ], [ 115.1528182, -33.7537922 ], [ 115.1527862, -33.753788 ], [ 115.1527913, -33.7537613 ], [ 115.1528552, -33.7537697 ] ] ] } },
{ "type": "Feature", "properties": { "appName": "Island Brook 080125", "rate": 3.0, "rateInt": 3, "unit": "l/ha", "zone": 3 }, "geometry": { "type": "MultiPolygon", "coordinates": [ [ [ [ 115.1531977, -33.753518 ], [ 115.1531935, -33.7535404 ], [ 115.1532255, -33.7535446 ], [ 115.1532205, -33.7535713 ], [ 115.1532524, -33.7535756 ], [ 115.1532424, -33.753629 ], [ 115.1532104, -33.7536248 ], [ 115.1532053, -33.7536515 ], [ 115.1531733, -33.7536473 ], [ 115.1531633, -33.7537007 ], [ 115.1531313, -33.7536965 ], [ 115.1531212, -33.75375 ], [ 115.1530892, -33.7537457 ], [ 115.1530842, -33.7537725 ], [ 115.1530522, -33.7537682 ], [ 115.1530471, -33.753795 ], [ 115.1530791, -33.7537992 ], [ 115.1530741, -33.7538259 ], [ 115.15317, -33.7538385 ], [ 115.1531751, -33.7538118 ], [ 115.1532071, -33.753816 ], [ 115.1532121, -33.7537893 ], [ 115.1532441, -33.7537935 ], [ 115.1532491, -33.7537668 ], [ 115.1532811, -33.753771 ], [ 115.1532862, -33.7537443 ], [ 115.1534461, -33.7537653 ], [ 115.1534511, -33.7537386 ], [ 115.1534831, -33.7537428 ], [ 115.1534882, -33.7537161 ], [ 115.1535202, -33.7537203 ], [ 115.1535302, -33.7536669 ], [ 115.1535622, -33.7536711 ], [ 115.1535673, -33.7536444 ], [ 115.1535992, -33.7536486 ], [ 115.153614, -33.7535702 ], [ 115.1531977, -33.753518 ] ] ], [ [ [ 115.1528451, -33.7538231 ], [ 115.1528552, -33.7537697 ], [ 115.1527913, -33.7537613 ], [ 115.1527862, -33.753788 ], [ 115.1528182, -33.7537922 ], [ 115.1528132, -33.7538189 ], [ 115.1528451, -33.7538231 ] ] ] ] } }
]
}
