{
"type": "FeatureCollection",
"name": "NDVI - PGRBK03 3 zones_Rx",
"features": [
{ "type": "Feature", "properties": { "appName": "Rosa Brook 050425", "rate": 1.0, "rateInt": 1, "unit": "l/ha", "zone": 1 }, "geometry": { "type": "MultiPolygon", "coordinates": [ [ [ [ 115.2151542, -33.9430257 ], [ 115.2151, -33.9430287 ], [ 115.2150996, -33.9430319 ], [ 115.2151263, -33.9430339 ], [ 115.2151238, -33.9430562 ], [ 115.2151505, -33.9430583 ], [ 115.2151542, -33.9430257 ] ] ], [ [ [ 115.214726, -33.9432949 ], [ 115.2148002, -33.9433006 ], [ 115.2148077, -33.9432338 ], [ 115.2149145, -33.9432421 ], [ 115.214922, -33.9431753 ], [ 115.2148685, -33.9431712 ], [ 115.214871, -33.9431489 ], [ 115.2147909, -33.9431427 ], [ 115.2147934, -33.9431204 ], [ 115.2147463, -33.9431168 ], [ 115.214726, -33.9432949 ] ] ], [ [ [ 115.2151287, -33.9432811 ], [ 115.2151411, -33.9431698 ], [ 115.2151381, -33.9431696 ], [ 115.2151257, -33.9432809 ], [ 115.2151287, -33.9432811 ] ] ], [ [ [ 115.2148536, -33.9433048 ], [ 115.2148002, -33.9433006 ], [ 115.2147977, -33.9433229 ], [ 115.2148512, -33.943327 ], [ 115.2148536, -33.9433048 ] ] ], [ [ [ 115.2146829, -33.9436733 ], [ 115.2147313, -33.943677 ], [ 115.2147363, -33.9436325 ], [ 115.214688, -33.9436288 ], [ 115.2146829, -33.9436733 ] ] ] ] } },
{ "type": "Feature", "properties": { "appName": "Rosa Brook 050425", "rate": 2.0, "rateInt": 2, "unit": "l/ha", "zone": 2 }, "geometry": { "type": "Polygon", "coordinates": [ [ [ 115.2146829, -33.9436733 ], [ 115.2146713, -33.9437747 ], [ 115.2148765, -33.9438006 ], [ 115.2149059, -33.9438028 ], [ 115.2149057, -33.9438042 ], [ 115.2150652, -33.9438244 ], [ 115.2150736, -33.9437484 ], [ 115.2150765, -33.9437487 ], [ 115.215079, -33.9437264 ], [ 115.2150761, -33.9437262 ], [ 115.2150811, -33.9436817 ], [ 115.215084, -33.9436819 ], [ 115.2150889, -33.9436374 ], [ 115.215086, -33.9436371 ], [ 115.2151009, -33.9435035 ], [ 115.2151038, -33.9435038 ], [ 115.2151063, -33.9434815 ], [ 115.2151034, -33.9434813 ], [ 115.2151108, -33.9434145 ], [ 115.2150841, -33.9434124 ], [ 115.2150866, -33.9433902 ], [ 115.2150599, -33.9433881 ], [ 115.2150624, -33.9433658 ], [ 115.2150357, -33.9433638 ], [ 115.2150406, -33.9433192 ], [ 115.2151208, -33.9433254 ], [ 115.2151233, -33.9433032 ], [ 115.2151262, -33.9433034 ], [ 115.2151287, -33.9432811 ], [ 115.2151257, -33.9432809 ], [ 115.2151431, -33.9431251 ], [ 115.2151461, -33.9431253 ], [ 115.2151486, -33.943103 ], [ 115.2151456, -33.9431028 ], [ 115.2151505, -33.9430583 ], [ 115.2151238, -33.9430562 ], [ 115.2151263, -33.9430339 ], [ 115.2150996, -33.9430319 ], [ 115.2151, -33.9430287 ], [ 115.2149102, -33.9430392 ], [ 115.2149101, -33.9430397 ], [ 115.2149067, -33.9430394 ], [ 115.2147541, -33.9430479 ], [ 115.2147463, -33.9431168 ], [ 115.2147934, -33.9431204 ], [ 115.2147909, -33.9431427 ], [ 115.214871, -33.9431489 ], [ 115.2148685, -33.9431712 ], [ 115.214922, -33.9431753 ], [ 115.2149145, -33.9432421 ], [ 115.2148077, -33.9432338 ], [ 115.2148002, -33.9433006 ], [ 115.214726, -33.9432949 ], [ 115.214688, -33.9436288 ], [ 115.2147363, -33.9436325 ], [ 115.2147313, -33.943677 ], [ 115.2146829, -33.9436733 ] ], [ [ 115.2149717, -33.9436957 ], [ 115.214945, -33.9436936 ], [ 115.2149401, -33.9437381 ], [ 115.2148866, -33.943734 ], [ 115.2148891, -33.9437117 ], [ 115.2149158, -33.9437138 ], [ 115.2149233, -33.943647 ], [ 115.2148698, -33.9436429 ], [ 115.2148723, -33.9436206 ], [ 115.2148456, -33.9436185 ], [ 115.2148555, -33.9435295 ], [ 115.2148288, -33.9435274 ], [ 115.2148363, -33.9434606 ], [ 115.214863, -33.9434627 ], [ 115.2148655, -33.9434404 ], [ 115.2148922, -33.9434425 ], [ 115.2148897, -33.9434647 ], [ 115.2149431, -33.9434689 ], [ 115.2149406, -33.9434911 ], [ 115.2149674, -33.9434932 ], [ 115.2149649, -33.9435155 ], [ 115.2149916, -33.9435175 ], [ 115.2149891, -33.9435398 ], [ 115.2150158, -33.9435419 ], [ 115.2150009, -33.9436755 ], [ 115.2149742, -33.9436734 ], [ 115.2149717, -33.9436957 ] ], [ [ 115.2148002, -33.9433006 ], [ 115.2148536, -33.9433048 ], [ 115.2148512, -33.943327 ], [ 115.2147977, -33.9433229 ], [ 115.2148002, -33.9433006 ] ] ] } },
{ "type": "Feature", "properties": { "appName": "Rosa Brook 050425", "rate": 3.0, "rateInt": 3, "unit": "l/ha", "zone": 3 }, "geometry": { "type": "MultiPolygon", "coordinates": [ [ [ [ 115.2150866, -33.9433902 ], [ 115.2150841, -33.9434124 ], [ 115.2151108, -33.9434145 ], [ 115.2151208, -33.9433254 ], [ 115.2150406, -33.9433192 ], [ 115.2150357, -33.9433638 ], [ 115.2150624, -33.9433658 ], [ 115.2150599, -33.9433881 ], [ 115.2150866, -33.9433902 ] ] ], [ [ [ 115.2149401, -33.9437381 ], [ 115.214945, -33.9436936 ], [ 115.2149717, -33.9436957 ], [ 115.2149742, -33.9436734 ], [ 115.2150009, -33.9436755 ], [ 115.2150158, -33.9435419 ], [ 115.2149891, -33.9435398 ], [ 115.2149916, -33.9435175 ], [ 115.2149649, -33.9435155 ], [ 115.2149674, -33.9434932 ], [ 115.2149406, -33.9434911 ], [ 115.2149431, -33.9434689 ], [ 115.2148897, -33.9434647 ], [ 115.2148922, -33.9434425 ], [ 115.2148655, -33.9434404 ], [ 115.214863, -33.9434627 ], [ 115.2148363, -33.9434606 ], [ 115.2148288, -33.9435274 ], [ 115.2148555, -33.9435295 ], [ 115.2148456, -33.9436185 ], [ 115.2148723, -33.9436206 ], [ 115.2148698, -33.9436429 ], [ 115.2149233, -33.943647 ], [ 115.2149158, -33.9437138 ], [ 115.2148891, -33.9437117 ], [ 115.2148866, -33.943734 ], [ 115.2149401, -33.9437381 ] ] ] ] } }
]
}
