{
"type": "FeatureCollection",
"name": "block3boundary",
"crs": { "type": "name", "properties": { "name": "urn:ogc:def:crs:OGC:1.3:CRS84" } },
"features": [
{ "type": "Feature", "properties": { "name": "Brindle 17 Jan 2026" }, "geometry": { "type": "MultiPolygon", "coordinates": [ [ [ [ 115.024558347872585, -33.789800891136622 ], [ 115.024546783354197, -33.790559550663069 ], [ 115.023996965823358, -33.790549378348615 ], [ 115.024001116341822, -33.789693228291554 ], [ 115.024175375431753, -33.789525741639473 ], [ 115.02418363973095, -33.788710733106768 ], [ 115.02489050065293, -33.788598922785809 ], [ 115.024980329912978, -33.788573702189936 ], [ 115.024996492574815, -33.788566574631311 ], [ 115.024987977521732, -33.789803719470044 ], [ 115.024558347872585, -33.789800891136622 ] ] ] ] } }
]
}
