{
"type": "FeatureCollection",
"name": "block3rx",
"crs": { "type": "name", "properties": { "name": "urn:ogc:def:crs:OGC:1.3:CRS84" } },
"features": [
{ "type": "Feature", "properties": { "appName": "Brindle 17 Jan 2026", "rate": 1.0, "rateInt": 1, "unit": "l/ha", "zone": 1 }, "geometry": { "type": "MultiPolygon", "coordinates": [ [ [ [ 115.024681623523961, -33.788659167268698 ], [ 115.024681374794739, -33.788683508263546 ], [ 115.024623070438381, -33.788683092889912 ], [ 115.024623319184087, -33.788658751895753 ], [ 115.024681623523961, -33.788659167268698 ] ] ], [ [ [ 115.024972647958975, -33.788709925716837 ], [ 115.024971653365142, -33.788807289709112 ], [ 115.024884196692753, -33.788806666839648 ], [ 115.024884942713115, -33.788733643848765 ], [ 115.024914094912006, -33.788733851477737 ], [ 115.024914343576228, -33.788709510480238 ], [ 115.024972647958975, -33.788709925716837 ] ] ], [ [ [ 115.024737938150153, -33.788854310575992 ], [ 115.024767090387797, -33.788854518241187 ], [ 115.024766841679352, -33.788878859236341 ], [ 115.024708537188033, -33.788878443898348 ], [ 115.024708288462605, -33.788902784892706 ], [ 115.024649983956778, -33.788902369526454 ], [ 115.024650481440162, -33.78885368753906 ], [ 115.024708785912992, -33.788854102903905 ], [ 115.024709034637425, -33.788829761909355 ], [ 115.024738186866315, -33.788829969581087 ], [ 115.024737938150153, -33.788854310575992 ] ] ], [ [ [ 115.024991818939483, -33.789245603144785 ], [ 115.024988803240689, -33.789683751464125 ], [ 115.024962701663668, -33.789683565570613 ], [ 115.024963198997256, -33.789634883581563 ], [ 115.024934046492163, -33.789634675953252 ], [ 115.024934295166474, -33.789610334958944 ], [ 115.024905142670121, -33.789610127324089 ], [ 115.024907380790793, -33.789391058374171 ], [ 115.02487822836919, -33.789390850735622 ], [ 115.024878725740393, -33.789342168746415 ], [ 115.024849573335771, -33.789341961101663 ], [ 115.02484982202887, -33.789317620107269 ], [ 115.024791517237617, -33.789317204797861 ], [ 115.02479176594673, -33.789292863804071 ], [ 115.024762613560085, -33.789292656139381 ], [ 115.024762862276972, -33.789268315145861 ], [ 115.024704557521659, -33.789267899796528 ], [ 115.024704308788316, -33.789292240789344 ], [ 115.024675156403177, -33.789292033104005 ], [ 115.024675902626512, -33.789219010126317 ], [ 115.02470505498691, -33.789219217810597 ], [ 115.024705303718804, -33.78919487681749 ], [ 115.024734456071428, -33.789195084494537 ], [ 115.024734207347805, -33.789219425487985 ], [ 115.024792512071102, -33.789219840822135 ], [ 115.02479226336348, -33.789244181816208 ], [ 115.024821415734095, -33.789244389473303 ], [ 115.024821167034233, -33.789268730467626 ], [ 115.024850319413602, -33.789268938118191 ], [ 115.024850070721499, -33.789293279112783 ], [ 115.024937527887346, -33.789293902024184 ], [ 115.024937776554722, -33.789269561028519 ], [ 115.024966928936067, -33.789269768651529 ], [ 115.024967177594689, -33.789245427655409 ], [ 115.024991818939483, -33.789245603144785 ] ] ], [ [ [ 115.024789527546901, -33.789511932744695 ], [ 115.024731222625647, -33.789511517402062 ], [ 115.024731968812887, -33.789438494424843 ], [ 115.024790273684644, -33.789438909765344 ], [ 115.024789527546901, -33.789511932744695 ] ] ], [ [ [ 115.024815712339404, -33.789802585415693 ], [ 115.024815944222496, -33.789779891326454 ], [ 115.02484509677511, -33.78978009898443 ], [ 115.024845345477132, -33.789755757991763 ], [ 115.024874498022001, -33.78975596564252 ], [ 115.02487474671527, -33.789731624649399 ], [ 115.024933051789972, -33.789732039929532 ], [ 115.024932803113188, -33.789756380923365 ], [ 115.024988300624244, -33.789756776180838 ], [ 115.024987977521732, -33.789803719470044 ], [ 115.024815712339404, -33.789802585415693 ] ] ], [ [ [ 115.023999426298815, -33.790041842671023 ], [ 115.024000842380985, -33.789749739686215 ], [ 115.024058226953244, -33.789750148817596 ], [ 115.02405797802848, -33.789774489800706 ], [ 115.024087130568205, -33.78977469763781 ], [ 115.024086881651172, -33.789799038621169 ], [ 115.02411603419965, -33.789799246451722 ], [ 115.024115785290405, -33.789823587435343 ], [ 115.024144937847609, -33.789823795259373 ], [ 115.024143942238624, -33.789921159194307 ], [ 115.024173094829308, -33.789921367012873 ], [ 115.024172099245391, -33.790018730947693 ], [ 115.024201251869599, -33.790018938760781 ], [ 115.024201002980632, -33.790043279744594 ], [ 115.02423015561358, -33.790043487551159 ], [ 115.024229906732344, -33.790067828535221 ], [ 115.024317364658927, -33.790068451914614 ], [ 115.024317115801949, -33.79009279289965 ], [ 115.024462879064103, -33.790093831729315 ], [ 115.024463376695039, -33.790045149755578 ], [ 115.024492529332434, -33.790045357500141 ], [ 115.024492778138907, -33.790021016512767 ], [ 115.024521930768572, -33.79002122425009 ], [ 115.024522179566318, -33.789996883262276 ], [ 115.024551332188224, -33.78999709099233 ], [ 115.024548595476645, -33.79026484185691 ], [ 115.024519442764003, -33.790264634122934 ], [ 115.024519691566681, -33.79024029313608 ], [ 115.024461386159359, -33.79023987764819 ], [ 115.024461634978053, -33.790215536661947 ], [ 115.024432482283402, -33.790215328908033 ], [ 115.024432233456437, -33.790239669893914 ], [ 115.024403080754027, -33.790239462132746 ], [ 115.024402831918351, -33.790263803118187 ], [ 115.024431984629004, -33.790264010879696 ], [ 115.024431735801087, -33.790288351865399 ], [ 115.024460888520494, -33.790288559620386 ], [ 115.024459893236795, -33.790385923563633 ], [ 115.024489045989711, -33.790386131313127 ], [ 115.024488548361376, -33.790434813284875 ], [ 115.024517701131288, -33.790435021028216 ], [ 115.024517452324645, -33.790459362014303 ], [ 115.024546605103282, -33.790459569751114 ], [ 115.024545609904692, -33.79055693369591 ], [ 115.0243174329933, -33.790555307393511 ], [ 115.02413749151448, -33.790551978250292 ], [ 115.024137719502605, -33.790529683752865 ], [ 115.024166872299546, -33.790529891580292 ], [ 115.024167121206702, -33.790505550598738 ], [ 115.024196273995898, -33.790505758418917 ], [ 115.0241965228943, -33.790481417436922 ], [ 115.024225675675751, -33.790481625249853 ], [ 115.024226422343204, -33.790408602302229 ], [ 115.024255575100398, -33.790408810107202 ], [ 115.024256321738662, -33.790335787157652 ], [ 115.024227169006195, -33.79033557935373 ], [ 115.024227666779055, -33.790286897387588 ], [ 115.024198514063613, -33.790286689577499 ], [ 115.024200256310735, -33.790116302695466 ], [ 115.024141950996821, -33.790115887059578 ], [ 115.024142199903778, -33.790091546076752 ], [ 115.02411304725581, -33.790091338248821 ], [ 115.024113296170526, -33.790066997266273 ], [ 115.024084143531326, -33.790066789431791 ], [ 115.024084392453773, -33.790042448449491 ], [ 115.023999426298815, -33.790041842671023 ] ] ] ] } },
{ "type": "Feature", "properties": { "appName": "Brindle 17 Jan 2026", "rate": 2.0, "rateInt": 2, "unit": "l/ha", "zone": 2 }, "geometry": { "type": "MultiPolygon", "coordinates": [ [ [ [ 115.02462349899217, -33.788641156753563 ], [ 115.024664311033604, -33.788634701159104 ], [ 115.024711024415083, -33.788635033949518 ], [ 115.024711103445867, -33.788627299597536 ], [ 115.024798707873728, -33.788613442445595 ], [ 115.024798232209591, -33.788659997931909 ], [ 115.024827384382249, -33.788660205580491 ], [ 115.024827633069719, -33.788635864583782 ], [ 115.024885937400015, -33.788636279859567 ], [ 115.024886186070489, -33.788611938862033 ], [ 115.024915338228141, -33.788612146489235 ], [ 115.024915545150705, -33.788591891255578 ], [ 115.024929738615654, -33.788587906277378 ], [ 115.024973891190143, -33.788588220724314 ], [ 115.024974021405058, -33.78857547337595 ], [ 115.024980329912978, -33.788573702189936 ], [ 115.024996492574815, -33.788566574631311 ], [ 115.024994164483118, -33.788904821098264 ], [ 115.024970658763365, -33.788904653699866 ], [ 115.024970410111663, -33.788928994697322 ], [ 115.024941257845796, -33.788928787079286 ], [ 115.024939517212403, -33.789099174056261 ], [ 115.024992824172458, -33.789099553697866 ], [ 115.024991818939483, -33.789245603144785 ], [ 115.024967177594689, -33.789245427655409 ], [ 115.024966928936067, -33.789269768651529 ], [ 115.024937776554722, -33.789269561028519 ], [ 115.024937527887346, -33.789293902024184 ], [ 115.024850070721499, -33.789293279112783 ], [ 115.024850319413602, -33.789268938118191 ], [ 115.024821167034233, -33.789268730467626 ], [ 115.024821415734095, -33.789244389473303 ], [ 115.02479226336348, -33.789244181816208 ], [ 115.024792512071102, -33.789219840822135 ], [ 115.024734207347805, -33.789219425487985 ], [ 115.024734456071428, -33.789195084494537 ], [ 115.024705303718804, -33.78919487681749 ], [ 115.02470505498691, -33.789219217810597 ], [ 115.024675902626512, -33.789219010126317 ], [ 115.024675156403177, -33.789292033104005 ], [ 115.024704308788316, -33.789292240789344 ], [ 115.024704557521659, -33.789267899796528 ], [ 115.024762862276972, -33.789268315145861 ], [ 115.024762613560085, -33.789292656139381 ], [ 115.02479176594673, -33.789292863804071 ], [ 115.024791517237617, -33.789317204797861 ], [ 115.02484982202887, -33.789317620107269 ], [ 115.024849573335771, -33.789341961101663 ], [ 115.024878725740393, -33.789342168746415 ], [ 115.02487822836919, -33.789390850735622 ], [ 115.024907380790793, -33.789391058374171 ], [ 115.024905142670121, -33.789610127324089 ], [ 115.024934295166474, -33.789610334958944 ], [ 115.024934046492163, -33.789634675953252 ], [ 115.024963198997256, -33.789634883581563 ], [ 115.024962701663668, -33.789683565570613 ], [ 115.024988803240689, -33.789683751464125 ], [ 115.024988300624244, -33.789756776180838 ], [ 115.024932803113188, -33.789756380923365 ], [ 115.024933051789972, -33.789732039929532 ], [ 115.02487474671527, -33.789731624649399 ], [ 115.024874498022001, -33.78975596564252 ], [ 115.024845345477132, -33.789755757991763 ], [ 115.02484509677511, -33.78978009898443 ], [ 115.024815944222496, -33.789779891326454 ], [ 115.024815712339404, -33.789802585415693 ], [ 115.024699101458978, -33.789801817744163 ], [ 115.024699334016972, -33.789779060625577 ], [ 115.024670181466846, -33.789778852933132 ], [ 115.02467043021835, -33.789754511942597 ], [ 115.024641277676977, -33.789754304243623 ], [ 115.024642521468408, -33.789632599291231 ], [ 115.024613368968758, -33.789632391587141 ], [ 115.024614115262438, -33.789559368615613 ], [ 115.024584962788026, -33.789559160905704 ], [ 115.024589191841415, -33.789145364056758 ], [ 115.024530887174578, -33.789144948628312 ], [ 115.024530638394182, -33.789169289619487 ], [ 115.024443181372888, -33.789168666424089 ], [ 115.024442932567283, -33.789193007414099 ], [ 115.024413780219589, -33.789192799668186 ], [ 115.024413282590359, -33.78924148164721 ], [ 115.024471587319226, -33.789241897133593 ], [ 115.024471338520371, -33.78926623812368 ], [ 115.024500490893786, -33.789266445856889 ], [ 115.024500242102675, -33.789290786847225 ], [ 115.024558546867524, -33.789291202293697 ], [ 115.024555810314112, -33.789558953188902 ], [ 115.02449750536779, -33.789558537734621 ], [ 115.024497754164344, -33.789534196745343 ], [ 115.024468601700164, -33.789533989008234 ], [ 115.024468850504491, -33.789509648019205 ], [ 115.024410545594137, -33.789509232525027 ], [ 115.024410296773311, -33.789533573513339 ], [ 115.024351991848448, -33.789533157990881 ], [ 115.024352240685758, -33.789508817003281 ], [ 115.024323088232322, -33.789508609232072 ], [ 115.024323337077391, -33.789484268244735 ], [ 115.024265032188481, -33.789483852682373 ], [ 115.024265281049551, -33.78945951169564 ], [ 115.024177823744651, -33.789458888301503 ], [ 115.024179317049146, -33.789312842385442 ], [ 115.024237621819594, -33.789313257984169 ], [ 115.024237870685425, -33.789288916997123 ], [ 115.024267023063146, -33.789289124785789 ], [ 115.024267271920252, -33.789264783798302 ], [ 115.024325576660672, -33.789265199354261 ], [ 115.024325825500782, -33.789240858365964 ], [ 115.024354977863453, -33.789241066133265 ], [ 115.024355475525681, -33.789192384155655 ], [ 115.024326323179494, -33.789192176389051 ], [ 115.024326572018111, -33.789167835400455 ], [ 115.024384876694512, -33.789168250926032 ], [ 115.024386120797686, -33.789046545978074 ], [ 115.024356968500499, -33.789046338220494 ], [ 115.024358212632492, -33.788924633271904 ], [ 115.024329060377042, -33.788924425509201 ], [ 115.024329309210202, -33.788900084519554 ], [ 115.024271004717278, -33.78889966897421 ], [ 115.024271253566454, -33.78887532798516 ], [ 115.02424210132898, -33.788875120202505 ], [ 115.024243096753693, -33.788777756246809 ], [ 115.024272248958169, -33.78877796402805 ], [ 115.024273080918462, -33.788696585418627 ], [ 115.024369789892035, -33.788681288121751 ], [ 115.024419005206781, -33.788681638865143 ], [ 115.024419088499727, -33.788673490133526 ], [ 115.024506693013763, -33.788659632967949 ], [ 115.024506461731633, -33.788682262059936 ], [ 115.024477309556204, -33.78868205433524 ], [ 115.024476563192323, -33.788755077311805 ], [ 115.024505715392522, -33.788755285037595 ], [ 115.024505466611828, -33.788779626029942 ], [ 115.024563771030216, -33.788780041461528 ], [ 115.024560288279375, -33.789120815354366 ], [ 115.024589440604814, -33.78912102306478 ], [ 115.024594167014911, -33.788658544198945 ], [ 115.024623319184087, -33.788658751895753 ], [ 115.02462349899217, -33.788641156753563 ] ], [ [ 115.024649237728042, -33.788975392506813 ], [ 115.024648740239698, -33.789024074493263 ], [ 115.024677892533632, -33.789024282181593 ], [ 115.024677643796977, -33.78904862317502 ], [ 115.024706796099636, -33.789048830856835 ], [ 115.024707044828048, -33.789024489863046 ], [ 115.024736197122934, -33.789024697537613 ], [ 115.024736445842592, -33.789000356543383 ], [ 115.024707293555949, -33.789000148869171 ], [ 115.024707542283352, -33.788975807875197 ], [ 115.024649237728042, -33.788975392506813 ] ], [ [ 115.024914094912006, -33.788733851477737 ], [ 115.024884942713115, -33.788733643848765 ], [ 115.024884196692753, -33.788806666839648 ], [ 115.024971653365142, -33.788807289709112 ], [ 115.024972647958975, -33.788709925716837 ], [ 115.024914343576228, -33.788709510480238 ], [ 115.024914094912006, -33.788733851477737 ] ], [ [ 115.024767090387797, -33.788854518241187 ], [ 115.024737938150153, -33.788854310575992 ], [ 115.024738186866315, -33.788829969581087 ], [ 115.024709034637425, -33.788829761909355 ], [ 115.024708785912992, -33.788854102903905 ], [ 115.024650481440162, -33.78885368753906 ], [ 115.024649983956778, -33.788902369526454 ], [ 115.024708288462605, -33.788902784892706 ], [ 115.024708537188033, -33.788878443898348 ], [ 115.024766841679352, -33.788878859236341 ], [ 115.024767090387797, -33.788854518241187 ] ], [ [ 115.024880217842096, -33.789196122776431 ], [ 115.024909370197733, -33.78919633041216 ], [ 115.024909618871348, -33.789171989416467 ], [ 115.024880466523996, -33.789171781781114 ], [ 115.024880217842096, -33.789196122776431 ] ], [ [ 115.024731968812887, -33.789438494424843 ], [ 115.024731222625647, -33.789511517402062 ], [ 115.024789527546901, -33.789511932744695 ], [ 115.024790273684644, -33.789438909765344 ], [ 115.024731968812887, -33.789438494424843 ] ], [ [ 115.024623319184087, -33.788658751895753 ], [ 115.024623070438381, -33.788683092889912 ], [ 115.024681374794739, -33.788683508263546 ], [ 115.024681623523961, -33.788659167268698 ], [ 115.024623319184087, -33.788658751895753 ] ] ], [ [ [ 115.024000842380985, -33.789749739686215 ], [ 115.024001116341822, -33.789693228291554 ], [ 115.024018172535278, -33.789676834973193 ], [ 115.024029821218321, -33.789676918025144 ], [ 115.024029937711973, -33.789665527040526 ], [ 115.024043313119293, -33.789652671457532 ], [ 115.024059222647338, -33.789652784884233 ], [ 115.024058973724564, -33.789677125867719 ], [ 115.024088126231277, -33.789677333703381 ], [ 115.024087877316262, -33.789701674687137 ], [ 115.024117029831729, -33.789701882516283 ], [ 115.024116780924459, -33.789726223500281 ], [ 115.024145933448679, -33.789726431322912 ], [ 115.024145684549154, -33.789750772307158 ], [ 115.024174837082128, -33.789750980123245 ], [ 115.024174588190348, -33.789775321107768 ], [ 115.024232893274259, -33.789775736719953 ], [ 115.02423339102431, -33.789727054749399 ], [ 115.02426254355052, -33.789727262544453 ], [ 115.024262792416522, -33.789702921558678 ], [ 115.024321097453935, -33.789703337127413 ], [ 115.0243193554968, -33.789873724030805 ], [ 115.024348508073999, -33.789873931807314 ], [ 115.024348010384017, -33.789922613779559 ], [ 115.024377162978183, -33.789922821549887 ], [ 115.024376914140703, -33.789947162536215 ], [ 115.024435219347055, -33.789947578056939 ], [ 115.024435965808536, -33.789874555095537 ], [ 115.024465118387724, -33.789874762844498 ], [ 115.024465367198943, -33.789850421856819 ], [ 115.024552824914693, -33.789851045061319 ], [ 115.024551332188224, -33.78999709099233 ], [ 115.024522179566318, -33.789996883262276 ], [ 115.024521930768572, -33.79002122425009 ], [ 115.024492778138907, -33.790021016512767 ], [ 115.024492529332434, -33.790045357500141 ], [ 115.024463376695039, -33.790045149755578 ], [ 115.024462879064103, -33.790093831729315 ], [ 115.024317115801949, -33.79009279289965 ], [ 115.024317364658927, -33.790068451914614 ], [ 115.024229906732344, -33.790067828535221 ], [ 115.02423015561358, -33.790043487551159 ], [ 115.024201002980632, -33.790043279744594 ], [ 115.024201251869599, -33.790018938760781 ], [ 115.024172099245391, -33.790018730947693 ], [ 115.024173094829308, -33.789921367012873 ], [ 115.024143942238624, -33.789921159194307 ], [ 115.024144937847609, -33.789823795259373 ], [ 115.024115785290405, -33.789823587435343 ], [ 115.02411603419965, -33.789799246451722 ], [ 115.024086881651172, -33.789799038621169 ], [ 115.024087130568205, -33.78977469763781 ], [ 115.02405797802848, -33.789774489800706 ], [ 115.024058226953244, -33.789750148817596 ], [ 115.024000842380985, -33.789749739686215 ] ] ], [ [ [ 115.02413749151448, -33.790551978250292 ], [ 115.023996965823358, -33.790549378348615 ], [ 115.023999426298815, -33.790041842671023 ], [ 115.024084392453773, -33.790042448449491 ], [ 115.024084143531326, -33.790066789431791 ], [ 115.024113296170526, -33.790066997266273 ], [ 115.02411304725581, -33.790091338248821 ], [ 115.024142199903778, -33.790091546076752 ], [ 115.024141950996821, -33.790115887059578 ], [ 115.024200256310735, -33.790116302695466 ], [ 115.024198514063613, -33.790286689577499 ], [ 115.024227666779055, -33.790286897387588 ], [ 115.024227169006195, -33.79033557935373 ], [ 115.024256321738662, -33.790335787157652 ], [ 115.024255575100398, -33.790408810107202 ], [ 115.024226422343204, -33.790408602302229 ], [ 115.024225675675751, -33.790481625249853 ], [ 115.0241965228943, -33.790481417436922 ], [ 115.024196273995898, -33.790505758418917 ], [ 115.024167121206702, -33.790505550598738 ], [ 115.024166872299546, -33.790529891580292 ], [ 115.024137719502605, -33.790529683752865 ], [ 115.02413749151448, -33.790551978250292 ] ] ], [ [ [ 115.024489045989711, -33.790386131313127 ], [ 115.024459893236795, -33.790385923563633 ], [ 115.024460888520494, -33.790288559620386 ], [ 115.024431735801087, -33.790288351865399 ], [ 115.024431984629004, -33.790264010879696 ], [ 115.024402831918351, -33.790263803118187 ], [ 115.024403080754027, -33.790239462132746 ], [ 115.024432233456437, -33.790239669893914 ], [ 115.024432482283402, -33.790215328908033 ], [ 115.024461634978053, -33.790215536661947 ], [ 115.024461386159359, -33.79023987764819 ], [ 115.024519691566681, -33.79024029313608 ], [ 115.024519442764003, -33.790264634122934 ], [ 115.024548595476645, -33.79026484185691 ], [ 115.024546605103282, -33.790459569751114 ], [ 115.024517452324645, -33.790459362014303 ], [ 115.024517701131288, -33.790435021028216 ], [ 115.024488548361376, -33.790434813284875 ], [ 115.024489045989711, -33.790386131313127 ] ] ] ] } },
{ "type": "Feature", "properties": { "appName": "Brindle 17 Jan 2026", "rate": 3.0, "rateInt": 3, "unit": "l/ha", "zone": 3 }, "geometry": { "type": "MultiPolygon", "coordinates": [ [ [ [ 115.024811573225236, -33.788611407421399 ], [ 115.024857033913349, -33.788611731227945 ], [ 115.024857110811254, -33.788604204346576 ], [ 115.02489050065293, -33.788598922785809 ], [ 115.024915545150705, -33.788591891255578 ], [ 115.024915338228141, -33.788612146489235 ], [ 115.024886186070489, -33.788611938862033 ], [ 115.024885937400015, -33.788636279859567 ], [ 115.024827633069719, -33.788635864583782 ], [ 115.024827384382249, -33.788660205580491 ], [ 115.024798232209591, -33.788659997931909 ], [ 115.024798707873728, -33.788613442445595 ], [ 115.024811573225236, -33.788611407421399 ] ] ], [ [ [ 115.024506693013763, -33.788659632967949 ], [ 115.02451704985387, -33.788657994736752 ], [ 115.024565014846218, -33.788658336495246 ], [ 115.024563771030216, -33.788780041461528 ], [ 115.024505466611828, -33.788779626029942 ], [ 115.024505715392522, -33.788755285037595 ], [ 115.024476563192323, -33.788755077311805 ], [ 115.024477309556204, -33.78868205433524 ], [ 115.024506461731633, -33.788682262059936 ], [ 115.024506693013763, -33.788659632967949 ] ] ], [ [ [ 115.024222530833768, -33.788704581363824 ], [ 115.024272995496744, -33.788704941059201 ], [ 115.024272248958169, -33.78877796402805 ], [ 115.024243096753693, -33.788777756246809 ], [ 115.02424210132898, -33.788875120202505 ], [ 115.024271253566454, -33.78887532798516 ], [ 115.024271004717278, -33.78889966897421 ], [ 115.024329309210202, -33.788900084519554 ], [ 115.024329060377042, -33.788924425509201 ], [ 115.024358212632492, -33.788924633271904 ], [ 115.024356968500499, -33.789046338220494 ], [ 115.024386120797686, -33.789046545978074 ], [ 115.024384876694512, -33.789168250926032 ], [ 115.024326572018111, -33.789167835400455 ], [ 115.024326323179494, -33.789192176389051 ], [ 115.024355475525681, -33.789192384155655 ], [ 115.024354977863453, -33.789241066133265 ], [ 115.024325825500782, -33.789240858365964 ], [ 115.024325576660672, -33.789265199354261 ], [ 115.024267271920252, -33.789264783798302 ], [ 115.024267023063146, -33.789289124785789 ], [ 115.024237870685425, -33.789288916997123 ], [ 115.024237621819594, -33.789313257984169 ], [ 115.024179317049146, -33.789312842385442 ], [ 115.024181308094029, -33.789118114491991 ], [ 115.024179508957431, -33.789118101667185 ], [ 115.024179755778547, -33.789093760665423 ], [ 115.024181556972408, -33.789093773504881 ], [ 115.024182054727689, -33.789045091530362 ], [ 115.024180249420795, -33.789045078661623 ], [ 115.024180496241925, -33.789020737659598 ], [ 115.024182303604576, -33.789020750542974 ], [ 115.02418547633529, -33.788710442595132 ], [ 115.024222530833768, -33.788704581363824 ] ], [ [ 115.024356968500499, -33.789046338220494 ], [ 115.024327816203765, -33.789046130456043 ], [ 115.024327567367635, -33.789070471445115 ], [ 115.024356719672596, -33.789070679209921 ], [ 115.024356968500499, -33.789046338220494 ] ] ], [ [ [ 115.024994164483118, -33.788904821098264 ], [ 115.024992824172458, -33.789099553697866 ], [ 115.024939517212403, -33.789099174056261 ], [ 115.024941257845796, -33.788928787079286 ], [ 115.024970410111663, -33.788928994697322 ], [ 115.024970658763365, -33.788904653699866 ], [ 115.024994164483118, -33.788904821098264 ] ] ], [ [ [ 115.024649237728042, -33.788975392506813 ], [ 115.024707542283352, -33.788975807875197 ], [ 115.024707293555949, -33.789000148869171 ], [ 115.024736445842592, -33.789000356543383 ], [ 115.024736197122934, -33.789024697537613 ], [ 115.024707044828048, -33.789024489863046 ], [ 115.024706796099636, -33.789048830856835 ], [ 115.024677643796977, -33.78904862317502 ], [ 115.024677892533632, -33.789024282181593 ], [ 115.024648740239698, -33.789024074493263 ], [ 115.024649237728042, -33.788975392506813 ] ] ], [ [ [ 115.024558546867524, -33.789291202293697 ], [ 115.024500242102675, -33.789290786847225 ], [ 115.024500490893786, -33.789266445856889 ], [ 115.024471338520371, -33.78926623812368 ], [ 115.024471587319226, -33.789241897133593 ], [ 115.024413282590359, -33.78924148164721 ], [ 115.024413780219589, -33.789192799668186 ], [ 115.024442932567283, -33.789193007414099 ], [ 115.024443181372888, -33.789168666424089 ], [ 115.024530638394182, -33.789169289619487 ], [ 115.024530887174578, -33.789144948628312 ], [ 115.024560039507747, -33.789145156345974 ], [ 115.024558546867524, -33.789291202293697 ] ] ], [ [ [ 115.024909370197733, -33.78919633041216 ], [ 115.024880217842096, -33.789196122776431 ], [ 115.024880466523996, -33.789171781781114 ], [ 115.024909618871348, -33.789171989416467 ], [ 115.024909370197733, -33.78919633041216 ] ] ], [ [ [ 115.024059381746142, -33.789637227324796 ], [ 115.024068453708978, -33.789628507936428 ], [ 115.024088624059871, -33.789628651735612 ], [ 115.024088825760728, -33.789608927627896 ], [ 115.024093594304304, -33.789604344409895 ], [ 115.024118025455877, -33.789604518579303 ], [ 115.024118269755206, -33.789580627950329 ], [ 115.024143875515946, -33.789556017336658 ], [ 115.024176828198421, -33.789556252243621 ], [ 115.024177823744651, -33.789458888301503 ], [ 115.024265281049551, -33.78945951169564 ], [ 115.024265032188481, -33.789483852682373 ], [ 115.024323337077391, -33.789484268244735 ], [ 115.024323088232322, -33.789508609232072 ], [ 115.024352240685758, -33.789508817003281 ], [ 115.024351991848448, -33.789533157990881 ], [ 115.024410296773311, -33.789533573513339 ], [ 115.024410545594137, -33.789509232525027 ], [ 115.024468850504491, -33.789509648019205 ], [ 115.024468601700164, -33.789533989008234 ], [ 115.024497754164344, -33.789534196745343 ], [ 115.02449750536779, -33.789558537734621 ], [ 115.024555810314112, -33.789558953188902 ], [ 115.024552824914693, -33.789851045061319 ], [ 115.024465367198943, -33.789850421856819 ], [ 115.024465118387724, -33.789874762844498 ], [ 115.024435965808536, -33.789874555095537 ], [ 115.024435219347055, -33.789947578056939 ], [ 115.024376914140703, -33.789947162536215 ], [ 115.024377162978183, -33.789922821549887 ], [ 115.024348010384017, -33.789922613779559 ], [ 115.024348508073999, -33.789873931807314 ], [ 115.0243193554968, -33.789873724030805 ], [ 115.024321097453935, -33.789703337127413 ], [ 115.024262792416522, -33.789702921558678 ], [ 115.02426254355052, -33.789727262544453 ], [ 115.02423339102431, -33.789727054749399 ], [ 115.024232893274259, -33.789775736719953 ], [ 115.024174588190348, -33.789775321107768 ], [ 115.024174837082128, -33.789750980123245 ], [ 115.024145684549154, -33.789750772307158 ], [ 115.024145933448679, -33.789726431322912 ], [ 115.024116780924459, -33.789726223500281 ], [ 115.024117029831729, -33.789701882516283 ], [ 115.024087877316262, -33.789701674687137 ], [ 115.024088126231277, -33.789677333703381 ], [ 115.024058973724564, -33.789677125867719 ], [ 115.024059381746142, -33.789637227324796 ] ] ], [ [ [ 115.024699101458978, -33.789801817744163 ], [ 115.024611643303061, -33.789801241990546 ], [ 115.024611876368056, -33.789778437527602 ], [ 115.024582723819407, -33.789778229814495 ], [ 115.024584962788026, -33.789559160905704 ], [ 115.024614115262438, -33.789559368615613 ], [ 115.024613368968758, -33.789632391587141 ], [ 115.024642521468408, -33.789632599291231 ], [ 115.024641277676977, -33.789754304243623 ], [ 115.02467043021835, -33.789754511942597 ], [ 115.024670181466846, -33.789778852933132 ], [ 115.024699334016972, -33.789779060625577 ], [ 115.024699101458978, -33.789801817744163 ] ] ] ] } }
]
}
