{
"type": "FeatureCollection",
"name": "NDVI - CHRBK04 3 zones_Rx",
"features": [
{ "type": "Feature", "properties": { "appName": "Rosa Brook 050425", "rate": 1.0, "rateInt": 1, "unit": "l/ha", "zone": 1 }, "geometry": { "type": "MultiPolygon", "coordinates": [ [ [ [ 115.2137674, -33.9437446 ], [ 115.2136355, -33.9437301 ], [ 115.2136354, -33.943731 ], [ 115.213609, -33.943728 ], [ 115.2136092, -33.9437272 ], [ 115.2135828, -33.9437243 ], [ 115.2135827, -33.943725 ], [ 115.2135563, -33.943722 ], [ 115.2135527, -33.9437439 ], [ 115.2135264, -33.9437409 ], [ 115.2135191, -33.9437848 ], [ 115.2135455, -33.9437878 ], [ 115.2135202, -33.9439416 ], [ 115.2135466, -33.9439446 ], [ 115.2135322, -33.9440325 ], [ 115.2135058, -33.9440295 ], [ 115.2134986, -33.9440734 ], [ 115.2135249, -33.9440764 ], [ 115.2135177, -33.9441203 ], [ 115.2135441, -33.9441233 ], [ 115.2135405, -33.9441453 ], [ 115.2135668, -33.9441483 ], [ 115.2135524, -33.9442362 ], [ 115.213526, -33.9442332 ], [ 115.2135224, -33.9442551 ], [ 115.2134961, -33.9442521 ], [ 115.2134925, -33.9442741 ], [ 115.2134661, -33.9442711 ], [ 115.2134625, -33.944293 ], [ 115.2134888, -33.9442961 ], [ 115.2134852, -33.944318 ], [ 115.2135116, -33.944321 ], [ 115.2134972, -33.9444089 ], [ 115.2134708, -33.9444059 ], [ 115.2134672, -33.9444278 ], [ 115.2138362, -33.94447 ], [ 115.2138398, -33.944448 ], [ 115.2138661, -33.944451 ], [ 115.2138625, -33.944473 ], [ 115.2138889, -33.944476 ], [ 115.2138961, -33.944432 ], [ 115.2138697, -33.944429 ], [ 115.2138806, -33.9443631 ], [ 115.2139069, -33.9443661 ], [ 115.2139105, -33.9443442 ], [ 115.2140423, -33.9443592 ], [ 115.2140459, -33.9443373 ], [ 115.2140723, -33.9443403 ], [ 115.2140759, -33.9443183 ], [ 115.2141022, -33.9443213 ], [ 115.2141239, -33.9441895 ], [ 115.2142293, -33.9442015 ], [ 115.2142437, -33.9441137 ], [ 115.2142174, -33.9441107 ], [ 115.214221, -33.9440887 ], [ 115.2140629, -33.9440707 ], [ 115.2140701, -33.9440267 ], [ 115.2140437, -33.9440237 ], [ 115.2140473, -33.9440018 ], [ 115.214021, -33.9439988 ], [ 115.2140318, -33.9439329 ], [ 115.2140845, -33.9439389 ], [ 115.2140917, -33.9438949 ], [ 115.2141444, -33.943901 ], [ 115.2141481, -33.943879 ], [ 115.2141744, -33.943882 ], [ 115.214178, -33.94386 ], [ 115.2141517, -33.943857 ], [ 115.2141625, -33.9437911 ], [ 115.2140571, -33.9437791 ], [ 115.2140535, -33.9438011 ], [ 115.2140008, -33.9437951 ], [ 115.2140044, -33.9437731 ], [ 115.2139517, -33.9437671 ], [ 115.213952, -33.9437649 ], [ 115.2139256, -33.943762 ], [ 115.2139253, -33.9437641 ], [ 115.2138989, -33.9437611 ], [ 115.2138917, -33.943805 ], [ 115.2138127, -33.943796 ], [ 115.2138199, -33.943752 ], [ 115.2137935, -33.943749 ], [ 115.2137899, -33.943771 ], [ 115.2137636, -33.943768 ], [ 115.2137674, -33.9437446 ] ], [ [ 115.2140748, -33.9441615 ], [ 115.2139957, -33.9441525 ], [ 115.2140029, -33.9441086 ], [ 115.2140293, -33.9441116 ], [ 115.2140329, -33.9440896 ], [ 115.2140593, -33.9440926 ], [ 115.2140556, -33.9441146 ], [ 115.214082, -33.9441176 ], [ 115.2140748, -33.9441615 ] ] ], [ [ [ 115.2158919, -33.9447043 ], [ 115.2159167, -33.9447071 ], [ 115.2159355, -33.9445753 ], [ 115.2159135, -33.9445728 ], [ 115.2159099, -33.9445947 ], [ 115.2158572, -33.9445887 ], [ 115.2158536, -33.9446107 ], [ 115.2158273, -33.9446077 ], [ 115.2158236, -33.9446296 ], [ 115.2157973, -33.9446266 ], [ 115.2157865, -33.9446924 ], [ 115.2158656, -33.9447013 ], [ 115.2158691, -33.9446796 ], [ 115.2158955, -33.9446826 ], [ 115.2158919, -33.9447043 ] ] ], [ [ [ 115.2141633, -33.9444402 ], [ 115.2141105, -33.9444341 ], [ 115.2140997, -33.9445 ], [ 115.2141261, -33.944503 ], [ 115.2141297, -33.9444811 ], [ 115.214156, -33.9444841 ], [ 115.2141633, -33.9444402 ] ] ] ] } },
{ "type": "Feature", "properties": { "appName": "Rosa Brook 050425", "rate": 2.0, "rateInt": 2, "unit": "l/ha", "zone": 2 }, "geometry": { "type": "MultiPolygon", "coordinates": [ [ [ [ 115.215945, -33.9445092 ], [ 115.2159244, -33.9445069 ], [ 115.215928, -33.9444849 ], [ 115.2158753, -33.9444789 ], [ 115.215868, -33.9445228 ], [ 115.2158417, -33.9445198 ], [ 115.2158381, -33.9445418 ], [ 115.2156799, -33.9445237 ], [ 115.2156872, -33.9444798 ], [ 115.2157926, -33.9444918 ], [ 115.2157998, -33.9444479 ], [ 115.2156944, -33.9444359 ], [ 115.215698, -33.9444139 ], [ 115.2156716, -33.9444109 ], [ 115.2156789, -33.944367 ], [ 115.2157052, -33.94437 ], [ 115.2157124, -33.944326 ], [ 115.2156861, -33.944323 ], [ 115.2156897, -33.9443011 ], [ 115.2155843, -33.944289 ], [ 115.2155879, -33.9442671 ], [ 115.2154824, -33.9442551 ], [ 115.215468, -33.9443429 ], [ 115.2155471, -33.9443519 ], [ 115.2155507, -33.94433 ], [ 115.2156034, -33.944336 ], [ 115.215589, -33.9444238 ], [ 115.2154045, -33.9444028 ], [ 115.2154081, -33.9443808 ], [ 115.2153817, -33.9443778 ], [ 115.2153853, -33.9443559 ], [ 115.215359, -33.9443528 ], [ 115.2153626, -33.9443309 ], [ 115.2153362, -33.9443279 ], [ 115.2153398, -33.9443059 ], [ 115.2153926, -33.9443119 ], [ 115.2153962, -33.94429 ], [ 115.2154225, -33.944293 ], [ 115.215437, -33.9442051 ], [ 115.2153842, -33.9441991 ], [ 115.2153879, -33.9441771 ], [ 115.2152034, -33.9441561 ], [ 115.215207, -33.9441341 ], [ 115.2151806, -33.9441311 ], [ 115.215177, -33.9441531 ], [ 115.2150716, -33.944141 ], [ 115.2150752, -33.9441191 ], [ 115.2150488, -33.9441161 ], [ 115.2150597, -33.9440502 ], [ 115.215086, -33.9440532 ], [ 115.2150896, -33.9440312 ], [ 115.2151687, -33.9440402 ], [ 115.2151651, -33.9440622 ], [ 115.2151914, -33.9440652 ], [ 115.2151951, -33.9440432 ], [ 115.2152214, -33.9440462 ], [ 115.215225, -33.9440243 ], [ 115.2152514, -33.9440273 ], [ 115.215255, -33.9440053 ], [ 115.2151496, -33.9439933 ], [ 115.2151532, -33.9439713 ], [ 115.2151268, -33.9439683 ], [ 115.2151304, -33.9439464 ], [ 115.2151041, -33.9439433 ], [ 115.2151077, -33.9439214 ], [ 115.2150813, -33.9439184 ], [ 115.2150849, -33.9438964 ], [ 115.2149268, -33.9438784 ], [ 115.2149232, -33.9439003 ], [ 115.2148968, -33.9438973 ], [ 115.2148896, -33.9439412 ], [ 115.2148633, -33.9439382 ], [ 115.2148597, -33.9439602 ], [ 115.2147542, -33.9439482 ], [ 115.2147506, -33.9439701 ], [ 115.2146716, -33.9439611 ], [ 115.2146752, -33.9439392 ], [ 115.2146488, -33.9439361 ], [ 115.214656, -33.9438922 ], [ 115.2146297, -33.9438892 ], [ 115.2146333, -33.9438672 ], [ 115.2146069, -33.9438642 ], [ 115.2146105, -33.9438423 ], [ 115.2144524, -33.9438242 ], [ 115.2144531, -33.9438199 ], [ 115.2144004, -33.9438141 ], [ 115.2143997, -33.9438182 ], [ 115.2141625, -33.9437911 ], [ 115.2141517, -33.943857 ], [ 115.214178, -33.94386 ], [ 115.2141744, -33.943882 ], [ 115.2141481, -33.943879 ], [ 115.2141444, -33.943901 ], [ 115.2140917, -33.9438949 ], [ 115.2140845, -33.9439389 ], [ 115.2140318, -33.9439329 ], [ 115.214021, -33.9439988 ], [ 115.2140473, -33.9440018 ], [ 115.2140437, -33.9440237 ], [ 115.2140701, -33.9440267 ], [ 115.2140629, -33.9440707 ], [ 115.214221, -33.9440887 ], [ 115.2142174, -33.9441107 ], [ 115.2142437, -33.9441137 ], [ 115.2142293, -33.9442015 ], [ 115.2141239, -33.9441895 ], [ 115.2141022, -33.9443213 ], [ 115.2140759, -33.9443183 ], [ 115.2140723, -33.9443403 ], [ 115.2140459, -33.9443373 ], [ 115.2140423, -33.9443592 ], [ 115.2139105, -33.9443442 ], [ 115.2139069, -33.9443661 ], [ 115.2138806, -33.9443631 ], [ 115.2138697, -33.944429 ], [ 115.2138961, -33.944432 ], [ 115.2138925, -33.944454 ], [ 115.2139188, -33.944457 ], [ 115.2139152, -33.944479 ], [ 115.2139943, -33.944488 ], [ 115.2139979, -33.944466 ], [ 115.214077, -33.9444751 ], [ 115.2140734, -33.944497 ], [ 115.2140997, -33.9445 ], [ 115.2141105, -33.9444341 ], [ 115.2141633, -33.9444402 ], [ 115.2141524, -33.9445061 ], [ 115.2142051, -33.9445121 ], [ 115.2142124, -33.9444681 ], [ 115.2142387, -33.9444711 ], [ 115.2142423, -33.9444492 ], [ 115.2143214, -33.9444582 ], [ 115.2143142, -33.9445021 ], [ 115.2142878, -33.9444991 ], [ 115.2142842, -33.9445211 ], [ 115.2143369, -33.9445271 ], [ 115.2143405, -33.9445051 ], [ 115.2143669, -33.9445082 ], [ 115.2143633, -33.9445301 ], [ 115.2143896, -33.9445331 ], [ 115.2143932, -33.9445112 ], [ 115.2144723, -33.9445202 ], [ 115.2144759, -33.9444982 ], [ 115.2145023, -33.9445012 ], [ 115.214495, -33.9445452 ], [ 115.2145214, -33.9445482 ], [ 115.214525, -33.9445262 ], [ 115.2145514, -33.9445292 ], [ 115.2145478, -33.9445512 ], [ 115.2146005, -33.9445572 ], [ 115.2146041, -33.9445352 ], [ 115.2146304, -33.9445382 ], [ 115.2146413, -33.9444723 ], [ 115.2146676, -33.9444753 ], [ 115.2146712, -33.9444534 ], [ 115.2147503, -33.9444624 ], [ 115.2147467, -33.9444844 ], [ 115.2148785, -33.9444994 ], [ 115.2148821, -33.9444774 ], [ 115.2149348, -33.9444835 ], [ 115.2149203, -33.9445713 ], [ 115.2149731, -33.9445773 ], [ 115.2149694, -33.9445993 ], [ 115.2151012, -33.9446143 ], [ 115.2151048, -33.9445924 ], [ 115.2151312, -33.9445954 ], [ 115.2151276, -33.9446173 ], [ 115.2151539, -33.9446204 ], [ 115.2151575, -33.9445984 ], [ 115.2153157, -33.9446164 ], [ 115.2153121, -33.9446384 ], [ 115.2153384, -33.9446414 ], [ 115.2153456, -33.9445975 ], [ 115.215372, -33.9446005 ], [ 115.2153756, -33.9445785 ], [ 115.2154547, -33.9445875 ], [ 115.2154475, -33.9446315 ], [ 115.215711, -33.9446615 ], [ 115.2157074, -33.9446834 ], [ 115.2157601, -33.9446894 ], [ 115.2157637, -33.9446676 ], [ 115.2157901, -33.9446706 ], [ 115.2157973, -33.9446266 ], [ 115.2158236, -33.9446296 ], [ 115.2158273, -33.9446077 ], [ 115.2158536, -33.9446107 ], [ 115.2158572, -33.9445887 ], [ 115.2159099, -33.9445947 ], [ 115.2159135, -33.9445728 ], [ 115.2159355, -33.9445753 ], [ 115.2159387, -33.9445533 ], [ 115.2159171, -33.9445508 ], [ 115.2159208, -33.9445288 ], [ 115.2159418, -33.9445312 ], [ 115.215945, -33.9445092 ] ], [ [ 115.215238, -33.9442719 ], [ 115.2152416, -33.9442499 ], [ 115.2152943, -33.944256 ], [ 115.2152835, -33.9443219 ], [ 115.2152572, -33.9443189 ], [ 115.2152536, -33.9443408 ], [ 115.2152272, -33.9443378 ], [ 115.2152236, -33.9443598 ], [ 115.2151709, -33.9443538 ], [ 115.2151745, -33.9443318 ], [ 115.2151481, -33.9443288 ], [ 115.2151554, -33.9442849 ], [ 115.2152081, -33.9442909 ], [ 115.2152117, -33.9442689 ], [ 115.215238, -33.9442719 ] ], [ [ 115.2147661, -33.944039 ], [ 115.2147925, -33.9440421 ], [ 115.2147889, -33.944064 ], [ 115.2147625, -33.944061 ], [ 115.2147661, -33.944039 ] ], [ [ 115.2143131, -33.9443454 ], [ 115.2143095, -33.9443673 ], [ 115.2143358, -33.9443703 ], [ 115.2143322, -33.9443923 ], [ 115.2143059, -33.9443893 ], [ 115.2143022, -33.9444113 ], [ 115.2142759, -33.9444083 ], [ 115.2142795, -33.9443863 ], [ 115.2142531, -33.9443833 ], [ 115.2142604, -33.9443394 ], [ 115.2143131, -33.9443454 ] ], [ [ 115.2153146, -33.9444597 ], [ 115.2153936, -33.9444687 ], [ 115.21539, -33.9444907 ], [ 115.2153637, -33.9444876 ], [ 115.2153601, -33.9445096 ], [ 115.2153074, -33.9445036 ], [ 115.2153146, -33.9444597 ] ] ], [ [ [ 115.2148487, -33.9438634 ], [ 115.2147696, -33.9438547 ], [ 115.2147651, -33.9438823 ], [ 115.2148441, -33.9438913 ], [ 115.2148487, -33.9438634 ] ] ], [ [ [ 115.2152443, -33.9439069 ], [ 115.2152431, -33.9439145 ], [ 115.2152694, -33.9439175 ], [ 115.2152707, -33.9439097 ], [ 115.2152443, -33.9439069 ] ] ], [ [ [ 115.2154289, -33.9439271 ], [ 115.2154275, -33.9439355 ], [ 115.2154539, -33.9439385 ], [ 115.2154553, -33.94393 ], [ 115.2154289, -33.9439271 ] ] ], [ [ [ 115.2155872, -33.9439445 ], [ 115.2155857, -33.9439536 ], [ 115.215533, -33.9439475 ], [ 115.2155294, -33.9439695 ], [ 115.215503, -33.9439665 ], [ 115.2154994, -33.9439885 ], [ 115.2154203, -33.9439794 ], [ 115.2154167, -33.9440014 ], [ 115.215364, -33.9439954 ], [ 115.2153604, -33.9440174 ], [ 115.215334, -33.9440143 ], [ 115.2153304, -33.9440363 ], [ 115.2153568, -33.9440393 ], [ 115.2153496, -33.9440832 ], [ 115.2154023, -33.9440893 ], [ 115.2153987, -33.9441112 ], [ 115.2155568, -33.9441293 ], [ 115.2155604, -33.9441073 ], [ 115.2156658, -33.9441193 ], [ 115.2156694, -33.9440974 ], [ 115.2156958, -33.9441004 ], [ 115.2157066, -33.9440345 ], [ 115.215733, -33.9440375 ], [ 115.2157366, -33.9440155 ], [ 115.2157629, -33.9440185 ], [ 115.2157593, -33.9440405 ], [ 115.215812, -33.9440465 ], [ 115.2158084, -33.9440685 ], [ 115.2158348, -33.9440715 ], [ 115.215824, -33.9441374 ], [ 115.2158503, -33.9441404 ], [ 115.2158467, -33.9441624 ], [ 115.2158731, -33.9441654 ], [ 115.2158695, -33.9441873 ], [ 115.2158958, -33.9441903 ], [ 115.2158922, -33.9442123 ], [ 115.2159186, -33.9442153 ], [ 115.2159077, -33.9442812 ], [ 115.2159341, -33.9442842 ], [ 115.2159305, -33.9443062 ], [ 115.2159041, -33.9443032 ], [ 115.2158933, -33.9443691 ], [ 115.2159197, -33.9443721 ], [ 115.2159161, -33.944394 ], [ 115.2159424, -33.944397 ], [ 115.2159785, -33.9441774 ], [ 115.2159921, -33.9441789 ], [ 115.2159983, -33.9441349 ], [ 115.2159857, -33.9441335 ], [ 115.2159893, -33.9441115 ], [ 115.215963, -33.9441085 ], [ 115.2159702, -33.9440646 ], [ 115.2159175, -33.9440585 ], [ 115.2159211, -33.9440366 ], [ 115.2159474, -33.9440396 ], [ 115.215951, -33.9440176 ], [ 115.2159247, -33.9440146 ], [ 115.21593, -33.9439822 ], [ 115.2159036, -33.9439793 ], [ 115.2159019, -33.9439896 ], [ 115.215612, -33.9439566 ], [ 115.2156135, -33.9439474 ], [ 115.2155872, -33.9439445 ] ] ], [ [ [ 115.2134186, -33.9437286 ], [ 115.2134209, -33.9437289 ], [ 115.2134188, -33.9437421 ], [ 115.2134193, -33.9437958 ], [ 115.2134365, -33.9437978 ], [ 115.2134329, -33.9438197 ], [ 115.2134196, -33.9438182 ], [ 115.21342, -33.943863 ], [ 115.213452, -33.9438667 ], [ 115.2134448, -33.9439106 ], [ 115.2134205, -33.9439078 ], [ 115.2134216, -33.9440199 ], [ 115.2134267, -33.9440204 ], [ 115.2134219, -33.9440496 ], [ 115.213423, -33.9441543 ], [ 115.2134314, -33.9441552 ], [ 115.2134235, -33.9442033 ], [ 115.2134242, -33.9442663 ], [ 115.2134397, -33.9442681 ], [ 115.2134325, -33.944312 ], [ 115.2134247, -33.9443111 ], [ 115.2134249, -33.9443335 ], [ 115.2134289, -33.944334 ], [ 115.2134251, -33.944357 ], [ 115.2134256, -33.9444007 ], [ 115.2134444, -33.9444029 ], [ 115.2134408, -33.9444248 ], [ 115.2134672, -33.9444278 ], [ 115.2134708, -33.9444059 ], [ 115.2134972, -33.9444089 ], [ 115.2135116, -33.944321 ], [ 115.2134852, -33.944318 ], [ 115.2134888, -33.9442961 ], [ 115.2134625, -33.944293 ], [ 115.2134661, -33.9442711 ], [ 115.2134925, -33.9442741 ], [ 115.2134961, -33.9442521 ], [ 115.2135224, -33.9442551 ], [ 115.213526, -33.9442332 ], [ 115.2135524, -33.9442362 ], [ 115.2135668, -33.9441483 ], [ 115.2135405, -33.9441453 ], [ 115.2135441, -33.9441233 ], [ 115.2135177, -33.9441203 ], [ 115.2135249, -33.9440764 ], [ 115.2134986, -33.9440734 ], [ 115.2135058, -33.9440295 ], [ 115.2135322, -33.9440325 ], [ 115.2135466, -33.9439446 ], [ 115.2135202, -33.9439416 ], [ 115.2135455, -33.9437878 ], [ 115.2135191, -33.9437848 ], [ 115.2135264, -33.9437409 ], [ 115.2135527, -33.9437439 ], [ 115.2135563, -33.943722 ], [ 115.2134313, -33.9437077 ], [ 115.2134184, -33.9437063 ], [ 115.2134186, -33.9437286 ] ] ], [ [ [ 115.2137899, -33.943771 ], [ 115.2137935, -33.943749 ], [ 115.2137672, -33.943746 ], [ 115.2137636, -33.943768 ], [ 115.2137899, -33.943771 ] ] ], [ [ [ 115.2138989, -33.9437611 ], [ 115.2138199, -33.943752 ], [ 115.2138127, -33.943796 ], [ 115.2138917, -33.943805 ], [ 115.2138989, -33.9437611 ] ] ], [ [ [ 115.2140571, -33.9437791 ], [ 115.2140044, -33.9437731 ], [ 115.2140008, -33.9437951 ], [ 115.2140535, -33.9438011 ], [ 115.2140571, -33.9437791 ] ] ], [ [ [ 115.2140556, -33.9441146 ], [ 115.2140593, -33.9440926 ], [ 115.2140329, -33.9440896 ], [ 115.2140293, -33.9441116 ], [ 115.2140029, -33.9441086 ], [ 115.2139957, -33.9441525 ], [ 115.2140748, -33.9441615 ], [ 115.214082, -33.9441176 ], [ 115.2140556, -33.9441146 ] ] ], [ [ [ 115.2146532, -33.9445632 ], [ 115.2146568, -33.9445412 ], [ 115.2146304, -33.9445382 ], [ 115.2146268, -33.9445602 ], [ 115.2146532, -33.9445632 ] ] ], [ [ [ 115.214785, -33.9445782 ], [ 115.2147886, -33.9445563 ], [ 115.2147359, -33.9445503 ], [ 115.2147322, -33.9445722 ], [ 115.214785, -33.9445782 ] ] ], [ [ [ 115.2154438, -33.9446534 ], [ 115.2154475, -33.9446315 ], [ 115.2154211, -33.9446285 ], [ 115.2154175, -33.9446504 ], [ 115.2154438, -33.9446534 ] ] ] ] } },
{ "type": "Feature", "properties": { "appName": "Rosa Brook 050425", "rate": 3.0, "rateInt": 3, "unit": "l/ha", "zone": 3 }, "geometry": { "type": "MultiPolygon", "coordinates": [ [ [ [ 115.2146905, -33.943846 ], [ 115.2146896, -33.9438513 ], [ 115.2146105, -33.9438423 ], [ 115.2146069, -33.9438642 ], [ 115.2146333, -33.9438672 ], [ 115.2146297, -33.9438892 ], [ 115.214656, -33.9438922 ], [ 115.2146488, -33.9439361 ], [ 115.2146752, -33.9439392 ], [ 115.2146716, -33.9439611 ], [ 115.2147506, -33.9439701 ], [ 115.2147542, -33.9439482 ], [ 115.2148597, -33.9439602 ], [ 115.2148633, -33.9439382 ], [ 115.2148896, -33.9439412 ], [ 115.2148968, -33.9438973 ], [ 115.2149232, -33.9439003 ], [ 115.2149268, -33.9438784 ], [ 115.2148477, -33.9438693 ], [ 115.2148441, -33.9438913 ], [ 115.2147651, -33.9438823 ], [ 115.2147687, -33.9438603 ], [ 115.214716, -33.9438543 ], [ 115.2147168, -33.9438489 ], [ 115.2146905, -33.943846 ] ] ], [ [ [ 115.2159983, -33.9441349 ], [ 115.2160187, -33.9439919 ], [ 115.21593, -33.9439822 ], [ 115.2159247, -33.9440146 ], [ 115.215951, -33.9440176 ], [ 115.2159438, -33.9440616 ], [ 115.2159702, -33.9440646 ], [ 115.215963, -33.9441085 ], [ 115.2159893, -33.9441115 ], [ 115.2159857, -33.9441335 ], [ 115.2159983, -33.9441349 ] ] ], [ [ [ 115.215086, -33.9440532 ], [ 115.2150597, -33.9440502 ], [ 115.2150488, -33.9441161 ], [ 115.2150752, -33.9441191 ], [ 115.2150716, -33.944141 ], [ 115.215177, -33.9441531 ], [ 115.2151806, -33.9441311 ], [ 115.215207, -33.9441341 ], [ 115.2152034, -33.9441561 ], [ 115.2153879, -33.9441771 ], [ 115.2153842, -33.9441991 ], [ 115.215437, -33.9442051 ], [ 115.2154225, -33.944293 ], [ 115.2153962, -33.94429 ], [ 115.2153926, -33.9443119 ], [ 115.2153398, -33.9443059 ], [ 115.2153362, -33.9443279 ], [ 115.2153626, -33.9443309 ], [ 115.215359, -33.9443528 ], [ 115.2153853, -33.9443559 ], [ 115.2153817, -33.9443778 ], [ 115.2154081, -33.9443808 ], [ 115.2154045, -33.9444028 ], [ 115.215589, -33.9444238 ], [ 115.2156034, -33.944336 ], [ 115.2155507, -33.94433 ], [ 115.2155471, -33.9443519 ], [ 115.215468, -33.9443429 ], [ 115.2154824, -33.9442551 ], [ 115.2155879, -33.9442671 ], [ 115.2155843, -33.944289 ], [ 115.2156897, -33.9443011 ], [ 115.2156861, -33.944323 ], [ 115.2157124, -33.944326 ], [ 115.2157052, -33.94437 ], [ 115.2156789, -33.944367 ], [ 115.2156716, -33.9444109 ], [ 115.215698, -33.9444139 ], [ 115.2156944, -33.9444359 ], [ 115.2157998, -33.9444479 ], [ 115.2157926, -33.9444918 ], [ 115.2156872, -33.9444798 ], [ 115.2156799, -33.9445237 ], [ 115.2158381, -33.9445418 ], [ 115.2158417, -33.9445198 ], [ 115.215868, -33.9445228 ], [ 115.2158753, -33.9444789 ], [ 115.215928, -33.9444849 ], [ 115.2159424, -33.944397 ], [ 115.2159161, -33.944394 ], [ 115.2159197, -33.9443721 ], [ 115.2158933, -33.9443691 ], [ 115.2159041, -33.9443032 ], [ 115.2159305, -33.9443062 ], [ 115.2159341, -33.9442842 ], [ 115.2159077, -33.9442812 ], [ 115.2159186, -33.9442153 ], [ 115.2158922, -33.9442123 ], [ 115.2158958, -33.9441903 ], [ 115.2158695, -33.9441873 ], [ 115.2158731, -33.9441654 ], [ 115.2158467, -33.9441624 ], [ 115.2158503, -33.9441404 ], [ 115.215824, -33.9441374 ], [ 115.2158348, -33.9440715 ], [ 115.2158084, -33.9440685 ], [ 115.215812, -33.9440465 ], [ 115.2157593, -33.9440405 ], [ 115.2157629, -33.9440185 ], [ 115.2157366, -33.9440155 ], [ 115.215733, -33.9440375 ], [ 115.2157066, -33.9440345 ], [ 115.2156958, -33.9441004 ], [ 115.2156694, -33.9440974 ], [ 115.2156658, -33.9441193 ], [ 115.2155604, -33.9441073 ], [ 115.2155568, -33.9441293 ], [ 115.2153987, -33.9441112 ], [ 115.2154023, -33.9440893 ], [ 115.2153496, -33.9440832 ], [ 115.2153568, -33.9440393 ], [ 115.2153304, -33.9440363 ], [ 115.215334, -33.9440143 ], [ 115.2153604, -33.9440174 ], [ 115.215364, -33.9439954 ], [ 115.2154167, -33.9440014 ], [ 115.2154203, -33.9439794 ], [ 115.2154994, -33.9439885 ], [ 115.215503, -33.9439665 ], [ 115.2155294, -33.9439695 ], [ 115.215533, -33.9439475 ], [ 115.2150849, -33.9438964 ], [ 115.2150813, -33.9439184 ], [ 115.2151077, -33.9439214 ], [ 115.2151041, -33.9439433 ], [ 115.2151304, -33.9439464 ], [ 115.2151268, -33.9439683 ], [ 115.2151532, -33.9439713 ], [ 115.2151496, -33.9439933 ], [ 115.215255, -33.9440053 ], [ 115.2152514, -33.9440273 ], [ 115.215225, -33.9440243 ], [ 115.2152214, -33.9440462 ], [ 115.2151951, -33.9440432 ], [ 115.2151914, -33.9440652 ], [ 115.2151651, -33.9440622 ], [ 115.2151687, -33.9440402 ], [ 115.2150896, -33.9440312 ], [ 115.215086, -33.9440532 ] ] ], [ [ [ 115.2134205, -33.9439078 ], [ 115.2134448, -33.9439106 ], [ 115.213452, -33.9438667 ], [ 115.2134256, -33.9438637 ], [ 115.2134204, -33.9438958 ], [ 115.2134205, -33.9439078 ] ] ], [ [ [ 115.2147889, -33.944064 ], [ 115.2147925, -33.9440421 ], [ 115.2147661, -33.944039 ], [ 115.2147625, -33.944061 ], [ 115.2147889, -33.944064 ] ] ], [ [ [ 115.215238, -33.9442719 ], [ 115.2152117, -33.9442689 ], [ 115.2152081, -33.9442909 ], [ 115.2151554, -33.9442849 ], [ 115.2151481, -33.9443288 ], [ 115.2151745, -33.9443318 ], [ 115.2151709, -33.9443538 ], [ 115.2152236, -33.9443598 ], [ 115.2152272, -33.9443378 ], [ 115.2152536, -33.9443408 ], [ 115.2152572, -33.9443189 ], [ 115.2152835, -33.9443219 ], [ 115.2152943, -33.944256 ], [ 115.2152416, -33.9442499 ], [ 115.215238, -33.9442719 ] ] ], [ [ [ 115.2143095, -33.9443673 ], [ 115.2143131, -33.9443454 ], [ 115.2142604, -33.9443394 ], [ 115.2142531, -33.9443833 ], [ 115.2142795, -33.9443863 ], [ 115.2142759, -33.9444083 ], [ 115.2143022, -33.9444113 ], [ 115.2143059, -33.9443893 ], [ 115.2143322, -33.9443923 ], [ 115.2143358, -33.9443703 ], [ 115.2143095, -33.9443673 ] ] ], [ [ [ 115.2153936, -33.9444687 ], [ 115.2153146, -33.9444597 ], [ 115.2153074, -33.9445036 ], [ 115.2153601, -33.9445096 ], [ 115.2153637, -33.9444876 ], [ 115.21539, -33.9444907 ], [ 115.2153936, -33.9444687 ] ] ], [ [ [ 115.2147503, -33.9444624 ], [ 115.2146712, -33.9444534 ], [ 115.2146676, -33.9444753 ], [ 115.2146413, -33.9444723 ], [ 115.2146304, -33.9445382 ], [ 115.2149203, -33.9445713 ], [ 115.2149348, -33.9444835 ], [ 115.2148821, -33.9444774 ], [ 115.2148785, -33.9444994 ], [ 115.2147467, -33.9444844 ], [ 115.2147503, -33.9444624 ] ] ], [ [ [ 115.2143214, -33.9444582 ], [ 115.2142423, -33.9444492 ], [ 115.2142387, -33.9444711 ], [ 115.2142124, -33.9444681 ], [ 115.2142051, -33.9445121 ], [ 115.2142842, -33.9445211 ], [ 115.2142878, -33.9444991 ], [ 115.2143142, -33.9445021 ], [ 115.2143214, -33.9444582 ] ] ], [ [ [ 115.2154547, -33.9445875 ], [ 115.2153756, -33.9445785 ], [ 115.215372, -33.9446005 ], [ 115.2153456, -33.9445975 ], [ 115.215342, -33.9446194 ], [ 115.2154475, -33.9446315 ], [ 115.2154547, -33.9445875 ] ] ], [ [ [ 115.2144987, -33.9445232 ], [ 115.2145023, -33.9445012 ], [ 115.2144759, -33.9444982 ], [ 115.2144723, -33.9445202 ], [ 115.2144987, -33.9445232 ] ] ] ] } }
]
}
