{
"type": "FeatureCollection",
"name": "block5boundary",
"crs": { "type": "name", "properties": { "name": "urn:ogc:def:crs:OGC:1.3:CRS84" } },
"features": [
{ "type": "Feature", "properties": { "name": "Brookland Valley 18 Feb 26" }, "geometry": { "type": "MultiPolygon", "coordinates": [ [ [ [ 115.029414183342851, -33.793606338539021 ], [ 115.029989173038132, -33.793967691992684 ], [ 115.029368359106741, -33.795747557720439 ], [ 115.029323012098814, -33.7968120458155 ], [ 115.028930745004914, -33.796897829952037 ], [ 115.028871646871721, -33.796876812812016 ], [ 115.028735901766993, -33.796881102037965 ], [ 115.028251761446029, -33.796569381787045 ], [ 115.028315687954205, -33.795220900611348 ], [ 115.02822422006443, -33.795161395775345 ], [ 115.028239926670892, -33.795141816747332 ], [ 115.02819604054406, -33.795114559627443 ], [ 115.027954954127722, -33.794748483662488 ], [ 115.027977281269102, -33.794295612379386 ], [ 115.029414183342851, -33.793606338539021 ] ] ] ] } }
]
}
