{
"type": "FeatureCollection",
"name": "NDVI 308 103 801 Zones3_Rx",
"features": [
{ "type": "Feature", "properties": { "appName": "Brookland Valley 18 Feb 26", "rate": 1.0, "rateInt": 1, "unit": "l/ha", "zone": 1 }, "geometry": { "type": "MultiPolygon", "coordinates": [ [ [ [ 115.0248406, -33.7955687 ], [ 115.0248167, -33.7955779 ], [ 115.0247706, -33.7958278 ], [ 115.0247749, -33.7958354 ], [ 115.0247688, -33.7958378 ], [ 115.0247412, -33.7959878 ], [ 115.0247604, -33.7959803 ], [ 115.0247695, -33.7959966 ], [ 115.0247372, -33.7960092 ], [ 115.0247351, -33.7960204 ], [ 115.0247395, -33.7960282 ], [ 115.0247333, -33.7960306 ], [ 115.0247254, -33.7960734 ], [ 115.0247577, -33.7960609 ], [ 115.0247668, -33.7960772 ], [ 115.0247214, -33.7960949 ], [ 115.0247115, -33.7961489 ], [ 115.0247249, -33.7961731 ], [ 115.0247837, -33.7961502 ], [ 115.0248201, -33.7962156 ], [ 115.0248397, -33.796208 ], [ 115.0248488, -33.7962243 ], [ 115.0248684, -33.7962167 ], [ 115.0248866, -33.7962494 ], [ 115.0249062, -33.7962418 ], [ 115.0249153, -33.7962582 ], [ 115.0249545, -33.796243 ], [ 115.0249636, -33.7962593 ], [ 115.0250419, -33.7962289 ], [ 115.0250328, -33.7962125 ], [ 115.0250524, -33.7962049 ], [ 115.0250433, -33.7961886 ], [ 115.0250629, -33.796181 ], [ 115.0250537, -33.7961646 ], [ 115.0250733, -33.796157 ], [ 115.0250642, -33.7961406 ], [ 115.0250838, -33.796133 ], [ 115.0250747, -33.7961167 ], [ 115.025153, -33.7960863 ], [ 115.0251439, -33.7960699 ], [ 115.0252418, -33.7960319 ], [ 115.0252327, -33.7960155 ], [ 115.0252522, -33.7960079 ], [ 115.025234, -33.7959752 ], [ 115.0252732, -33.79596 ], [ 115.0252641, -33.7959436 ], [ 115.0252836, -33.795936 ], [ 115.0252745, -33.7959197 ], [ 115.0252941, -33.7959121 ], [ 115.025285, -33.7958957 ], [ 115.0253046, -33.7958881 ], [ 115.0252954, -33.7958718 ], [ 115.025315, -33.7958642 ], [ 115.0253059, -33.7958478 ], [ 115.0253255, -33.7958402 ], [ 115.0253164, -33.7958239 ], [ 115.0253751, -33.795801 ], [ 115.025366, -33.7957847 ], [ 115.0254247, -33.7957619 ], [ 115.0254339, -33.7957782 ], [ 115.0254926, -33.7957554 ], [ 115.0255017, -33.7957717 ], [ 115.0255604, -33.7957489 ], [ 115.0255513, -33.7957326 ], [ 115.0255905, -33.7957173 ], [ 115.0255814, -33.795701 ], [ 115.025601, -33.7956934 ], [ 115.0255918, -33.795677 ], [ 115.0255723, -33.7956846 ], [ 115.0255449, -33.7956356 ], [ 115.0255058, -33.7956508 ], [ 115.0254967, -33.7956345 ], [ 115.0254379, -33.7956573 ], [ 115.0254197, -33.7956246 ], [ 115.0257134, -33.7955105 ], [ 115.0257043, -33.7954941 ], [ 115.0257826, -33.7954637 ], [ 115.0257735, -33.7954473 ], [ 115.0258126, -33.7954321 ], [ 115.0258035, -33.7954158 ], [ 115.0260449, -33.7953219 ], [ 115.0260359, -33.7953056 ], [ 115.0260293, -33.7953081 ], [ 115.0260111, -33.7952754 ], [ 115.0260178, -33.7952728 ], [ 115.0260088, -33.7952564 ], [ 115.026002, -33.7952591 ], [ 115.0259929, -33.7952427 ], [ 115.0259998, -33.7952401 ], [ 115.0259463, -33.795143 ], [ 115.0255247, -33.7953054 ], [ 115.0249788, -33.7955175 ], [ 115.0249779, -33.7955159 ], [ 115.0249387, -33.795531 ], [ 115.0249397, -33.7955327 ], [ 115.0249201, -33.7955403 ], [ 115.0249191, -33.7955385 ], [ 115.0248995, -33.7955461 ], [ 115.0249005, -33.7955479 ], [ 115.0248418, -33.7955708 ], [ 115.0248406, -33.7955687 ] ], [ [ 115.0248299, -33.795635 ], [ 115.0248208, -33.7956187 ], [ 115.0248796, -33.7955959 ], [ 115.0248887, -33.7956122 ], [ 115.0248299, -33.795635 ] ], [ [ 115.0247746, -33.7961339 ], [ 115.0247654, -33.7961175 ], [ 115.024785, -33.7961099 ], [ 115.0247941, -33.7961263 ], [ 115.0247746, -33.7961339 ] ], [ [ 115.0249039, -33.796024 ], [ 115.0248647, -33.7960392 ], [ 115.0248465, -33.7960065 ], [ 115.0248856, -33.7959913 ], [ 115.0249039, -33.796024 ] ], [ [ 115.0252499, -33.79579 ], [ 115.0252408, -33.7957737 ], [ 115.0252603, -33.7957661 ], [ 115.0252695, -33.7957824 ], [ 115.0252499, -33.79579 ] ], [ [ 115.0252681, -33.7958227 ], [ 115.0252772, -33.7958391 ], [ 115.0252576, -33.7958467 ], [ 115.0252485, -33.7958303 ], [ 115.0252681, -33.7958227 ] ], [ [ 115.0247982, -33.7960054 ], [ 115.0247891, -33.795989 ], [ 115.0248087, -33.7959814 ], [ 115.0248178, -33.7959978 ], [ 115.0247982, -33.7960054 ] ] ], [ [ [ 115.0247017, -33.796202 ], [ 115.0247145, -33.796197 ], [ 115.0247055, -33.796181 ], [ 115.0247017, -33.796202 ] ] ], [ [ [ 115.0249126, -33.7963388 ], [ 115.0248944, -33.7963061 ], [ 115.0248748, -33.7963137 ], [ 115.0248657, -33.7962973 ], [ 115.0248265, -33.7963126 ], [ 115.0248357, -33.7963289 ], [ 115.0248161, -33.7963365 ], [ 115.0248252, -33.7963529 ], [ 115.0248056, -33.7963605 ], [ 115.0248238, -33.7963932 ], [ 115.024863, -33.796378 ], [ 115.0248721, -33.7963943 ], [ 115.0249504, -33.7963639 ], [ 115.0249322, -33.7963312 ], [ 115.0249126, -33.7963388 ] ] ], [ [ [ 115.0255496, -33.7960713 ], [ 115.0255105, -33.7960865 ], [ 115.0255287, -33.7961192 ], [ 115.0255483, -33.7961116 ], [ 115.0255392, -33.7960953 ], [ 115.0255588, -33.7960877 ], [ 115.0255496, -33.7960713 ] ] ], [ [ [ 115.0255078, -33.7961672 ], [ 115.025449, -33.79619 ], [ 115.0254673, -33.7962227 ], [ 115.0254477, -33.7962303 ], [ 115.0254568, -33.7962466 ], [ 115.0254372, -33.7962542 ], [ 115.0254463, -33.7962706 ], [ 115.0254268, -33.7962782 ], [ 115.0254541, -33.7963272 ], [ 115.0254345, -33.7963348 ], [ 115.0254436, -33.7963512 ], [ 115.0254241, -33.7963588 ], [ 115.0254332, -33.7963751 ], [ 115.0254136, -33.7963828 ], [ 115.0254227, -33.7963991 ], [ 115.0254031, -33.7964067 ], [ 115.0254122, -33.7964231 ], [ 115.0254318, -33.7964154 ], [ 115.0254409, -33.7964318 ], [ 115.0254605, -33.7964242 ], [ 115.0254514, -33.7964078 ], [ 115.0254906, -33.7963926 ], [ 115.0254814, -33.7963763 ], [ 115.025501, -33.7963687 ], [ 115.0254919, -33.7963523 ], [ 115.0255115, -33.7963447 ], [ 115.0254933, -33.796312 ], [ 115.0255128, -33.7963044 ], [ 115.0255037, -33.7962881 ], [ 115.0255233, -33.7962804 ], [ 115.0255324, -33.7962968 ], [ 115.0255716, -33.7962816 ], [ 115.0255533, -33.7962489 ], [ 115.0255729, -33.7962413 ], [ 115.0255456, -33.7961922 ], [ 115.025526, -33.7961998 ], [ 115.0255078, -33.7961672 ] ], [ [ 115.025475, -33.7962793 ], [ 115.0254841, -33.7962957 ], [ 115.0254646, -33.7963033 ], [ 115.0254554, -33.7962869 ], [ 115.025475, -33.7962793 ] ] ], [ [ [ 115.0252465, -33.7964676 ], [ 115.0253012, -33.7965657 ], [ 115.0253207, -33.7965581 ], [ 115.0253299, -33.7965744 ], [ 115.0253494, -33.7965668 ], [ 115.0253312, -33.7965341 ], [ 115.0253508, -33.7965265 ], [ 115.0253143, -33.7964611 ], [ 115.0252948, -33.7964687 ], [ 115.0252856, -33.7964524 ], [ 115.0252465, -33.7964676 ] ] ], [ [ [ 115.024599, -33.796759 ], [ 115.0245932, -33.7967904 ], [ 115.0246164, -33.7967902 ], [ 115.024599, -33.796759 ], [ 115.024599, -33.796759 ] ] ], [ [ [ 115.0249489, -33.7967883 ], [ 115.0249726, -33.7967882 ], [ 115.0249656, -33.7967756 ], [ 115.024946, -33.7967832 ], [ 115.0249489, -33.7967883 ] ] ], [ [ [ 115.0263828, -33.7965829 ], [ 115.0263645, -33.7965502 ], [ 115.0263254, -33.7965654 ], [ 115.0263436, -33.7965981 ], [ 115.0263828, -33.7965829 ] ] ], [ [ [ 115.0266954, -33.7965011 ], [ 115.0266683, -33.796452 ], [ 115.0266673, -33.7964524 ], [ 115.0266947, -33.7965014 ], [ 115.0266954, -33.7965011 ] ] ], [ [ [ 115.02678, -33.7966545 ], [ 115.0267496, -33.7965994 ], [ 115.0267494, -33.7965995 ], [ 115.02678, -33.7966545 ] ] ], [ [ [ 115.0258438, -33.7971901 ], [ 115.0258602, -33.7971837 ], [ 115.0258784, -33.7972164 ], [ 115.025898, -33.7972088 ], [ 115.0258889, -33.7971925 ], [ 115.0259085, -33.7971849 ], [ 115.0258993, -33.7971685 ], [ 115.0258798, -33.7971761 ], [ 115.0258433, -33.7971107 ], [ 115.0258629, -33.7971031 ], [ 115.0258538, -33.7970868 ], [ 115.0258733, -33.7970792 ], [ 115.0258642, -33.7970628 ], [ 115.0258838, -33.7970552 ], [ 115.0258565, -33.7970062 ], [ 115.0258369, -33.7970138 ], [ 115.0258278, -33.7969975 ], [ 115.0257886, -33.7970127 ], [ 115.0257977, -33.797029 ], [ 115.0257781, -33.7970366 ], [ 115.0257873, -33.797053 ], [ 115.0257677, -33.7970606 ], [ 115.0257768, -33.7970769 ], [ 115.0257572, -33.7970845 ], [ 115.0257663, -33.7971009 ], [ 115.0257468, -33.7971085 ], [ 115.0257497, -33.7971137 ], [ 115.0257609, -33.7971229 ], [ 115.0257754, -33.7971172 ], [ 115.0257846, -33.7971336 ], [ 115.0258041, -33.797126 ], [ 115.0258133, -33.7971423 ], [ 115.0257941, -33.7971498 ], [ 115.0258107, -33.7971632 ], [ 115.0258224, -33.7971587 ], [ 115.0258367, -33.7971843 ], [ 115.0258438, -33.7971901 ] ] ], [ [ [ 115.0265809, -33.7967246 ], [ 115.026483, -33.7967627 ], [ 115.0264921, -33.796779 ], [ 115.026453, -33.7967943 ], [ 115.0264803, -33.7968433 ], [ 115.0264999, -33.7968357 ], [ 115.026509, -33.796852 ], [ 115.0266461, -33.7967988 ], [ 115.026637, -33.7967824 ], [ 115.026774, -33.7967292 ], [ 115.0267649, -33.7967128 ], [ 115.0267453, -33.7967204 ], [ 115.0267362, -33.7967041 ], [ 115.026697, -33.7967193 ], [ 115.0266879, -33.7967029 ], [ 115.0266683, -33.7967106 ], [ 115.0266592, -33.7966942 ], [ 115.0266005, -33.796717 ], [ 115.0265914, -33.7967007 ], [ 115.0265718, -33.7967083 ], [ 115.0265809, -33.7967246 ] ] ], [ [ [ 115.0257444, -33.7971094 ], [ 115.0257468, -33.7971085 ], [ 115.0257285, -33.7970758 ], [ 115.0257112, -33.7970825 ], [ 115.0257444, -33.7971094 ] ] ], [ [ [ 115.0264503, -33.7968749 ], [ 115.026432, -33.7968422 ], [ 115.0263929, -33.7968574 ], [ 115.0264111, -33.7968901 ], [ 115.0264503, -33.7968749 ] ] ], [ [ [ 115.0268219, -33.7967304 ], [ 115.0268038, -33.7966977 ], [ 115.0267845, -33.7967052 ], [ 115.0268027, -33.7967379 ], [ 115.0268219, -33.7967304 ] ] ], [ [ [ 115.026245, -33.7972331 ], [ 115.0264017, -33.7971722 ], [ 115.0263925, -33.7971559 ], [ 115.0264121, -33.7971482 ], [ 115.026403, -33.7971319 ], [ 115.0264226, -33.7971243 ], [ 115.0264135, -33.7971079 ], [ 115.0264331, -33.7971003 ], [ 115.0264148, -33.7970676 ], [ 115.0263952, -33.7970752 ], [ 115.0263861, -33.7970589 ], [ 115.0264057, -33.7970513 ], [ 115.0263966, -33.7970349 ], [ 115.0264162, -33.7970273 ], [ 115.0264071, -33.797011 ], [ 115.0264462, -33.7969958 ], [ 115.026428, -33.7969631 ], [ 115.0264476, -33.7969555 ], [ 115.0264385, -33.7969391 ], [ 115.0264189, -33.7969467 ], [ 115.0264098, -33.7969304 ], [ 115.0263314, -33.7969608 ], [ 115.0263679, -33.7970262 ], [ 115.0263483, -33.7970338 ], [ 115.0263574, -33.7970502 ], [ 115.0263379, -33.7970578 ], [ 115.0263287, -33.7970414 ], [ 115.0263092, -33.797049 ], [ 115.0263, -33.7970327 ], [ 115.0262217, -33.7970631 ], [ 115.0262308, -33.7970795 ], [ 115.0261917, -33.7970947 ], [ 115.0262008, -33.797111 ], [ 115.0261616, -33.7971263 ], [ 115.0261708, -33.7971426 ], [ 115.0261512, -33.7971502 ], [ 115.0261876, -33.7972156 ], [ 115.0262072, -33.797208 ], [ 115.0262163, -33.7972243 ], [ 115.0262359, -33.7972167 ], [ 115.026245, -33.7972331 ] ] ], [ [ [ 115.0268581, -33.7967959 ], [ 115.0268392, -33.7968033 ], [ 115.0268938, -33.7969014 ], [ 115.0268743, -33.796909 ], [ 115.0268834, -33.7969253 ], [ 115.0268638, -33.7969329 ], [ 115.0268547, -33.7969166 ], [ 115.0267764, -33.796947 ], [ 115.0267855, -33.7969634 ], [ 115.0267659, -33.796971 ], [ 115.0267841, -33.7970037 ], [ 115.0267646, -33.7970113 ], [ 115.0267737, -33.7970276 ], [ 115.0266954, -33.7970581 ], [ 115.0266862, -33.7970417 ], [ 115.0266667, -33.7970493 ], [ 115.0266575, -33.797033 ], [ 115.026638, -33.7970406 ], [ 115.0266197, -33.7970079 ], [ 115.0265218, -33.7970459 ], [ 115.0265309, -33.7970623 ], [ 115.0264722, -33.7970851 ], [ 115.0265178, -33.7971668 ], [ 115.0264982, -33.7971745 ], [ 115.0265073, -33.7971908 ], [ 115.0265856, -33.7971604 ], [ 115.0265947, -33.7971767 ], [ 115.0266143, -33.7971691 ], [ 115.0266417, -33.7972181 ], [ 115.0266025, -33.7972334 ], [ 115.0266207, -33.7972661 ], [ 115.0266599, -33.7972508 ], [ 115.0266508, -33.7972345 ], [ 115.0266704, -33.7972269 ], [ 115.0266613, -33.7972105 ], [ 115.0267004, -33.7971953 ], [ 115.0266913, -33.797179 ], [ 115.0268088, -33.7971333 ], [ 115.0268179, -33.7971497 ], [ 115.0268375, -33.797142 ], [ 115.0268466, -33.7971584 ], [ 115.0268857, -33.7971432 ], [ 115.0268493, -33.7970778 ], [ 115.0268689, -33.7970702 ], [ 115.0268506, -33.7970375 ], [ 115.0268702, -33.7970299 ], [ 115.0268611, -33.7970135 ], [ 115.0268807, -33.7970059 ], [ 115.0268716, -33.7969896 ], [ 115.0269303, -33.7969667 ], [ 115.0269394, -33.7969831 ], [ 115.0269574, -33.7969761 ], [ 115.0268581, -33.7967959 ] ] ], [ [ [ 115.0258125, -33.7973614 ], [ 115.0258156, -33.7973602 ], [ 115.0258065, -33.7973438 ], [ 115.0257888, -33.7973507 ], [ 115.0258125, -33.7973614 ] ] ], [ [ [ 115.0259092, -33.7974034 ], [ 115.0259108, -33.7974027 ], [ 115.0258926, -33.79737 ], [ 115.025873, -33.7973777 ], [ 115.0258813, -33.7973925 ], [ 115.0259004, -33.7974011 ], [ 115.0259092, -33.7974034 ] ] ], [ [ [ 115.0261879, -33.7974541 ], [ 115.0261991, -33.7974498 ], [ 115.0261626, -33.7973844 ], [ 115.0261235, -33.7973996 ], [ 115.0261144, -33.7973833 ], [ 115.0260948, -33.7973909 ], [ 115.0260857, -33.7973746 ], [ 115.0261053, -33.7973669 ], [ 115.0260961, -33.7973506 ], [ 115.0261157, -33.797343 ], [ 115.0261066, -33.7973266 ], [ 115.0261262, -33.797319 ], [ 115.0261171, -33.7973027 ], [ 115.0260975, -33.7973103 ], [ 115.0260884, -33.7972939 ], [ 115.0260101, -33.7973244 ], [ 115.0260283, -33.7973571 ], [ 115.0259891, -33.7973723 ], [ 115.0259982, -33.7973886 ], [ 115.0260178, -33.797381 ], [ 115.0260269, -33.7973974 ], [ 115.0260074, -33.797405 ], [ 115.0260223, -33.7974318 ], [ 115.0260264, -33.7974328 ], [ 115.0260351, -33.797434 ], [ 115.0260452, -33.7974301 ], [ 115.0260483, -33.7974357 ], [ 115.0260733, -33.797439 ], [ 115.0260934, -33.7974312 ], [ 115.0260997, -33.7974425 ], [ 115.0261115, -33.7974441 ], [ 115.0261221, -33.7974399 ], [ 115.0261255, -33.7974459 ], [ 115.0261497, -33.7974491 ], [ 115.0261704, -33.7974411 ], [ 115.0261769, -33.7974527 ], [ 115.0261879, -33.7974541 ] ] ], [ [ [ 115.0262262, -33.7974592 ], [ 115.0262278, -33.7974585 ], [ 115.0262283, -33.7974595 ], [ 115.0262644, -33.7974642 ], [ 115.0262761, -33.7974597 ], [ 115.0262797, -33.7974662 ], [ 115.0263026, -33.7974693 ], [ 115.0263243, -33.7974608 ], [ 115.0263312, -33.797473 ], [ 115.0263408, -33.7974743 ], [ 115.0263922, -33.7974543 ], [ 115.0263557, -33.7973889 ], [ 115.0263949, -33.7973737 ], [ 115.0263858, -33.7973574 ], [ 115.0264054, -33.7973498 ], [ 115.0263871, -33.7973171 ], [ 115.0263676, -33.7973247 ], [ 115.0263584, -33.7973083 ], [ 115.0263389, -33.7973159 ], [ 115.0263297, -33.7972996 ], [ 115.0263102, -33.7973072 ], [ 115.0262828, -33.7972582 ], [ 115.0262632, -33.7972658 ], [ 115.0262541, -33.7972494 ], [ 115.0262346, -33.797257 ], [ 115.0262437, -33.7972734 ], [ 115.0262045, -33.7972886 ], [ 115.0262683, -33.797403 ], [ 115.0262487, -33.7974106 ], [ 115.0262578, -33.797427 ], [ 115.0261991, -33.7974498 ], [ 115.0262026, -33.7974561 ], [ 115.0262262, -33.7974592 ] ] ], [ [ [ 115.0259115, -33.7974039 ], [ 115.0259392, -33.7974109 ], [ 115.0259304, -33.7973951 ], [ 115.0259108, -33.7974027 ], [ 115.0259115, -33.7974039 ] ] ], [ [ [ 115.0269845, -33.7970252 ], [ 115.0269755, -33.7970088 ], [ 115.0269576, -33.7970158 ], [ 115.0269668, -33.7970321 ], [ 115.0269845, -33.7970252 ] ] ], [ [ [ 115.0265228, -33.7973041 ], [ 115.0265137, -33.7972878 ], [ 115.0264941, -33.7972954 ], [ 115.0265124, -33.7973281 ], [ 115.0265515, -33.7973128 ], [ 115.0265424, -33.7972965 ], [ 115.0265228, -33.7973041 ] ] ], [ [ [ 115.0269131, -33.7971922 ], [ 115.0268739, -33.7972074 ], [ 115.026883, -33.7972238 ], [ 115.0268635, -33.7972314 ], [ 115.0268817, -33.7972641 ], [ 115.02696, -33.7972336 ], [ 115.0269418, -33.797201 ], [ 115.0269222, -33.7972086 ], [ 115.0269131, -33.7971922 ] ] ] ] } },
{ "type": "Feature", "properties": { "appName": "Brookland Valley 18 Feb 26", "rate": 2.0, "rateInt": 2, "unit": "l/ha", "zone": 2 }, "geometry": { "type": "MultiPolygon", "coordinates": [ [ [ [ 115.0248796, -33.7955959 ], [ 115.0248208, -33.7956187 ], [ 115.0248299, -33.795635 ], [ 115.0248887, -33.7956122 ], [ 115.0248796, -33.7955959 ] ] ], [ [ [ 115.026054, -33.7953383 ], [ 115.0260476, -33.7953408 ], [ 115.0260385, -33.7953245 ], [ 115.0258035, -33.7954158 ], [ 115.0258126, -33.7954321 ], [ 115.0257735, -33.7954473 ], [ 115.0257826, -33.7954637 ], [ 115.0257043, -33.7954941 ], [ 115.0257134, -33.7955105 ], [ 115.0254197, -33.7956246 ], [ 115.0254379, -33.7956573 ], [ 115.0254967, -33.7956345 ], [ 115.0255058, -33.7956508 ], [ 115.0255449, -33.7956356 ], [ 115.0255723, -33.7956846 ], [ 115.0255918, -33.795677 ], [ 115.025601, -33.7956934 ], [ 115.0255814, -33.795701 ], [ 115.0255905, -33.7957173 ], [ 115.0255513, -33.7957326 ], [ 115.0255604, -33.7957489 ], [ 115.0255017, -33.7957717 ], [ 115.0254926, -33.7957554 ], [ 115.0254339, -33.7957782 ], [ 115.0254247, -33.7957619 ], [ 115.025366, -33.7957847 ], [ 115.0253751, -33.795801 ], [ 115.0253164, -33.7958239 ], [ 115.0253255, -33.7958402 ], [ 115.0253059, -33.7958478 ], [ 115.025315, -33.7958642 ], [ 115.0252954, -33.7958718 ], [ 115.0253046, -33.7958881 ], [ 115.025285, -33.7958957 ], [ 115.0252941, -33.7959121 ], [ 115.0252745, -33.7959197 ], [ 115.0252836, -33.795936 ], [ 115.0252641, -33.7959436 ], [ 115.0252732, -33.79596 ], [ 115.025234, -33.7959752 ], [ 115.0252522, -33.7960079 ], [ 115.0252327, -33.7960155 ], [ 115.0252418, -33.7960319 ], [ 115.0251439, -33.7960699 ], [ 115.025153, -33.7960863 ], [ 115.0250747, -33.7961167 ], [ 115.0250838, -33.796133 ], [ 115.0250642, -33.7961406 ], [ 115.0250733, -33.796157 ], [ 115.0250537, -33.7961646 ], [ 115.0250629, -33.796181 ], [ 115.0250433, -33.7961886 ], [ 115.0250524, -33.7962049 ], [ 115.0250328, -33.7962125 ], [ 115.0250419, -33.7962289 ], [ 115.0249636, -33.7962593 ], [ 115.0249545, -33.796243 ], [ 115.0249153, -33.7962582 ], [ 115.0249062, -33.7962418 ], [ 115.0248866, -33.7962494 ], [ 115.0248684, -33.7962167 ], [ 115.0248488, -33.7962243 ], [ 115.0248397, -33.796208 ], [ 115.0248201, -33.7962156 ], [ 115.0247837, -33.7961502 ], [ 115.0247056, -33.7961806 ], [ 115.0247055, -33.796181 ], [ 115.0247145, -33.796197 ], [ 115.0247017, -33.796202 ], [ 115.0246996, -33.7962131 ], [ 115.024704, -33.796221 ], [ 115.0246977, -33.7962234 ], [ 115.0246937, -33.7962452 ], [ 115.0247027, -33.7962613 ], [ 115.0246898, -33.7962663 ], [ 115.0246878, -33.7962773 ], [ 115.0246922, -33.7962852 ], [ 115.0246859, -33.7962877 ], [ 115.0246759, -33.7963415 ], [ 115.0246804, -33.7963495 ], [ 115.024674, -33.796352 ], [ 115.0246641, -33.7964057 ], [ 115.0246686, -33.7964137 ], [ 115.0246622, -33.7964162 ], [ 115.0246582, -33.7964379 ], [ 115.0246672, -33.796454 ], [ 115.0246543, -33.7964591 ], [ 115.0246523, -33.79647 ], [ 115.0246567, -33.796478 ], [ 115.0246503, -33.7964805 ], [ 115.0246464, -33.7965019 ], [ 115.0246659, -33.7964943 ], [ 115.024675, -33.7965107 ], [ 115.0246424, -33.7965233 ], [ 115.0246404, -33.7965342 ], [ 115.0246631, -33.7965749 ], [ 115.0246436, -33.7965826 ], [ 115.0246527, -33.7965989 ], [ 115.0246331, -33.7966065 ], [ 115.0246286, -33.7965984 ], [ 115.0246167, -33.7966626 ], [ 115.0246213, -33.7966708 ], [ 115.0246148, -33.7966733 ], [ 115.0246069, -33.7967161 ], [ 115.0246199, -33.7967111 ], [ 115.024629, -33.7967274 ], [ 115.0246029, -33.7967376 ], [ 115.024599, -33.796759 ], [ 115.0246164, -33.7967902 ], [ 115.024621, -33.7967902 ], [ 115.024676, -33.7967689 ], [ 115.0246877, -33.7967898 ], [ 115.0247249, -33.7967896 ], [ 115.0247334, -33.7967863 ], [ 115.0247351, -33.7967895 ], [ 115.0247769, -33.7967893 ], [ 115.0248012, -33.7967798 ], [ 115.0248064, -33.7967891 ], [ 115.0248288, -33.796789 ], [ 115.0248299, -33.7967886 ], [ 115.0248208, -33.7967722 ], [ 115.0248404, -33.7967646 ], [ 115.0248539, -33.7967889 ], [ 115.0248808, -33.7967887 ], [ 115.0248978, -33.7967821 ], [ 115.0249014, -33.7967886 ], [ 115.0249328, -33.7967884 ], [ 115.0249656, -33.7967756 ], [ 115.0249726, -33.7967882 ], [ 115.0249847, -33.7967881 ], [ 115.0250335, -33.7967691 ], [ 115.0250426, -33.7967855 ], [ 115.0250622, -33.7967779 ], [ 115.0250676, -33.7967876 ], [ 115.0250886, -33.7967875 ], [ 115.0251104, -33.796779 ], [ 115.0251151, -33.7967873 ], [ 115.0251406, -33.7967872 ], [ 115.0251587, -33.7967801 ], [ 115.0251626, -33.7967871 ], [ 115.0251925, -33.7967869 ], [ 115.025207, -33.7967813 ], [ 115.02521, -33.7967868 ], [ 115.0252445, -33.7967866 ], [ 115.0252748, -33.7967748 ], [ 115.0252813, -33.7967864 ], [ 115.0252875, -33.7967863 ], [ 115.025299, -33.7967853 ], [ 115.0253231, -33.7967759 ], [ 115.0253269, -33.7967828 ], [ 115.0253404, -33.7967816 ], [ 115.0253467, -33.7967866 ], [ 115.0253518, -33.7967847 ], [ 115.0253581, -33.7967959 ], [ 115.0253964, -33.796827 ], [ 115.0253987, -33.7968261 ], [ 115.0254016, -33.7968312 ], [ 115.0254129, -33.7968404 ], [ 115.0254274, -33.7968348 ], [ 115.0254365, -33.7968512 ], [ 115.0254295, -33.7968539 ], [ 115.0254792, -33.7968942 ], [ 115.0254834, -33.7968926 ], [ 115.0254886, -33.7969018 ], [ 115.0255124, -33.7969211 ], [ 115.0255213, -33.7969177 ], [ 115.0255321, -33.7969371 ], [ 115.0255455, -33.796948 ], [ 115.0255591, -33.7969428 ], [ 115.0255756, -33.7969725 ], [ 115.0256118, -33.7970018 ], [ 115.0256151, -33.7970005 ], [ 115.0256191, -33.7970078 ], [ 115.0256449, -33.7970287 ], [ 115.0256529, -33.7970256 ], [ 115.0256626, -33.7970431 ], [ 115.0256947, -33.7970691 ], [ 115.0256998, -33.7970671 ], [ 115.0257061, -33.7970784 ], [ 115.0257112, -33.7970825 ], [ 115.0257285, -33.7970758 ], [ 115.0257376, -33.7970921 ], [ 115.0257768, -33.7970769 ], [ 115.0257677, -33.7970606 ], [ 115.0257873, -33.797053 ], [ 115.0257781, -33.7970366 ], [ 115.0257977, -33.797029 ], [ 115.0257886, -33.7970127 ], [ 115.0258278, -33.7969975 ], [ 115.0258369, -33.7970138 ], [ 115.0258565, -33.7970062 ], [ 115.0258838, -33.7970552 ], [ 115.0258642, -33.7970628 ], [ 115.0258733, -33.7970792 ], [ 115.0258538, -33.7970868 ], [ 115.0258629, -33.7971031 ], [ 115.0258433, -33.7971107 ], [ 115.0258798, -33.7971761 ], [ 115.0258993, -33.7971685 ], [ 115.0259085, -33.7971849 ], [ 115.0258889, -33.7971925 ], [ 115.025898, -33.7972088 ], [ 115.0259176, -33.7972012 ], [ 115.0259267, -33.7972176 ], [ 115.0258679, -33.7972404 ], [ 115.0258862, -33.7972731 ], [ 115.0258666, -33.7972807 ], [ 115.0258757, -33.797297 ], [ 115.0258561, -33.7973047 ], [ 115.025847, -33.7972883 ], [ 115.0258274, -33.7972959 ], [ 115.0258092, -33.7972632 ], [ 115.0258091, -33.7972633 ], [ 115.0257899, -33.7972713 ], [ 115.0257987, -33.7972872 ], [ 115.0257792, -33.7972948 ], [ 115.0257705, -33.7972793 ], [ 115.025753, -33.7972866 ], [ 115.0257664, -33.7973146 ], [ 115.0257857, -33.7973493 ], [ 115.0257888, -33.7973507 ], [ 115.0258065, -33.7973438 ], [ 115.0258156, -33.7973602 ], [ 115.0258548, -33.797345 ], [ 115.025873, -33.7973777 ], [ 115.0258926, -33.79737 ], [ 115.0259108, -33.7974027 ], [ 115.0259304, -33.7973951 ], [ 115.0259392, -33.7974109 ], [ 115.0259403, -33.7974112 ], [ 115.0259982, -33.7973886 ], [ 115.0259891, -33.7973723 ], [ 115.0260283, -33.7973571 ], [ 115.0260101, -33.7973244 ], [ 115.0260884, -33.7972939 ], [ 115.0260975, -33.7973103 ], [ 115.0261171, -33.7973027 ], [ 115.0261262, -33.797319 ], [ 115.0261066, -33.7973266 ], [ 115.0261157, -33.797343 ], [ 115.0260961, -33.7973506 ], [ 115.0261053, -33.7973669 ], [ 115.0260857, -33.7973746 ], [ 115.0260948, -33.7973909 ], [ 115.0261144, -33.7973833 ], [ 115.0261235, -33.7973996 ], [ 115.0261626, -33.7973844 ], [ 115.0261991, -33.7974498 ], [ 115.0262578, -33.797427 ], [ 115.0262487, -33.7974106 ], [ 115.0262683, -33.797403 ], [ 115.0262045, -33.7972886 ], [ 115.0262437, -33.7972734 ], [ 115.0262346, -33.797257 ], [ 115.0262541, -33.7972494 ], [ 115.0262632, -33.7972658 ], [ 115.0262828, -33.7972582 ], [ 115.0263102, -33.7973072 ], [ 115.0263297, -33.7972996 ], [ 115.0263389, -33.7973159 ], [ 115.0263584, -33.7973083 ], [ 115.0263676, -33.7973247 ], [ 115.0263871, -33.7973171 ], [ 115.0264054, -33.7973498 ], [ 115.0263858, -33.7973574 ], [ 115.0263949, -33.7973737 ], [ 115.0263557, -33.7973889 ], [ 115.0263922, -33.7974543 ], [ 115.0268817, -33.7972641 ], [ 115.0268635, -33.7972314 ], [ 115.026883, -33.7972238 ], [ 115.0268739, -33.7972074 ], [ 115.0269131, -33.7971922 ], [ 115.0269222, -33.7972086 ], [ 115.0269418, -33.797201 ], [ 115.02696, -33.7972336 ], [ 115.0270749, -33.797189 ], [ 115.0269845, -33.7970252 ], [ 115.0269668, -33.7970321 ], [ 115.0269576, -33.7970158 ], [ 115.0269755, -33.7970088 ], [ 115.0269574, -33.7969761 ], [ 115.0269394, -33.7969831 ], [ 115.0269303, -33.7969667 ], [ 115.0268716, -33.7969896 ], [ 115.0268807, -33.7970059 ], [ 115.0268611, -33.7970135 ], [ 115.0268702, -33.7970299 ], [ 115.0268506, -33.7970375 ], [ 115.0268689, -33.7970702 ], [ 115.0268493, -33.7970778 ], [ 115.0268857, -33.7971432 ], [ 115.0268466, -33.7971584 ], [ 115.0268375, -33.797142 ], [ 115.0268179, -33.7971497 ], [ 115.0268088, -33.7971333 ], [ 115.0266913, -33.797179 ], [ 115.0267004, -33.7971953 ], [ 115.0266613, -33.7972105 ], [ 115.0266704, -33.7972269 ], [ 115.0266508, -33.7972345 ], [ 115.0266599, -33.7972508 ], [ 115.0266207, -33.7972661 ], [ 115.0266025, -33.7972334 ], [ 115.0266417, -33.7972181 ], [ 115.0266143, -33.7971691 ], [ 115.0265947, -33.7971767 ], [ 115.0265856, -33.7971604 ], [ 115.0265073, -33.7971908 ], [ 115.0264982, -33.7971745 ], [ 115.0265178, -33.7971668 ], [ 115.0264722, -33.7970851 ], [ 115.0265309, -33.7970623 ], [ 115.0265218, -33.7970459 ], [ 115.0266197, -33.7970079 ], [ 115.026638, -33.7970406 ], [ 115.0266575, -33.797033 ], [ 115.0266667, -33.7970493 ], [ 115.0266862, -33.7970417 ], [ 115.0266954, -33.7970581 ], [ 115.0267737, -33.7970276 ], [ 115.0267646, -33.7970113 ], [ 115.0267841, -33.7970037 ], [ 115.0267659, -33.796971 ], [ 115.0267855, -33.7969634 ], [ 115.0267764, -33.796947 ], [ 115.0268547, -33.7969166 ], [ 115.0268638, -33.7969329 ], [ 115.0268834, -33.7969253 ], [ 115.0268743, -33.796909 ], [ 115.0268938, -33.7969014 ], [ 115.0268392, -33.7968033 ], [ 115.0268581, -33.7967959 ], [ 115.0268219, -33.7967304 ], [ 115.0268027, -33.7967379 ], [ 115.0267845, -33.7967052 ], [ 115.0268038, -33.7966977 ], [ 115.02678, -33.7966545 ], [ 115.0267494, -33.7965995 ], [ 115.0267496, -33.7965994 ], [ 115.0266954, -33.7965011 ], [ 115.0266947, -33.7965014 ], [ 115.0266673, -33.7964524 ], [ 115.0266683, -33.796452 ], [ 115.0265509, -33.7962391 ], [ 115.0265489, -33.7962399 ], [ 115.0265306, -33.7962072 ], [ 115.0265328, -33.7962063 ], [ 115.0265147, -33.7961736 ], [ 115.0265124, -33.7961745 ], [ 115.0265033, -33.7961581 ], [ 115.0265057, -33.7961572 ], [ 115.0264786, -33.7961081 ], [ 115.0264759, -33.7961091 ], [ 115.0264486, -33.7960601 ], [ 115.0264515, -33.7960589 ], [ 115.0264154, -33.7959934 ], [ 115.0264121, -33.7959947 ], [ 115.0263939, -33.795962 ], [ 115.0263973, -33.7959607 ], [ 115.0263792, -33.7959279 ], [ 115.0263757, -33.7959293 ], [ 115.0263575, -33.7958966 ], [ 115.0263612, -33.7958952 ], [ 115.0263521, -33.7958788 ], [ 115.0263483, -33.7958803 ], [ 115.0263301, -33.7958476 ], [ 115.026334, -33.795846 ], [ 115.026316, -33.7958133 ], [ 115.0263119, -33.7958149 ], [ 115.0262845, -33.7957658 ], [ 115.0262889, -33.7957641 ], [ 115.0262347, -33.7956659 ], [ 115.0262299, -33.7956677 ], [ 115.0262207, -33.7956514 ], [ 115.0262256, -33.7956495 ], [ 115.0261985, -33.7956004 ], [ 115.0261934, -33.7956024 ], [ 115.0261752, -33.7955697 ], [ 115.0261805, -33.7955676 ], [ 115.0261624, -33.7955349 ], [ 115.0261569, -33.795537 ], [ 115.0261478, -33.7955206 ], [ 115.0261534, -33.7955185 ], [ 115.0261353, -33.7954857 ], [ 115.0261296, -33.7954879 ], [ 115.0261205, -33.7954716 ], [ 115.0261263, -33.7954693 ], [ 115.026054, -33.7953383 ] ], [ [ 115.0253228, -33.7959208 ], [ 115.025362, -33.7959056 ], [ 115.0253528, -33.7958893 ], [ 115.025392, -33.795874 ], [ 115.0253829, -33.7958577 ], [ 115.0254416, -33.7958349 ], [ 115.0254507, -33.7958512 ], [ 115.0254899, -33.795836 ], [ 115.025499, -33.7958523 ], [ 115.0255969, -33.7958143 ], [ 115.025606, -33.7958306 ], [ 115.0256256, -33.795823 ], [ 115.0256712, -33.7959048 ], [ 115.0256907, -33.7958972 ], [ 115.0256999, -33.7959135 ], [ 115.025739, -33.7958983 ], [ 115.0257664, -33.7959473 ], [ 115.0257468, -33.7959549 ], [ 115.0257559, -33.7959713 ], [ 115.0257363, -33.7959789 ], [ 115.0257454, -33.7959952 ], [ 115.025765, -33.7959876 ], [ 115.0257741, -33.796004 ], [ 115.0257937, -33.7959964 ], [ 115.0258028, -33.7960127 ], [ 115.025842, -33.7959975 ], [ 115.0258329, -33.7959811 ], [ 115.0258524, -33.7959735 ], [ 115.0258433, -33.7959572 ], [ 115.0258825, -33.795942 ], [ 115.0258916, -33.7959583 ], [ 115.0259308, -33.7959431 ], [ 115.0259125, -33.7959104 ], [ 115.025893, -33.795918 ], [ 115.0258747, -33.7958853 ], [ 115.0258943, -33.7958777 ], [ 115.0258761, -33.795845 ], [ 115.0258957, -33.7958374 ], [ 115.0258865, -33.7958211 ], [ 115.0259061, -33.7958135 ], [ 115.025897, -33.7957971 ], [ 115.0259362, -33.7957819 ], [ 115.0258906, -33.7957002 ], [ 115.0259298, -33.7956849 ], [ 115.0259206, -33.7956686 ], [ 115.0259402, -33.795661 ], [ 115.0259311, -33.7956446 ], [ 115.0259507, -33.795637 ], [ 115.0259416, -33.7956207 ], [ 115.0259612, -33.7956131 ], [ 115.025952, -33.7955967 ], [ 115.0261087, -33.7955358 ], [ 115.0261998, -33.7956993 ], [ 115.0262194, -33.7956917 ], [ 115.0262832, -33.7958061 ], [ 115.0262636, -33.7958137 ], [ 115.0262818, -33.7958464 ], [ 115.0262623, -33.795854 ], [ 115.0262896, -33.7959031 ], [ 115.0263092, -33.7958955 ], [ 115.0263456, -33.7959609 ], [ 115.0263652, -33.7959532 ], [ 115.0264564, -33.7961167 ], [ 115.0264368, -33.7961243 ], [ 115.026455, -33.796157 ], [ 115.0264354, -33.7961646 ], [ 115.0264628, -33.7962137 ], [ 115.0264824, -33.7962061 ], [ 115.0267193, -33.7966311 ], [ 115.0266997, -33.7966387 ], [ 115.0267089, -33.796655 ], [ 115.0266893, -33.7966626 ], [ 115.0266802, -33.7966463 ], [ 115.0266214, -33.7966691 ], [ 115.0266123, -33.7966528 ], [ 115.0265927, -33.7966604 ], [ 115.0265836, -33.796644 ], [ 115.026564, -33.7966516 ], [ 115.0265549, -33.7966353 ], [ 115.0265353, -33.7966429 ], [ 115.0265262, -33.7966266 ], [ 115.0265067, -33.7966342 ], [ 115.0264975, -33.7966178 ], [ 115.026478, -33.7966254 ], [ 115.0264233, -33.7965274 ], [ 115.0264037, -33.796535 ], [ 115.0263855, -33.7965023 ], [ 115.0263659, -33.7965099 ], [ 115.0263568, -33.7964935 ], [ 115.0262393, -33.7965392 ], [ 115.0262484, -33.7965555 ], [ 115.0262288, -33.7965631 ], [ 115.0262379, -33.7965795 ], [ 115.0261988, -33.7965947 ], [ 115.0262079, -33.7966111 ], [ 115.0261883, -33.7966187 ], [ 115.0261974, -33.796635 ], [ 115.0261779, -33.7966426 ], [ 115.026187, -33.796659 ], [ 115.0260107, -33.7967275 ], [ 115.0259925, -33.7966948 ], [ 115.0260121, -33.7966872 ], [ 115.026003, -33.7966708 ], [ 115.0260226, -33.7966632 ], [ 115.0260135, -33.7966468 ], [ 115.026033, -33.7966392 ], [ 115.0260148, -33.7966065 ], [ 115.0259952, -33.7966142 ], [ 115.0259861, -33.7965978 ], [ 115.0259665, -33.7966054 ], [ 115.0259574, -33.7965891 ], [ 115.0259378, -33.7965967 ], [ 115.0259469, -33.796613 ], [ 115.0259274, -33.7966206 ], [ 115.0259456, -33.7966533 ], [ 115.0259064, -33.7966685 ], [ 115.0258973, -33.7966522 ], [ 115.0258777, -33.7966598 ], [ 115.0258869, -33.7966762 ], [ 115.0258281, -33.796699 ], [ 115.0258372, -33.7967153 ], [ 115.0258177, -33.7967229 ], [ 115.0258268, -33.7967393 ], [ 115.0258072, -33.7967469 ], [ 115.0258163, -33.7967632 ], [ 115.0258359, -33.7967556 ], [ 115.0258723, -33.796821 ], [ 115.0258528, -33.7968286 ], [ 115.0258254, -33.7967796 ], [ 115.0258058, -33.7967872 ], [ 115.0257967, -33.7967709 ], [ 115.0257771, -33.7967785 ], [ 115.025768, -33.7967621 ], [ 115.0257289, -33.7967773 ], [ 115.0257198, -33.796761 ], [ 115.025661, -33.7967838 ], [ 115.0256519, -33.7967675 ], [ 115.0255932, -33.7967903 ], [ 115.0255749, -33.7967576 ], [ 115.0255554, -33.7967652 ], [ 115.0255462, -33.7967489 ], [ 115.0255854, -33.7967336 ], [ 115.0255763, -33.7967173 ], [ 115.0255959, -33.7967097 ], [ 115.0255868, -33.7966933 ], [ 115.0256063, -33.7966857 ], [ 115.0255972, -33.7966694 ], [ 115.0256755, -33.796639 ], [ 115.0256664, -33.7966226 ], [ 115.0257056, -33.7966074 ], [ 115.02566, -33.7965257 ], [ 115.0256992, -33.7965104 ], [ 115.0256901, -33.7964941 ], [ 115.0257096, -33.7964865 ], [ 115.0257005, -33.7964701 ], [ 115.0257201, -33.7964625 ], [ 115.0257019, -33.7964298 ], [ 115.0257606, -33.796407 ], [ 115.0257697, -33.7964233 ], [ 115.0258285, -33.7964005 ], [ 115.0258194, -33.7963842 ], [ 115.0258389, -33.7963766 ], [ 115.0258298, -33.7963602 ], [ 115.0258102, -33.7963678 ], [ 115.025792, -33.7963351 ], [ 115.0257528, -33.7963503 ], [ 115.0257437, -33.796334 ], [ 115.0257242, -33.7963416 ], [ 115.025715, -33.7963253 ], [ 115.0256955, -33.7963329 ], [ 115.0256499, -33.7962511 ], [ 115.0256695, -33.7962435 ], [ 115.0256512, -33.7962108 ], [ 115.0256708, -33.7962032 ], [ 115.0256617, -33.7961869 ], [ 115.0256813, -33.7961793 ], [ 115.0256357, -33.7960975 ], [ 115.0256553, -33.7960899 ], [ 115.0256371, -33.7960572 ], [ 115.0256566, -33.7960496 ], [ 115.0256384, -33.7960169 ], [ 115.0256188, -33.7960245 ], [ 115.0256097, -33.7960082 ], [ 115.0255901, -33.7960158 ], [ 115.0255719, -33.7959831 ], [ 115.0255915, -33.7959755 ], [ 115.0255733, -33.7959428 ], [ 115.0255929, -33.7959352 ], [ 115.0255746, -33.7959025 ], [ 115.0254963, -33.7959329 ], [ 115.0254872, -33.7959166 ], [ 115.0254676, -33.7959242 ], [ 115.0254767, -33.7959406 ], [ 115.0253397, -33.7959938 ], [ 115.0253306, -33.7959775 ], [ 115.025311, -33.7959851 ], [ 115.0253019, -33.7959687 ], [ 115.0253214, -33.7959611 ], [ 115.0253123, -33.7959448 ], [ 115.0253319, -33.7959372 ], [ 115.0253228, -33.7959208 ] ], [ [ 115.0261515, -33.7968517 ], [ 115.0261124, -33.796867 ], [ 115.0261306, -33.7968997 ], [ 115.026111, -33.7969073 ], [ 115.0261201, -33.7969236 ], [ 115.0261005, -33.7969312 ], [ 115.0260914, -33.7969149 ], [ 115.0260523, -33.7969301 ], [ 115.0260432, -33.7969137 ], [ 115.0260236, -33.7969214 ], [ 115.0260145, -33.796905 ], [ 115.0259949, -33.7969126 ], [ 115.0259858, -33.7968963 ], [ 115.0260053, -33.7968887 ], [ 115.0259962, -33.7968723 ], [ 115.0260158, -33.7968647 ], [ 115.0260067, -33.7968484 ], [ 115.0260263, -33.7968408 ], [ 115.026008, -33.7968081 ], [ 115.0260668, -33.7967852 ], [ 115.0260759, -33.7968016 ], [ 115.0260955, -33.796794 ], [ 115.0261046, -33.7968103 ], [ 115.0261438, -33.7967951 ], [ 115.026162, -33.7968278 ], [ 115.0261816, -33.7968202 ], [ 115.0262271, -33.7969019 ], [ 115.0262076, -33.7969095 ], [ 115.0262349, -33.7969586 ], [ 115.0261957, -33.7969738 ], [ 115.0261775, -33.7969411 ], [ 115.0261579, -33.7969487 ], [ 115.0261488, -33.7969324 ], [ 115.0261684, -33.7969247 ], [ 115.0261593, -33.7969084 ], [ 115.0261789, -33.7969008 ], [ 115.0261697, -33.7968844 ], [ 115.0261893, -33.7968768 ], [ 115.0261802, -33.7968605 ], [ 115.0261606, -33.7968681 ], [ 115.0261515, -33.7968517 ] ], [ [ 115.0259074, -33.7969267 ], [ 115.0258095, -33.7969648 ], [ 115.0258004, -33.7969484 ], [ 115.0257417, -33.7969712 ], [ 115.0257326, -33.7969549 ], [ 115.0257522, -33.7969473 ], [ 115.025743, -33.7969309 ], [ 115.0257626, -33.7969233 ], [ 115.0257535, -33.796907 ], [ 115.0258514, -33.7968689 ], [ 115.0258423, -33.7968526 ], [ 115.0258815, -33.7968374 ], [ 115.0259088, -33.7968864 ], [ 115.0258892, -33.796894 ], [ 115.0259074, -33.7969267 ] ], [ [ 115.0255115, -33.7963447 ], [ 115.0254919, -33.7963523 ], [ 115.025501, -33.7963687 ], [ 115.0254814, -33.7963763 ], [ 115.0254906, -33.7963926 ], [ 115.0254514, -33.7964078 ], [ 115.0254605, -33.7964242 ], [ 115.0254409, -33.7964318 ], [ 115.0254318, -33.7964154 ], [ 115.0254122, -33.7964231 ], [ 115.0254031, -33.7964067 ], [ 115.0254227, -33.7963991 ], [ 115.0254136, -33.7963828 ], [ 115.0254332, -33.7963751 ], [ 115.0254241, -33.7963588 ], [ 115.0254436, -33.7963512 ], [ 115.0254345, -33.7963348 ], [ 115.0254541, -33.7963272 ], [ 115.0254268, -33.7962782 ], [ 115.0254463, -33.7962706 ], [ 115.0254372, -33.7962542 ], [ 115.0254568, -33.7962466 ], [ 115.0254477, -33.7962303 ], [ 115.0254673, -33.7962227 ], [ 115.025449, -33.79619 ], [ 115.0255078, -33.7961672 ], [ 115.025526, -33.7961998 ], [ 115.0255456, -33.7961922 ], [ 115.0255729, -33.7962413 ], [ 115.0255533, -33.7962489 ], [ 115.0255716, -33.7962816 ], [ 115.0254933, -33.796312 ], [ 115.0255115, -33.7963447 ] ], [ [ 115.025789, -33.7955606 ], [ 115.0257498, -33.7955759 ], [ 115.0257316, -33.7955432 ], [ 115.0258882, -33.7954823 ], [ 115.0258791, -33.7954659 ], [ 115.0258987, -33.7954583 ], [ 115.0258896, -33.795442 ], [ 115.0259092, -33.7954344 ], [ 115.0259001, -33.795418 ], [ 115.0260175, -33.7953724 ], [ 115.0260266, -33.7953887 ], [ 115.0260462, -33.7953811 ], [ 115.0260827, -33.7954465 ], [ 115.0260631, -33.7954541 ], [ 115.0260722, -33.7954705 ], [ 115.0259939, -33.7955009 ], [ 115.0259848, -33.7954845 ], [ 115.0259456, -33.7954998 ], [ 115.0259365, -33.7954834 ], [ 115.0258778, -33.7955062 ], [ 115.0258869, -33.7955226 ], [ 115.0258477, -33.7955378 ], [ 115.0258568, -33.7955542 ], [ 115.0257981, -33.795577 ], [ 115.025789, -33.7955606 ] ], [ [ 115.0263314, -33.7969608 ], [ 115.0264098, -33.7969304 ], [ 115.0264189, -33.7969467 ], [ 115.0264385, -33.7969391 ], [ 115.0264476, -33.7969555 ], [ 115.026428, -33.7969631 ], [ 115.0264462, -33.7969958 ], [ 115.0264071, -33.797011 ], [ 115.0264162, -33.7970273 ], [ 115.0263966, -33.7970349 ], [ 115.0264057, -33.7970513 ], [ 115.0263861, -33.7970589 ], [ 115.0263952, -33.7970752 ], [ 115.0264148, -33.7970676 ], [ 115.0264331, -33.7971003 ], [ 115.0264135, -33.7971079 ], [ 115.0264226, -33.7971243 ], [ 115.026403, -33.7971319 ], [ 115.0264121, -33.7971482 ], [ 115.0263925, -33.7971559 ], [ 115.0264017, -33.7971722 ], [ 115.026245, -33.7972331 ], [ 115.0262359, -33.7972167 ], [ 115.0262163, -33.7972243 ], [ 115.0262072, -33.797208 ], [ 115.0261876, -33.7972156 ], [ 115.0261512, -33.7971502 ], [ 115.0261708, -33.7971426 ], [ 115.0261616, -33.7971263 ], [ 115.0262008, -33.797111 ], [ 115.0261917, -33.7970947 ], [ 115.0262308, -33.7970795 ], [ 115.0262217, -33.7970631 ], [ 115.0263, -33.7970327 ], [ 115.0263092, -33.797049 ], [ 115.0263287, -33.7970414 ], [ 115.0263379, -33.7970578 ], [ 115.0263574, -33.7970502 ], [ 115.0263483, -33.7970338 ], [ 115.0263679, -33.7970262 ], [ 115.0263314, -33.7969608 ] ], [ [ 115.0251553, -33.7963041 ], [ 115.0251945, -33.7962889 ], [ 115.0252127, -33.7963216 ], [ 115.025154, -33.7963444 ], [ 115.0251449, -33.7963281 ], [ 115.0251645, -33.7963205 ], [ 115.0251553, -33.7963041 ] ], [ [ 115.0269367, -33.7970637 ], [ 115.0269641, -33.7971127 ], [ 115.0269445, -33.7971203 ], [ 115.0269354, -33.797104 ], [ 115.0269158, -33.7971116 ], [ 115.0269067, -33.7970953 ], [ 115.0269263, -33.7970877 ], [ 115.0269171, -33.7970713 ], [ 115.0269367, -33.7970637 ] ], [ [ 115.0253012, -33.7965657 ], [ 115.0252465, -33.7964676 ], [ 115.0252856, -33.7964524 ], [ 115.0252948, -33.7964687 ], [ 115.0253143, -33.7964611 ], [ 115.0253508, -33.7965265 ], [ 115.0253312, -33.7965341 ], [ 115.0253494, -33.7965668 ], [ 115.0253299, -33.7965744 ], [ 115.0253207, -33.7965581 ], [ 115.0253012, -33.7965657 ] ], [ [ 115.0259817, -33.7970172 ], [ 115.0260209, -33.797002 ], [ 115.02603, -33.7970183 ], [ 115.0259908, -33.7970335 ], [ 115.0259817, -33.7970172 ] ], [ [ 115.025477, -33.7967956 ], [ 115.0254575, -33.7968033 ], [ 115.0254301, -33.7967542 ], [ 115.0254497, -33.7967466 ], [ 115.0254406, -33.7967303 ], [ 115.0254602, -33.7967227 ], [ 115.0254693, -33.796739 ], [ 115.0254889, -33.7967314 ], [ 115.0255071, -33.7967641 ], [ 115.0254679, -33.7967793 ], [ 115.025477, -33.7967956 ] ], [ [ 115.0247077, -33.7963985 ], [ 115.0246986, -33.7963822 ], [ 115.0247182, -33.7963746 ], [ 115.0247091, -33.7963582 ], [ 115.0247286, -33.7963506 ], [ 115.0247469, -33.7963833 ], [ 115.0247273, -33.7963909 ], [ 115.0247364, -33.7964073 ], [ 115.0246972, -33.7964225 ], [ 115.0246881, -33.7964061 ], [ 115.0247077, -33.7963985 ] ], [ [ 115.0265228, -33.7973041 ], [ 115.0265424, -33.7972965 ], [ 115.0265515, -33.7973128 ], [ 115.0265124, -33.7973281 ], [ 115.0264941, -33.7972954 ], [ 115.0265137, -33.7972878 ], [ 115.0265228, -33.7973041 ] ], [ [ 115.0266461, -33.7967988 ], [ 115.026509, -33.796852 ], [ 115.0264999, -33.7968357 ], [ 115.0264803, -33.7968433 ], [ 115.026453, -33.7967943 ], [ 115.0264921, -33.796779 ], [ 115.026483, -33.7967627 ], [ 115.0265809, -33.7967246 ], [ 115.0265718, -33.7967083 ], [ 115.0265914, -33.7967007 ], [ 115.0266005, -33.796717 ], [ 115.0266592, -33.7966942 ], [ 115.0266683, -33.7967106 ], [ 115.0266879, -33.7967029 ], [ 115.026697, -33.7967193 ], [ 115.0267362, -33.7967041 ], [ 115.0267453, -33.7967204 ], [ 115.0267649, -33.7967128 ], [ 115.026774, -33.7967292 ], [ 115.026637, -33.7967824 ], [ 115.0266461, -33.7967988 ] ], [ [ 115.025237, -33.7967497 ], [ 115.0252566, -33.7967421 ], [ 115.0252657, -33.7967584 ], [ 115.0252461, -33.7967661 ], [ 115.025237, -33.7967497 ] ], [ [ 115.0247465, -33.7966818 ], [ 115.0247739, -33.7967308 ], [ 115.0246955, -33.7967612 ], [ 115.0246682, -33.7967122 ], [ 115.0247465, -33.7966818 ] ], [ [ 115.0255111, -33.7966432 ], [ 115.025502, -33.7966268 ], [ 115.0255412, -33.7966116 ], [ 115.0255321, -33.7965953 ], [ 115.0255516, -33.7965877 ], [ 115.0255699, -33.7966203 ], [ 115.0255111, -33.7966432 ] ], [ [ 115.0251942, -33.7965874 ], [ 115.0251746, -33.796595 ], [ 115.0251655, -33.7965786 ], [ 115.025185, -33.796571 ], [ 115.0251942, -33.7965874 ] ], [ [ 115.0255452, -33.7964907 ], [ 115.0255648, -33.7964831 ], [ 115.0255739, -33.7964994 ], [ 115.0255544, -33.796507 ], [ 115.0255452, -33.7964907 ] ], [ [ 115.0264374, -33.796681 ], [ 115.0264766, -33.7966657 ], [ 115.0264948, -33.7966984 ], [ 115.0264361, -33.7967213 ], [ 115.026427, -33.7967049 ], [ 115.0264466, -33.7966973 ], [ 115.0264374, -33.796681 ] ], [ [ 115.0249555, -33.7965011 ], [ 115.0249464, -33.7964848 ], [ 115.024966, -33.7964772 ], [ 115.0249751, -33.7964935 ], [ 115.0249555, -33.7965011 ] ], [ [ 115.0253957, -33.7960516 ], [ 115.0254048, -33.7960679 ], [ 115.0253852, -33.7960756 ], [ 115.0254035, -33.7961082 ], [ 115.0253839, -33.7961159 ], [ 115.025393, -33.7961322 ], [ 115.0253734, -33.7961398 ], [ 115.0253825, -33.7961562 ], [ 115.025363, -33.7961638 ], [ 115.0253538, -33.7961474 ], [ 115.0253343, -33.796155 ], [ 115.0253069, -33.796106 ], [ 115.0253265, -33.7960984 ], [ 115.0253174, -33.796082 ], [ 115.025337, -33.7960744 ], [ 115.0253279, -33.7960581 ], [ 115.025367, -33.7960429 ], [ 115.0253761, -33.7960592 ], [ 115.0253957, -33.7960516 ] ], [ [ 115.0254747, -33.7965778 ], [ 115.0254656, -33.7965614 ], [ 115.0254851, -33.7965538 ], [ 115.0254943, -33.7965702 ], [ 115.0254747, -33.7965778 ] ], [ [ 115.0263254, -33.7965654 ], [ 115.0263645, -33.7965502 ], [ 115.0263828, -33.7965829 ], [ 115.0263436, -33.7965981 ], [ 115.0263254, -33.7965654 ] ], [ [ 115.0256327, -33.7964766 ], [ 115.0256509, -33.7965093 ], [ 115.0256117, -33.7965245 ], [ 115.0255935, -33.7964918 ], [ 115.0256327, -33.7964766 ] ], [ [ 115.0249082, -33.7967582 ], [ 115.0248991, -33.7967418 ], [ 115.0249187, -33.7967342 ], [ 115.0249278, -33.7967505 ], [ 115.0249082, -33.7967582 ] ], [ [ 115.0264503, -33.7968749 ], [ 115.0264111, -33.7968901 ], [ 115.0263929, -33.7968574 ], [ 115.026432, -33.7968422 ], [ 115.0264503, -33.7968749 ] ], [ [ 115.0255588, -33.7960877 ], [ 115.0255392, -33.7960953 ], [ 115.0255483, -33.7961116 ], [ 115.0255287, -33.7961192 ], [ 115.0255105, -33.7960865 ], [ 115.0255496, -33.7960713 ], [ 115.0255588, -33.7960877 ] ], [ [ 115.0260587, -33.797027 ], [ 115.0260496, -33.7970107 ], [ 115.0260691, -33.7970031 ], [ 115.0260783, -33.7970194 ], [ 115.0260587, -33.797027 ] ], [ [ 115.0248238, -33.7963932 ], [ 115.0248056, -33.7963605 ], [ 115.0248252, -33.7963529 ], [ 115.0248161, -33.7963365 ], [ 115.0248357, -33.7963289 ], [ 115.0248265, -33.7963126 ], [ 115.0248657, -33.7962973 ], [ 115.0248748, -33.7963137 ], [ 115.0248944, -33.7963061 ], [ 115.0249126, -33.7963388 ], [ 115.0249322, -33.7963312 ], [ 115.0249504, -33.7963639 ], [ 115.0248721, -33.7963943 ], [ 115.024863, -33.796378 ], [ 115.0248238, -33.7963932 ] ], [ [ 115.0248238, -33.7963932 ], [ 115.024833, -33.7964095 ], [ 115.0248134, -33.7964171 ], [ 115.0248043, -33.7964008 ], [ 115.0248238, -33.7963932 ] ], [ [ 115.0251692, -33.7967562 ], [ 115.0251887, -33.7967486 ], [ 115.0251979, -33.7967649 ], [ 115.0251783, -33.7967725 ], [ 115.0251692, -33.7967562 ] ], [ [ 115.0251692, -33.7967562 ], [ 115.0251496, -33.7967638 ], [ 115.0251405, -33.7967474 ], [ 115.0251601, -33.7967398 ], [ 115.0251692, -33.7967562 ] ], [ [ 115.0255591, -33.7969428 ], [ 115.02555, -33.7969264 ], [ 115.0255695, -33.7969188 ], [ 115.0255786, -33.7969352 ], [ 115.0255591, -33.7969428 ] ], [ [ 115.0252168, -33.7962007 ], [ 115.0252077, -33.7961843 ], [ 115.0252272, -33.7961767 ], [ 115.0252364, -33.7961931 ], [ 115.0252168, -33.7962007 ] ], [ [ 115.0252168, -33.7962007 ], [ 115.0252259, -33.796217 ], [ 115.0252063, -33.7962246 ], [ 115.0251972, -33.7962083 ], [ 115.0252168, -33.7962007 ] ] ], [ [ [ 115.0248856, -33.7959913 ], [ 115.0248465, -33.7960065 ], [ 115.0248647, -33.7960392 ], [ 115.0249039, -33.796024 ], [ 115.0248856, -33.7959913 ] ] ], [ [ [ 115.0247941, -33.7961263 ], [ 115.024785, -33.7961099 ], [ 115.0247654, -33.7961175 ], [ 115.0247746, -33.7961339 ], [ 115.0247941, -33.7961263 ] ] ], [ [ [ 115.0246306, -33.7965876 ], [ 115.0246436, -33.7965826 ], [ 115.0246345, -33.7965663 ], [ 115.0246306, -33.7965876 ] ] ], [ [ [ 115.0258666, -33.7961271 ], [ 115.025894, -33.7961762 ], [ 115.0259135, -33.7961686 ], [ 115.0259227, -33.7961849 ], [ 115.0259814, -33.7961621 ], [ 115.0259632, -33.7961294 ], [ 115.0259827, -33.7961218 ], [ 115.0259736, -33.7961054 ], [ 115.0259932, -33.7960978 ], [ 115.025975, -33.7960651 ], [ 115.0258771, -33.7961032 ], [ 115.0258862, -33.7961195 ], [ 115.0258666, -33.7961271 ] ] ], [ [ [ 115.0259486, -33.7962743 ], [ 115.0259291, -33.7962819 ], [ 115.0259473, -33.7963146 ], [ 115.0259277, -33.7963222 ], [ 115.0259368, -33.7963385 ], [ 115.0259172, -33.7963461 ], [ 115.0259264, -33.7963625 ], [ 115.0259068, -33.7963701 ], [ 115.025925, -33.7964028 ], [ 115.0259838, -33.7963799 ], [ 115.0259746, -33.7963636 ], [ 115.0259942, -33.796356 ], [ 115.0260033, -33.7963723 ], [ 115.0260621, -33.7963495 ], [ 115.026053, -33.7963332 ], [ 115.0260725, -33.7963256 ], [ 115.0260634, -33.7963092 ], [ 115.0261026, -33.796294 ], [ 115.0260752, -33.7962449 ], [ 115.0260557, -33.7962526 ], [ 115.0260465, -33.7962362 ], [ 115.0259682, -33.7962666 ], [ 115.0259591, -33.7962503 ], [ 115.0259395, -33.7962579 ], [ 115.0259486, -33.7962743 ] ] ], [ [ [ 115.0259027, -33.796491 ], [ 115.0258663, -33.7964256 ], [ 115.0257488, -33.7964713 ], [ 115.0257853, -33.7965366 ], [ 115.0258048, -33.796529 ], [ 115.0258139, -33.7965454 ], [ 115.0258335, -33.7965378 ], [ 115.0258426, -33.7965541 ], [ 115.0258818, -33.7965389 ], [ 115.0258727, -33.7965226 ], [ 115.0258923, -33.7965149 ], [ 115.0258832, -33.7964986 ], [ 115.0259027, -33.796491 ] ] ] ] } },
{ "type": "Feature", "properties": { "appName": "Brookland Valley 18 Feb 26", "rate": 3.0, "rateInt": 3, "unit": "l/ha", "zone": 3 }, "geometry": { "type": "MultiPolygon", "coordinates": [ [ [ [ 115.0259001, -33.795418 ], [ 115.0259092, -33.7954344 ], [ 115.0258896, -33.795442 ], [ 115.0258987, -33.7954583 ], [ 115.0258791, -33.7954659 ], [ 115.0258882, -33.7954823 ], [ 115.0257316, -33.7955432 ], [ 115.0257498, -33.7955759 ], [ 115.025789, -33.7955606 ], [ 115.0257981, -33.795577 ], [ 115.0258568, -33.7955542 ], [ 115.0258477, -33.7955378 ], [ 115.0258869, -33.7955226 ], [ 115.0258778, -33.7955062 ], [ 115.0259365, -33.7954834 ], [ 115.0259456, -33.7954998 ], [ 115.0259848, -33.7954845 ], [ 115.0259939, -33.7955009 ], [ 115.0260722, -33.7954705 ], [ 115.0260631, -33.7954541 ], [ 115.0260827, -33.7954465 ], [ 115.0260462, -33.7953811 ], [ 115.0260266, -33.7953887 ], [ 115.0260175, -33.7953724 ], [ 115.0259001, -33.795418 ] ] ], [ [ [ 115.0267193, -33.7966311 ], [ 115.0264824, -33.7962061 ], [ 115.0264628, -33.7962137 ], [ 115.0264354, -33.7961646 ], [ 115.026455, -33.796157 ], [ 115.0264368, -33.7961243 ], [ 115.0264564, -33.7961167 ], [ 115.026429, -33.7960677 ], [ 115.0264094, -33.7960753 ], [ 115.0263912, -33.7960426 ], [ 115.0264108, -33.796035 ], [ 115.0263652, -33.7959532 ], [ 115.0263456, -33.7959609 ], [ 115.0263092, -33.7958955 ], [ 115.0262896, -33.7959031 ], [ 115.0262623, -33.795854 ], [ 115.0262818, -33.7958464 ], [ 115.0262636, -33.7958137 ], [ 115.0262832, -33.7958061 ], [ 115.0262194, -33.7956917 ], [ 115.0261998, -33.7956993 ], [ 115.0261087, -33.7955358 ], [ 115.025952, -33.7955967 ], [ 115.0259612, -33.7956131 ], [ 115.0259416, -33.7956207 ], [ 115.0259507, -33.795637 ], [ 115.0259311, -33.7956446 ], [ 115.0259402, -33.795661 ], [ 115.0259206, -33.7956686 ], [ 115.0259298, -33.7956849 ], [ 115.0258906, -33.7957002 ], [ 115.0259362, -33.7957819 ], [ 115.025897, -33.7957971 ], [ 115.0259061, -33.7958135 ], [ 115.0258865, -33.7958211 ], [ 115.0258957, -33.7958374 ], [ 115.0258761, -33.795845 ], [ 115.0258943, -33.7958777 ], [ 115.0258747, -33.7958853 ], [ 115.025893, -33.795918 ], [ 115.0259125, -33.7959104 ], [ 115.0259308, -33.7959431 ], [ 115.0258916, -33.7959583 ], [ 115.0258825, -33.795942 ], [ 115.0258433, -33.7959572 ], [ 115.0258524, -33.7959735 ], [ 115.0258329, -33.7959811 ], [ 115.025842, -33.7959975 ], [ 115.0258028, -33.7960127 ], [ 115.0257937, -33.7959964 ], [ 115.0257741, -33.796004 ], [ 115.025765, -33.7959876 ], [ 115.0257454, -33.7959952 ], [ 115.0257363, -33.7959789 ], [ 115.0257559, -33.7959713 ], [ 115.0257468, -33.7959549 ], [ 115.0257664, -33.7959473 ], [ 115.025739, -33.7958983 ], [ 115.0256999, -33.7959135 ], [ 115.0256907, -33.7958972 ], [ 115.0256712, -33.7959048 ], [ 115.0256256, -33.795823 ], [ 115.025606, -33.7958306 ], [ 115.0255969, -33.7958143 ], [ 115.025499, -33.7958523 ], [ 115.0254899, -33.795836 ], [ 115.0254507, -33.7958512 ], [ 115.0254416, -33.7958349 ], [ 115.0253829, -33.7958577 ], [ 115.025392, -33.795874 ], [ 115.0253528, -33.7958893 ], [ 115.025362, -33.7959056 ], [ 115.0253228, -33.7959208 ], [ 115.0253319, -33.7959372 ], [ 115.0253123, -33.7959448 ], [ 115.0253214, -33.7959611 ], [ 115.0253019, -33.7959687 ], [ 115.025311, -33.7959851 ], [ 115.0253306, -33.7959775 ], [ 115.0253397, -33.7959938 ], [ 115.0254767, -33.7959406 ], [ 115.0254676, -33.7959242 ], [ 115.0254872, -33.7959166 ], [ 115.0254963, -33.7959329 ], [ 115.0255746, -33.7959025 ], [ 115.0255929, -33.7959352 ], [ 115.0255733, -33.7959428 ], [ 115.0255915, -33.7959755 ], [ 115.0255719, -33.7959831 ], [ 115.0255901, -33.7960158 ], [ 115.0256097, -33.7960082 ], [ 115.0256188, -33.7960245 ], [ 115.0256384, -33.7960169 ], [ 115.0256566, -33.7960496 ], [ 115.0256371, -33.7960572 ], [ 115.0256553, -33.7960899 ], [ 115.0256357, -33.7960975 ], [ 115.0256813, -33.7961793 ], [ 115.0256617, -33.7961869 ], [ 115.0256708, -33.7962032 ], [ 115.0256512, -33.7962108 ], [ 115.0256695, -33.7962435 ], [ 115.0256499, -33.7962511 ], [ 115.0256955, -33.7963329 ], [ 115.025715, -33.7963253 ], [ 115.0257242, -33.7963416 ], [ 115.0257437, -33.796334 ], [ 115.0257528, -33.7963503 ], [ 115.025792, -33.7963351 ], [ 115.0258102, -33.7963678 ], [ 115.0258298, -33.7963602 ], [ 115.0258389, -33.7963766 ], [ 115.0258194, -33.7963842 ], [ 115.0258285, -33.7964005 ], [ 115.0257697, -33.7964233 ], [ 115.0257606, -33.796407 ], [ 115.0257019, -33.7964298 ], [ 115.0257201, -33.7964625 ], [ 115.0257005, -33.7964701 ], [ 115.0257096, -33.7964865 ], [ 115.0256901, -33.7964941 ], [ 115.0256992, -33.7965104 ], [ 115.02566, -33.7965257 ], [ 115.0257056, -33.7966074 ], [ 115.0256664, -33.7966226 ], [ 115.0256755, -33.796639 ], [ 115.0255972, -33.7966694 ], [ 115.0256063, -33.7966857 ], [ 115.0255868, -33.7966933 ], [ 115.0255959, -33.7967097 ], [ 115.0255763, -33.7967173 ], [ 115.0255854, -33.7967336 ], [ 115.0255462, -33.7967489 ], [ 115.0255554, -33.7967652 ], [ 115.0255749, -33.7967576 ], [ 115.0255932, -33.7967903 ], [ 115.0256519, -33.7967675 ], [ 115.025661, -33.7967838 ], [ 115.0257198, -33.796761 ], [ 115.0257289, -33.7967773 ], [ 115.025768, -33.7967621 ], [ 115.0257771, -33.7967785 ], [ 115.0257967, -33.7967709 ], [ 115.0258058, -33.7967872 ], [ 115.0258254, -33.7967796 ], [ 115.0258528, -33.7968286 ], [ 115.0258723, -33.796821 ], [ 115.0258359, -33.7967556 ], [ 115.0258163, -33.7967632 ], [ 115.0258072, -33.7967469 ], [ 115.0258268, -33.7967393 ], [ 115.0258177, -33.7967229 ], [ 115.0258372, -33.7967153 ], [ 115.0258281, -33.796699 ], [ 115.0258869, -33.7966762 ], [ 115.0258777, -33.7966598 ], [ 115.0258973, -33.7966522 ], [ 115.0259064, -33.7966685 ], [ 115.0259456, -33.7966533 ], [ 115.0259274, -33.7966206 ], [ 115.0259469, -33.796613 ], [ 115.0259378, -33.7965967 ], [ 115.0259574, -33.7965891 ], [ 115.0259665, -33.7966054 ], [ 115.0259861, -33.7965978 ], [ 115.0259952, -33.7966142 ], [ 115.0260148, -33.7966065 ], [ 115.026033, -33.7966392 ], [ 115.0260135, -33.7966468 ], [ 115.0260226, -33.7966632 ], [ 115.026003, -33.7966708 ], [ 115.0260121, -33.7966872 ], [ 115.0259925, -33.7966948 ], [ 115.0260107, -33.7967275 ], [ 115.026187, -33.796659 ], [ 115.0261779, -33.7966426 ], [ 115.0261974, -33.796635 ], [ 115.0261883, -33.7966187 ], [ 115.0262079, -33.7966111 ], [ 115.0261988, -33.7965947 ], [ 115.0262379, -33.7965795 ], [ 115.0262288, -33.7965631 ], [ 115.0262484, -33.7965555 ], [ 115.0262393, -33.7965392 ], [ 115.0263568, -33.7964935 ], [ 115.0263659, -33.7965099 ], [ 115.0263855, -33.7965023 ], [ 115.0264037, -33.796535 ], [ 115.0264233, -33.7965274 ], [ 115.026478, -33.7966254 ], [ 115.0264975, -33.7966178 ], [ 115.0265067, -33.7966342 ], [ 115.0265262, -33.7966266 ], [ 115.0265353, -33.7966429 ], [ 115.0265549, -33.7966353 ], [ 115.026564, -33.7966516 ], [ 115.0265836, -33.796644 ], [ 115.0265927, -33.7966604 ], [ 115.0266123, -33.7966528 ], [ 115.0266214, -33.7966691 ], [ 115.0266802, -33.7966463 ], [ 115.0266893, -33.7966626 ], [ 115.0267089, -33.796655 ], [ 115.0266997, -33.7966387 ], [ 115.0267193, -33.7966311 ] ], [ [ 115.0259632, -33.7961294 ], [ 115.0259814, -33.7961621 ], [ 115.0259227, -33.7961849 ], [ 115.0259135, -33.7961686 ], [ 115.025894, -33.7961762 ], [ 115.0258666, -33.7961271 ], [ 115.0258862, -33.7961195 ], [ 115.0258771, -33.7961032 ], [ 115.025975, -33.7960651 ], [ 115.0259932, -33.7960978 ], [ 115.0259736, -33.7961054 ], [ 115.0259827, -33.7961218 ], [ 115.0259632, -33.7961294 ] ], [ [ 115.0259368, -33.7963385 ], [ 115.0259277, -33.7963222 ], [ 115.0259473, -33.7963146 ], [ 115.0259291, -33.7962819 ], [ 115.0259486, -33.7962743 ], [ 115.0259395, -33.7962579 ], [ 115.0259591, -33.7962503 ], [ 115.0259682, -33.7962666 ], [ 115.0260465, -33.7962362 ], [ 115.0260557, -33.7962526 ], [ 115.0260752, -33.7962449 ], [ 115.0261026, -33.796294 ], [ 115.0260634, -33.7963092 ], [ 115.0260725, -33.7963256 ], [ 115.026053, -33.7963332 ], [ 115.0260621, -33.7963495 ], [ 115.0260033, -33.7963723 ], [ 115.0259942, -33.796356 ], [ 115.0259746, -33.7963636 ], [ 115.0259838, -33.7963799 ], [ 115.025925, -33.7964028 ], [ 115.0259068, -33.7963701 ], [ 115.0259264, -33.7963625 ], [ 115.0259172, -33.7963461 ], [ 115.0259368, -33.7963385 ] ], [ [ 115.0258727, -33.7965226 ], [ 115.0258818, -33.7965389 ], [ 115.0258426, -33.7965541 ], [ 115.0258335, -33.7965378 ], [ 115.0258139, -33.7965454 ], [ 115.0258048, -33.796529 ], [ 115.0257853, -33.7965366 ], [ 115.0257488, -33.7964713 ], [ 115.0258663, -33.7964256 ], [ 115.0259027, -33.796491 ], [ 115.0258832, -33.7964986 ], [ 115.0258923, -33.7965149 ], [ 115.0258727, -33.7965226 ] ], [ [ 115.0261627, -33.7962309 ], [ 115.0261822, -33.7962232 ], [ 115.0261914, -33.7962396 ], [ 115.0261718, -33.7962472 ], [ 115.0261627, -33.7962309 ] ], [ [ 115.0262228, -33.7961677 ], [ 115.0262423, -33.7961601 ], [ 115.0262515, -33.7961765 ], [ 115.0262319, -33.7961841 ], [ 115.0262228, -33.7961677 ] ] ], [ [ [ 115.0253069, -33.796106 ], [ 115.0253343, -33.796155 ], [ 115.0253538, -33.7961474 ], [ 115.025363, -33.7961638 ], [ 115.0253825, -33.7961562 ], [ 115.0253734, -33.7961398 ], [ 115.025393, -33.7961322 ], [ 115.0253839, -33.7961159 ], [ 115.0254035, -33.7961082 ], [ 115.0253852, -33.7960756 ], [ 115.0254048, -33.7960679 ], [ 115.0253957, -33.7960516 ], [ 115.0253761, -33.7960592 ], [ 115.025367, -33.7960429 ], [ 115.0253279, -33.7960581 ], [ 115.025337, -33.7960744 ], [ 115.0253174, -33.796082 ], [ 115.0253265, -33.7960984 ], [ 115.0253069, -33.796106 ] ] ], [ [ [ 115.0247182, -33.7963746 ], [ 115.0246986, -33.7963822 ], [ 115.0247077, -33.7963985 ], [ 115.0246881, -33.7964061 ], [ 115.0246972, -33.7964225 ], [ 115.0247364, -33.7964073 ], [ 115.0247273, -33.7963909 ], [ 115.0247469, -33.7963833 ], [ 115.0247286, -33.7963506 ], [ 115.0247091, -33.7963582 ], [ 115.0247182, -33.7963746 ] ] ], [ [ [ 115.0252364, -33.7961931 ], [ 115.0252272, -33.7961767 ], [ 115.0252077, -33.7961843 ], [ 115.0252168, -33.7962007 ], [ 115.0252364, -33.7961931 ] ] ], [ [ [ 115.0251945, -33.7962889 ], [ 115.0251553, -33.7963041 ], [ 115.0251645, -33.7963205 ], [ 115.0251449, -33.7963281 ], [ 115.025154, -33.7963444 ], [ 115.0252127, -33.7963216 ], [ 115.0251945, -33.7962889 ] ] ], [ [ [ 115.0246955, -33.7967612 ], [ 115.0247739, -33.7967308 ], [ 115.0247465, -33.7966818 ], [ 115.0246682, -33.7967122 ], [ 115.0246955, -33.7967612 ] ] ], [ [ [ 115.0256509, -33.7965093 ], [ 115.0256327, -33.7964766 ], [ 115.0255935, -33.7964918 ], [ 115.0256117, -33.7965245 ], [ 115.0256509, -33.7965093 ] ] ], [ [ [ 115.0251692, -33.7967562 ], [ 115.0251601, -33.7967398 ], [ 115.0251405, -33.7967474 ], [ 115.0251496, -33.7967638 ], [ 115.0251692, -33.7967562 ] ] ], [ [ [ 115.0255516, -33.7965877 ], [ 115.0255321, -33.7965953 ], [ 115.0255412, -33.7966116 ], [ 115.025502, -33.7966268 ], [ 115.0255111, -33.7966432 ], [ 115.0255699, -33.7966203 ], [ 115.0255516, -33.7965877 ] ] ], [ [ [ 115.0251979, -33.7967649 ], [ 115.0251887, -33.7967486 ], [ 115.0251692, -33.7967562 ], [ 115.0251783, -33.7967725 ], [ 115.0251979, -33.7967649 ] ] ], [ [ [ 115.0252657, -33.7967584 ], [ 115.0252566, -33.7967421 ], [ 115.025237, -33.7967497 ], [ 115.0252461, -33.7967661 ], [ 115.0252657, -33.7967584 ] ] ], [ [ [ 115.0254693, -33.796739 ], [ 115.0254602, -33.7967227 ], [ 115.0254406, -33.7967303 ], [ 115.0254497, -33.7967466 ], [ 115.0254301, -33.7967542 ], [ 115.0254575, -33.7968033 ], [ 115.025477, -33.7967956 ], [ 115.0254679, -33.7967793 ], [ 115.0255071, -33.7967641 ], [ 115.0254889, -33.7967314 ], [ 115.0254693, -33.796739 ] ] ], [ [ [ 115.0258514, -33.7968689 ], [ 115.0257535, -33.796907 ], [ 115.0257626, -33.7969233 ], [ 115.025743, -33.7969309 ], [ 115.0257522, -33.7969473 ], [ 115.0257326, -33.7969549 ], [ 115.0257417, -33.7969712 ], [ 115.0258004, -33.7969484 ], [ 115.0258095, -33.7969648 ], [ 115.0259074, -33.7969267 ], [ 115.0258892, -33.796894 ], [ 115.0259088, -33.7968864 ], [ 115.0258815, -33.7968374 ], [ 115.0258423, -33.7968526 ], [ 115.0258514, -33.7968689 ] ] ], [ [ [ 115.0260145, -33.796905 ], [ 115.0260236, -33.7969214 ], [ 115.0260432, -33.7969137 ], [ 115.0260523, -33.7969301 ], [ 115.0260914, -33.7969149 ], [ 115.0261005, -33.7969312 ], [ 115.0261201, -33.7969236 ], [ 115.026111, -33.7969073 ], [ 115.0261306, -33.7968997 ], [ 115.0261124, -33.796867 ], [ 115.0261515, -33.7968517 ], [ 115.0261606, -33.7968681 ], [ 115.0261802, -33.7968605 ], [ 115.0261893, -33.7968768 ], [ 115.0261697, -33.7968844 ], [ 115.0261789, -33.7969008 ], [ 115.0261593, -33.7969084 ], [ 115.0261684, -33.7969247 ], [ 115.0261488, -33.7969324 ], [ 115.0261579, -33.7969487 ], [ 115.0261775, -33.7969411 ], [ 115.0261957, -33.7969738 ], [ 115.0262349, -33.7969586 ], [ 115.0262076, -33.7969095 ], [ 115.0262271, -33.7969019 ], [ 115.0261816, -33.7968202 ], [ 115.026162, -33.7968278 ], [ 115.0261438, -33.7967951 ], [ 115.0261046, -33.7968103 ], [ 115.0260955, -33.796794 ], [ 115.0260759, -33.7968016 ], [ 115.0260668, -33.7967852 ], [ 115.026008, -33.7968081 ], [ 115.0260263, -33.7968408 ], [ 115.0260067, -33.7968484 ], [ 115.0260158, -33.7968647 ], [ 115.0259962, -33.7968723 ], [ 115.0260053, -33.7968887 ], [ 115.0259858, -33.7968963 ], [ 115.0259949, -33.7969126 ], [ 115.0260145, -33.796905 ] ] ], [ [ [ 115.0264766, -33.7966657 ], [ 115.0264374, -33.796681 ], [ 115.0264466, -33.7966973 ], [ 115.026427, -33.7967049 ], [ 115.0264361, -33.7967213 ], [ 115.0264948, -33.7966984 ], [ 115.0264766, -33.7966657 ] ] ], [ [ [ 115.0260209, -33.797002 ], [ 115.0259817, -33.7970172 ], [ 115.0259908, -33.7970335 ], [ 115.02603, -33.7970183 ], [ 115.0260209, -33.797002 ] ] ], [ [ [ 115.0258679, -33.7972404 ], [ 115.0258092, -33.7972632 ], [ 115.0258274, -33.7972959 ], [ 115.025847, -33.7972883 ], [ 115.0258561, -33.7973047 ], [ 115.0258757, -33.797297 ], [ 115.0258666, -33.7972807 ], [ 115.0258862, -33.7972731 ], [ 115.0258679, -33.7972404 ] ] ], [ [ [ 115.0269641, -33.7971127 ], [ 115.0269367, -33.7970637 ], [ 115.0269171, -33.7970713 ], [ 115.0269263, -33.7970877 ], [ 115.0269067, -33.7970953 ], [ 115.0269158, -33.7971116 ], [ 115.0269354, -33.797104 ], [ 115.0269445, -33.7971203 ], [ 115.0269641, -33.7971127 ] ] ] ] } }
]
}
