{
"type": "FeatureCollection",
"name": "NDVI - Block I 3 zones_Rx",
"features": [
{ "type": "Feature", "properties": { "appName": "Island Brook 080125", "rate": 1.0, "rateInt": 1, "unit": "l/ha", "zone": 1 }, "geometry": { "type": "MultiPolygon", "coordinates": [ [ [ [ 115.1538225, -33.7500607 ], [ 115.1538477, -33.7500172 ], [ 115.1538373, -33.750009 ], [ 115.1538037, -33.7499988 ], [ 115.1537882, -33.7499987 ], [ 115.1537656, -33.7500378 ], [ 115.1538225, -33.7500607 ] ] ], [ [ [ 115.1537802, -33.7501338 ], [ 115.1537527, -33.7501227 ], [ 115.1537808, -33.7500739 ], [ 115.1537224, -33.7500505 ], [ 115.1536943, -33.7500992 ], [ 115.1537235, -33.7501109 ], [ 115.1537094, -33.7501353 ], [ 115.1537386, -33.7501471 ], [ 115.1536965, -33.7502202 ], [ 115.1536673, -33.7502084 ], [ 115.1536251, -33.7502815 ], [ 115.153596, -33.7502698 ], [ 115.1535679, -33.7503185 ], [ 115.1535387, -33.7503068 ], [ 115.1534263, -33.7505017 ], [ 115.1534555, -33.7505135 ], [ 115.1534414, -33.7505379 ], [ 115.1534998, -33.7505613 ], [ 115.1534857, -33.7505857 ], [ 115.1535149, -33.7505974 ], [ 115.1535008, -33.7506218 ], [ 115.1535258, -33.7506318 ], [ 115.1537448, -33.7502539 ], [ 115.1537171, -33.7502429 ], [ 115.1537802, -33.7501338 ] ] ], [ [ [ 115.1531041, -33.7513629 ], [ 115.1531283, -33.751321 ], [ 115.1531054, -33.7513117 ], [ 115.1531876, -33.7511627 ], [ 115.1532134, -33.751171 ], [ 115.1534412, -33.7507779 ], [ 115.1534165, -33.750768 ], [ 115.1534025, -33.7507924 ], [ 115.1533733, -33.7507806 ], [ 115.1533593, -33.750805 ], [ 115.1533301, -33.7507933 ], [ 115.1533441, -33.7507689 ], [ 115.1532566, -33.7507337 ], [ 115.1532285, -33.7507824 ], [ 115.1531994, -33.7507707 ], [ 115.1530729, -33.75099 ], [ 115.1530458, -33.7509791 ], [ 115.1529618, -33.7511255 ], [ 115.1529886, -33.7511362 ], [ 115.1529746, -33.7511606 ], [ 115.1529478, -33.7511498 ], [ 115.1527937, -33.7514181 ], [ 115.1528783, -33.7514521 ], [ 115.1528924, -33.7514278 ], [ 115.1529216, -33.7514395 ], [ 115.1529356, -33.7514151 ], [ 115.1529648, -33.7514269 ], [ 115.1529788, -33.7514025 ], [ 115.153008, -33.7514142 ], [ 115.1530361, -33.7513655 ], [ 115.1530653, -33.7513772 ], [ 115.1530793, -33.7513529 ], [ 115.1531041, -33.7513629 ] ] ], [ [ [ 115.1528012, -33.7513911 ], [ 115.1529132, -33.751196 ], [ 115.1528881, -33.7511859 ], [ 115.1528741, -33.7512102 ], [ 115.1528449, -33.7511985 ], [ 115.1528308, -33.7512229 ], [ 115.1528017, -33.7512111 ], [ 115.1527314, -33.751333 ], [ 115.1527606, -33.7513447 ], [ 115.1527465, -33.7513691 ], [ 115.1528012, -33.7513911 ] ] ], [ [ [ 115.1525611, -33.7520024 ], [ 115.1525905, -33.7519968 ], [ 115.1525692, -33.7519883 ], [ 115.1525611, -33.7520024 ] ] ], [ [ [ 115.1525207, -33.7520102 ], [ 115.1525399, -33.7520065 ], [ 115.152526, -33.7520009 ], [ 115.1525207, -33.7520102 ] ] ] ] } },
{ "type": "Feature", "properties": { "appName": "Island Brook 080125", "rate": 2.0, "rateInt": 2, "unit": "l/ha", "zone": 2 }, "geometry": { "type": "MultiPolygon", "coordinates": [ [ [ [ 115.1534173, -33.750318 ], [ 115.1533939, -33.7503086 ], [ 115.1533518, -33.7503817 ], [ 115.1533226, -33.75037 ], [ 115.1532945, -33.7504187 ], [ 115.1532653, -33.750407 ], [ 115.1532091, -33.7505044 ], [ 115.1532383, -33.7505162 ], [ 115.1532102, -33.7505649 ], [ 115.153181, -33.7505532 ], [ 115.1531389, -33.7506263 ], [ 115.1531097, -33.7506145 ], [ 115.1530956, -33.7506389 ], [ 115.1530665, -33.7506272 ], [ 115.1530524, -33.7506515 ], [ 115.1529964, -33.750629 ], [ 115.1521614, -33.752068 ], [ 115.1521641, -33.7520676 ], [ 115.1521651, -33.7520658 ], [ 115.1521679, -33.752067 ], [ 115.1522035, -33.7520615 ], [ 115.1522083, -33.7520532 ], [ 115.152222, -33.7520587 ], [ 115.1522429, -33.7520555 ], [ 115.1522515, -33.7520406 ], [ 115.1522761, -33.7520504 ], [ 115.1523218, -33.7520435 ], [ 115.1523239, -33.7520397 ], [ 115.1523302, -33.7520422 ], [ 115.1523612, -33.7520374 ], [ 115.1523672, -33.7520271 ], [ 115.1523842, -33.7520339 ], [ 115.1524368, -33.7520259 ], [ 115.1528012, -33.7513911 ], [ 115.1527465, -33.7513691 ], [ 115.1527606, -33.7513447 ], [ 115.1527314, -33.751333 ], [ 115.1528017, -33.7512111 ], [ 115.1528308, -33.7512229 ], [ 115.1528449, -33.7511985 ], [ 115.1528741, -33.7512102 ], [ 115.1528881, -33.7511859 ], [ 115.1529132, -33.751196 ], [ 115.1532633, -33.7505863 ], [ 115.1532394, -33.7505766 ], [ 115.1532534, -33.7505523 ], [ 115.1532773, -33.7505619 ], [ 115.1534173, -33.750318 ] ], [ [ 115.1523629, -33.7517852 ], [ 115.152391, -33.7517364 ], [ 115.1524493, -33.7517599 ], [ 115.1524212, -33.7518086 ], [ 115.1523629, -33.7517852 ] ], [ [ 115.1525769, -33.751601 ], [ 115.1525909, -33.7515767 ], [ 115.1526201, -33.7515884 ], [ 115.152606, -33.7516128 ], [ 115.1526352, -33.7516245 ], [ 115.152593, -33.7516976 ], [ 115.1525639, -33.7516859 ], [ 115.1525358, -33.7517346 ], [ 115.1524774, -33.7517112 ], [ 115.1525477, -33.7515893 ], [ 115.1525769, -33.751601 ] ] ], [ [ [ 115.1534733, -33.7502204 ], [ 115.1535013, -33.7501717 ], [ 115.1534782, -33.7501624 ], [ 115.1534501, -33.7502111 ], [ 115.1534733, -33.7502204 ] ] ], [ [ [ 115.153522, -33.75015 ], [ 115.1532979, -33.7505402 ], [ 115.1533258, -33.7505514 ], [ 115.1533118, -33.7505758 ], [ 115.1532839, -33.7505646 ], [ 115.1530458, -33.7509791 ], [ 115.1530729, -33.75099 ], [ 115.1531994, -33.7507707 ], [ 115.1532285, -33.7507824 ], [ 115.1532566, -33.7507337 ], [ 115.1533441, -33.7507689 ], [ 115.1533301, -33.7507933 ], [ 115.1533593, -33.750805 ], [ 115.1533733, -33.7507806 ], [ 115.1534025, -33.7507924 ], [ 115.1534165, -33.750768 ], [ 115.1534412, -33.7507779 ], [ 115.1535258, -33.7506318 ], [ 115.1535008, -33.7506218 ], [ 115.1535149, -33.7505974 ], [ 115.1534857, -33.7505857 ], [ 115.1534998, -33.7505613 ], [ 115.1534414, -33.7505379 ], [ 115.1534555, -33.7505135 ], [ 115.1534263, -33.7505017 ], [ 115.1535387, -33.7503068 ], [ 115.1535679, -33.7503185 ], [ 115.153596, -33.7502698 ], [ 115.1536251, -33.7502815 ], [ 115.1536673, -33.7502084 ], [ 115.1536965, -33.7502202 ], [ 115.1537386, -33.7501471 ], [ 115.1537094, -33.7501353 ], [ 115.1537235, -33.7501109 ], [ 115.1536943, -33.7500992 ], [ 115.1537224, -33.7500505 ], [ 115.1537808, -33.7500739 ], [ 115.1537527, -33.7501227 ], [ 115.1537802, -33.7501338 ], [ 115.1538225, -33.7500607 ], [ 115.1537656, -33.7500378 ], [ 115.1537882, -33.7499987 ], [ 115.1537524, -33.7499985 ], [ 115.1537505, -33.7500017 ], [ 115.1537422, -33.7499984 ], [ 115.1536096, -33.7499975 ], [ 115.1536061, -33.7500037 ], [ 115.1536349, -33.7500153 ], [ 115.1535928, -33.7500884 ], [ 115.1536219, -33.7501001 ], [ 115.1535938, -33.7501488 ], [ 115.1535647, -33.7501371 ], [ 115.1535506, -33.7501615 ], [ 115.153522, -33.75015 ] ] ], [ [ [ 115.1529618, -33.7511255 ], [ 115.1529478, -33.7511498 ], [ 115.1529746, -33.7511606 ], [ 115.1529886, -33.7511362 ], [ 115.1529618, -33.7511255 ] ] ], [ [ [ 115.1527937, -33.7514181 ], [ 115.1524454, -33.7520246 ], [ 115.1524803, -33.7520179 ], [ 115.1524828, -33.7520135 ], [ 115.1524894, -33.7520162 ], [ 115.1525207, -33.7520102 ], [ 115.152526, -33.7520009 ], [ 115.1525399, -33.7520065 ], [ 115.1525611, -33.7520024 ], [ 115.1525692, -33.7519883 ], [ 115.1525905, -33.7519968 ], [ 115.1526916, -33.7519774 ], [ 115.1526849, -33.7519747 ], [ 115.1526989, -33.7519504 ], [ 115.1526406, -33.7519269 ], [ 115.1527811, -33.7516832 ], [ 115.1528102, -33.7516949 ], [ 115.1528945, -33.7515487 ], [ 115.1528654, -33.751537 ], [ 115.1528935, -33.7514882 ], [ 115.1529226, -33.7515 ], [ 115.1529367, -33.7514756 ], [ 115.1529659, -33.7514874 ], [ 115.1529799, -33.751463 ], [ 115.1530091, -33.7514747 ], [ 115.1530231, -33.7514503 ], [ 115.1530479, -33.7514603 ], [ 115.1531041, -33.7513629 ], [ 115.1530793, -33.7513529 ], [ 115.1530653, -33.7513772 ], [ 115.1530361, -33.7513655 ], [ 115.153008, -33.7514142 ], [ 115.1529788, -33.7514025 ], [ 115.1529648, -33.7514269 ], [ 115.1529356, -33.7514151 ], [ 115.1529216, -33.7514395 ], [ 115.1528924, -33.7514278 ], [ 115.1528783, -33.7514521 ], [ 115.1527937, -33.7514181 ] ] ], [ [ [ 115.1520537, -33.7520811 ], [ 115.1521541, -33.7520691 ], [ 115.1529757, -33.7506507 ], [ 115.1529509, -33.7506407 ], [ 115.1528806, -33.7507626 ], [ 115.1528514, -33.7507508 ], [ 115.1527952, -33.7508483 ], [ 115.1528244, -33.75086 ], [ 115.1527682, -33.7509575 ], [ 115.152739, -33.7509458 ], [ 115.152725, -33.7509701 ], [ 115.1526666, -33.7509467 ], [ 115.1522851, -33.7516083 ], [ 115.1520103, -33.7520863 ], [ 115.1520481, -33.7520818 ], [ 115.1520495, -33.7520794 ], [ 115.1520537, -33.7520811 ] ], [ [ 115.1523467, -33.7516886 ], [ 115.1523175, -33.7516768 ], [ 115.1523456, -33.7516281 ], [ 115.1523748, -33.7516398 ], [ 115.1523467, -33.7516886 ] ] ], [ [ [ 115.1531235, -33.7504099 ], [ 115.1531497, -33.7504205 ], [ 115.1531778, -33.7503717 ], [ 115.153207, -33.7503835 ], [ 115.153221, -33.7503591 ], [ 115.1532502, -33.7503709 ], [ 115.1533064, -33.7502734 ], [ 115.1532772, -33.7502616 ], [ 115.1533194, -33.7501885 ], [ 115.1532902, -33.7501768 ], [ 115.1533183, -33.7501281 ], [ 115.1532929, -33.7501179 ], [ 115.1531235, -33.7504099 ] ] ], [ [ [ 115.1531026, -33.7504316 ], [ 115.1533565, -33.7499933 ], [ 115.1533508, -33.749991 ], [ 115.1532898, -33.7499905 ], [ 115.153287, -33.7499954 ], [ 115.1532745, -33.7499903 ], [ 115.1532183, -33.7499899 ], [ 115.1530881, -33.7502156 ], [ 115.1530865, -33.7502149 ], [ 115.1530725, -33.7502393 ], [ 115.1530741, -33.75024 ], [ 115.153046, -33.7502887 ], [ 115.1530444, -33.7502881 ], [ 115.1530304, -33.7503124 ], [ 115.1530319, -33.7503131 ], [ 115.1529195, -33.750508 ], [ 115.1529487, -33.7505198 ], [ 115.153019, -33.7503979 ], [ 115.1531026, -33.7504316 ] ] ], [ [ [ 115.15343, -33.7499929 ], [ 115.1533663, -33.7499914 ], [ 115.1533071, -33.7500935 ], [ 115.1533323, -33.7501037 ], [ 115.1533464, -33.7500793 ], [ 115.1533756, -33.7500911 ], [ 115.1534177, -33.7500179 ], [ 115.1534469, -33.7500297 ], [ 115.1534609, -33.7500053 ], [ 115.1534901, -33.7500171 ], [ 115.1535031, -33.7499946 ], [ 115.1534321, -33.7499929 ], [ 115.1534318, -33.7499936 ], [ 115.15343, -33.7499929 ] ] ], [ [ [ 115.1527661, -33.7508366 ], [ 115.1527942, -33.7507878 ], [ 115.152765, -33.7507761 ], [ 115.1527369, -33.7508248 ], [ 115.1527661, -33.7508366 ] ] ] ] } },
{ "type": "Feature", "properties": { "appName": "Island Brook 080125", "rate": 3.0, "rateInt": 3, "unit": "l/ha", "zone": 3 }, "geometry": { "type": "MultiPolygon", "coordinates": [ [ [ [ 115.1535385, -33.7499955 ], [ 115.1535333, -33.7500044 ], [ 115.1535093, -33.7499948 ], [ 115.1535031, -33.7499946 ], [ 115.1534901, -33.7500171 ], [ 115.1534609, -33.7500053 ], [ 115.1534469, -33.7500297 ], [ 115.1534177, -33.7500179 ], [ 115.1533756, -33.7500911 ], [ 115.1533464, -33.7500793 ], [ 115.1533323, -33.7501037 ], [ 115.1533071, -33.7500935 ], [ 115.1532929, -33.7501179 ], [ 115.1533183, -33.7501281 ], [ 115.1532902, -33.7501768 ], [ 115.1533194, -33.7501885 ], [ 115.1532772, -33.7502616 ], [ 115.1533064, -33.7502734 ], [ 115.1532502, -33.7503709 ], [ 115.153221, -33.7503591 ], [ 115.153207, -33.7503835 ], [ 115.1531778, -33.7503717 ], [ 115.1531497, -33.7504205 ], [ 115.1531235, -33.7504099 ], [ 115.1529964, -33.750629 ], [ 115.1530524, -33.7506515 ], [ 115.1530665, -33.7506272 ], [ 115.1530956, -33.7506389 ], [ 115.1531097, -33.7506145 ], [ 115.1531389, -33.7506263 ], [ 115.153181, -33.7505532 ], [ 115.1532102, -33.7505649 ], [ 115.1532383, -33.7505162 ], [ 115.1532091, -33.7505044 ], [ 115.1532653, -33.750407 ], [ 115.1532945, -33.7504187 ], [ 115.1533226, -33.75037 ], [ 115.1533518, -33.7503817 ], [ 115.1533939, -33.7503086 ], [ 115.1534173, -33.750318 ], [ 115.1534733, -33.7502204 ], [ 115.1534501, -33.7502111 ], [ 115.1534782, -33.7501624 ], [ 115.1535013, -33.7501717 ], [ 115.1535993, -33.7500009 ], [ 115.1535887, -33.7499967 ], [ 115.1535385, -33.7499955 ] ] ], [ [ [ 115.1536061, -33.7500037 ], [ 115.153522, -33.75015 ], [ 115.1535506, -33.7501615 ], [ 115.1535647, -33.7501371 ], [ 115.1535938, -33.7501488 ], [ 115.1536219, -33.7501001 ], [ 115.1535928, -33.7500884 ], [ 115.1536349, -33.7500153 ], [ 115.1536061, -33.7500037 ] ] ], [ [ [ 115.1529757, -33.7506507 ], [ 115.1531026, -33.7504316 ], [ 115.153019, -33.7503979 ], [ 115.1529487, -33.7505198 ], [ 115.1529195, -33.750508 ], [ 115.152765, -33.7507761 ], [ 115.1527942, -33.7507878 ], [ 115.1527661, -33.7508366 ], [ 115.1527369, -33.7508248 ], [ 115.1526666, -33.7509467 ], [ 115.152725, -33.7509701 ], [ 115.152739, -33.7509458 ], [ 115.1527682, -33.7509575 ], [ 115.1528244, -33.75086 ], [ 115.1527952, -33.7508483 ], [ 115.1528514, -33.7507508 ], [ 115.1528806, -33.7507626 ], [ 115.1529509, -33.7506407 ], [ 115.1529757, -33.7506507 ] ] ], [ [ [ 115.1532839, -33.7505646 ], [ 115.1533118, -33.7505758 ], [ 115.1533258, -33.7505514 ], [ 115.1532979, -33.7505402 ], [ 115.1532839, -33.7505646 ] ] ], [ [ [ 115.1526916, -33.7519774 ], [ 115.152757, -33.7519649 ], [ 115.1530479, -33.7514603 ], [ 115.1530231, -33.7514503 ], [ 115.1530091, -33.7514747 ], [ 115.1529799, -33.751463 ], [ 115.1529659, -33.7514874 ], [ 115.1529367, -33.7514756 ], [ 115.1529226, -33.7515 ], [ 115.1528935, -33.7514882 ], [ 115.1528654, -33.751537 ], [ 115.1528945, -33.7515487 ], [ 115.1528102, -33.7516949 ], [ 115.1527811, -33.7516832 ], [ 115.1526406, -33.7519269 ], [ 115.1526989, -33.7519504 ], [ 115.1526849, -33.7519747 ], [ 115.1526916, -33.7519774 ] ] ], [ [ [ 115.152606, -33.7516128 ], [ 115.1526201, -33.7515884 ], [ 115.1525909, -33.7515767 ], [ 115.1525769, -33.751601 ], [ 115.1525477, -33.7515893 ], [ 115.1524774, -33.7517112 ], [ 115.1525358, -33.7517346 ], [ 115.1525639, -33.7516859 ], [ 115.152593, -33.7516976 ], [ 115.1526352, -33.7516245 ], [ 115.152606, -33.7516128 ] ] ], [ [ [ 115.1523467, -33.7516886 ], [ 115.1523748, -33.7516398 ], [ 115.1523456, -33.7516281 ], [ 115.1523175, -33.7516768 ], [ 115.1523467, -33.7516886 ] ] ] ] } }
]
}
