{
"type": "FeatureCollection",
"name": "NDVI - Block I 3 zones_Boundary",
"features": [
{ "type": "Feature", "properties": { "name": "Island Brook 080125" }, "geometry": { "type": "MultiPolygon", "coordinates": [ [ [ [ 115.1532159, -33.7499898 ], [ 115.1520103, -33.7520863 ], [ 115.1521541, -33.7520691 ], [ 115.1533578, -33.7499911 ], [ 115.1532159, -33.7499898 ] ] ], [ [ [ 115.1533663, -33.7499914 ], [ 115.1521614, -33.752068 ], [ 115.1524368, -33.7520259 ], [ 115.1536016, -33.749997 ], [ 115.1533663, -33.7499914 ] ] ], [ [ [ 115.1524454, -33.7520246 ], [ 115.152757, -33.7519649 ], [ 115.1531283, -33.751321 ], [ 115.1531054, -33.7513117 ], [ 115.1531876, -33.7511627 ], [ 115.1532134, -33.751171 ], [ 115.1537448, -33.7502539 ], [ 115.1537171, -33.7502429 ], [ 115.1538477, -33.7500172 ], [ 115.1538373, -33.750009 ], [ 115.1538037, -33.7499988 ], [ 115.1536096, -33.7499975 ], [ 115.1524454, -33.7520246 ] ] ] ] } }
]
}
