{
"type": "FeatureCollection",
"name": "B3-4_Rx",
"features": [
{ "type": "Feature", "properties": { "appName": "Fishbone NW", "rate": 1.0, "rateInt": 1, "unit": "l/ha", "zone": 1 }, "geometry": { "type": "MultiPolygon", "coordinates": [ [ [ [ 115.0729081, -33.7933082 ], [ 115.0729154, -33.7933091 ], [ 115.0729498, -33.7931017 ], [ 115.0729372, -33.7931002 ], [ 115.0729081, -33.7933082 ] ] ], [ [ [ 115.0729509, -33.793095 ], [ 115.0729637, -33.7930179 ], [ 115.072948, -33.7930161 ], [ 115.0729367, -33.7930933 ], [ 115.0729509, -33.793095 ] ] ], [ [ [ 115.0742521, -33.7932452 ], [ 115.0742531, -33.7931693 ], [ 115.0732568, -33.7930523 ], [ 115.0732492, -33.7930981 ], [ 115.0733225, -33.7931066 ], [ 115.0733175, -33.7931372 ], [ 115.0734274, -33.7931499 ], [ 115.0734271, -33.7931522 ], [ 115.0736468, -33.7931786 ], [ 115.0736474, -33.7931753 ], [ 115.073794, -33.7931923 ], [ 115.0737991, -33.7931617 ], [ 115.0740557, -33.7931913 ], [ 115.0740506, -33.7932219 ], [ 115.0740873, -33.7932262 ], [ 115.0740923, -33.7931956 ], [ 115.0742023, -33.7932083 ], [ 115.0741972, -33.7932389 ], [ 115.0742521, -33.7932452 ] ] ], [ [ [ 115.0736457, -33.7931853 ], [ 115.073426, -33.7931589 ], [ 115.0734224, -33.7931805 ], [ 115.073459, -33.7931847 ], [ 115.0734539, -33.7932154 ], [ 115.0734906, -33.7932196 ], [ 115.0734754, -33.7933114 ], [ 115.0735487, -33.7933199 ], [ 115.073569, -33.7931975 ], [ 115.0736423, -33.7932059 ], [ 115.0736457, -33.7931853 ] ] ], [ [ [ 115.0740035, -33.7937311 ], [ 115.0740061, -33.7937158 ], [ 115.0739694, -33.7937116 ], [ 115.0739796, -33.7936504 ], [ 115.0739062, -33.7936419 ], [ 115.0739113, -33.7936113 ], [ 115.0738747, -33.7936071 ], [ 115.0738848, -33.7935459 ], [ 115.0738482, -33.7935416 ], [ 115.0738583, -33.7934804 ], [ 115.073785, -33.793472 ], [ 115.0737799, -33.7935026 ], [ 115.0737433, -33.7934983 ], [ 115.0737382, -33.7935289 ], [ 115.0737015, -33.7935247 ], [ 115.0736812, -33.7936471 ], [ 115.0737179, -33.7936513 ], [ 115.0737128, -33.793682 ], [ 115.0736762, -33.7936777 ], [ 115.0736735, -33.7936937 ], [ 115.0740035, -33.7937311 ] ] ], [ [ [ 115.0742602, -33.7936516 ], [ 115.0742582, -33.7935578 ], [ 115.0742564, -33.7935576 ], [ 115.0742412, -33.7936495 ], [ 115.0742602, -33.7936516 ] ] ], [ [ [ 115.0742235, -33.7937561 ], [ 115.0742602, -33.7937603 ], [ 115.0742623, -33.7937479 ], [ 115.0742622, -33.7937455 ], [ 115.074226, -33.7937413 ], [ 115.0742235, -33.7937561 ] ] ] ] } },
{ "type": "Feature", "properties": { "appName": "Fishbone NW", "rate": 2.0, "rateInt": 2, "unit": "l/ha", "zone": 2 }, "geometry": { "type": "MultiPolygon", "coordinates": [ [ [ [ 115.0736735, -33.7936937 ], [ 115.0736762, -33.7936777 ], [ 115.0737128, -33.793682 ], [ 115.0737179, -33.7936513 ], [ 115.0736812, -33.7936471 ], [ 115.0737015, -33.7935247 ], [ 115.0737382, -33.7935289 ], [ 115.0737433, -33.7934983 ], [ 115.0737799, -33.7935026 ], [ 115.073785, -33.793472 ], [ 115.0738583, -33.7934804 ], [ 115.0738482, -33.7935416 ], [ 115.0738848, -33.7935459 ], [ 115.0738747, -33.7936071 ], [ 115.0739113, -33.7936113 ], [ 115.0739062, -33.7936419 ], [ 115.0739796, -33.7936504 ], [ 115.0739694, -33.7937116 ], [ 115.0740061, -33.7937158 ], [ 115.0740035, -33.7937311 ], [ 115.0742235, -33.7937561 ], [ 115.074226, -33.7937413 ], [ 115.0742622, -33.7937455 ], [ 115.0742602, -33.7936516 ], [ 115.0742412, -33.7936495 ], [ 115.074258, -33.7935482 ], [ 115.0742542, -33.7933702 ], [ 115.0742502, -33.7933698 ], [ 115.0742538, -33.7933485 ], [ 115.0742518, -33.7932582 ], [ 115.0736457, -33.7931853 ], [ 115.0736423, -33.7932059 ], [ 115.073569, -33.7931975 ], [ 115.0735487, -33.7933199 ], [ 115.0734754, -33.7933114 ], [ 115.0734906, -33.7932196 ], [ 115.0734539, -33.7932154 ], [ 115.073459, -33.7931847 ], [ 115.0734224, -33.7931805 ], [ 115.073426, -33.7931589 ], [ 115.0731695, -33.7931281 ], [ 115.0731658, -33.7931509 ], [ 115.0732024, -33.7931551 ], [ 115.0731974, -33.7931857 ], [ 115.073234, -33.7931899 ], [ 115.0732086, -33.793343 ], [ 115.0732453, -33.7933472 ], [ 115.0732402, -33.7933778 ], [ 115.0732769, -33.793382 ], [ 115.0732566, -33.7935045 ], [ 115.0732932, -33.7935087 ], [ 115.0732882, -33.7935393 ], [ 115.0735081, -33.7935647 ], [ 115.0734929, -33.7936565 ], [ 115.0734562, -33.7936523 ], [ 115.0734535, -33.7936687 ], [ 115.0736735, -33.7936937 ] ], [ [ 115.074067, -33.7933486 ], [ 115.0740303, -33.7933444 ], [ 115.0740252, -33.793375 ], [ 115.0739886, -33.7933707 ], [ 115.0739987, -33.7933095 ], [ 115.074072, -33.793318 ], [ 115.074067, -33.7933486 ] ] ], [ [ [ 115.0731707, -33.7931214 ], [ 115.0734271, -33.7931522 ], [ 115.0734274, -33.7931499 ], [ 115.0733175, -33.7931372 ], [ 115.0733225, -33.7931066 ], [ 115.0732492, -33.7930981 ], [ 115.0732568, -33.7930523 ], [ 115.0729637, -33.7930179 ], [ 115.0729509, -33.793095 ], [ 115.0730608, -33.7931082 ], [ 115.0730609, -33.7931075 ], [ 115.0731708, -33.7931202 ], [ 115.0731707, -33.7931214 ] ] ], [ [ [ 115.0730597, -33.7931149 ], [ 115.0729498, -33.7931017 ], [ 115.0729154, -33.7933091 ], [ 115.0729081, -33.7933082 ], [ 115.0728995, -33.7933696 ], [ 115.0729052, -33.7933703 ], [ 115.0729002, -33.7934009 ], [ 115.0729368, -33.7934051 ], [ 115.0729419, -33.7933745 ], [ 115.0729786, -33.7933787 ], [ 115.0730141, -33.7931645 ], [ 115.0730507, -33.7931687 ], [ 115.0730597, -33.7931149 ] ] ], [ [ [ 115.0736468, -33.7931786 ], [ 115.074252, -33.7932512 ], [ 115.0742521, -33.7932452 ], [ 115.0741972, -33.7932389 ], [ 115.0742023, -33.7932083 ], [ 115.0740923, -33.7931956 ], [ 115.0740873, -33.7932262 ], [ 115.0740506, -33.7932219 ], [ 115.0740557, -33.7931913 ], [ 115.0737991, -33.7931617 ], [ 115.073794, -33.7931923 ], [ 115.0736474, -33.7931753 ], [ 115.0736468, -33.7931786 ] ] ], [ [ [ 115.0728671, -33.7936 ], [ 115.0728669, -33.793602 ], [ 115.0729035, -33.7936062 ], [ 115.0729064, -33.7935887 ], [ 115.0728697, -33.7935845 ], [ 115.0728671, -33.7936 ] ] ] ] } },
{ "type": "Feature", "properties": { "appName": "Fishbone NW", "rate": 3.0, "rateInt": 3, "unit": "l/ha", "zone": 3 }, "geometry": { "type": "MultiPolygon", "coordinates": [ [ [ [ 115.0731695, -33.7931281 ], [ 115.0730597, -33.7931149 ], [ 115.0730507, -33.7931687 ], [ 115.0730141, -33.7931645 ], [ 115.0729786, -33.7933787 ], [ 115.0729419, -33.7933745 ], [ 115.0729368, -33.7934051 ], [ 115.0729002, -33.7934009 ], [ 115.0728697, -33.7935845 ], [ 115.0729064, -33.7935887 ], [ 115.0729035, -33.7936062 ], [ 115.0734535, -33.7936687 ], [ 115.0734562, -33.7936523 ], [ 115.0734929, -33.7936565 ], [ 115.0735081, -33.7935647 ], [ 115.0732882, -33.7935393 ], [ 115.0732932, -33.7935087 ], [ 115.0732566, -33.7935045 ], [ 115.0732769, -33.793382 ], [ 115.0732402, -33.7933778 ], [ 115.0732453, -33.7933472 ], [ 115.0732086, -33.793343 ], [ 115.073234, -33.7931899 ], [ 115.0731974, -33.7931857 ], [ 115.0732024, -33.7931551 ], [ 115.0731658, -33.7931509 ], [ 115.0731695, -33.7931281 ] ] ], [ [ [ 115.0731707, -33.7931214 ], [ 115.0731708, -33.7931202 ], [ 115.0730609, -33.7931075 ], [ 115.0730608, -33.7931082 ], [ 115.0731707, -33.7931214 ] ] ], [ [ [ 115.074072, -33.793318 ], [ 115.0739987, -33.7933095 ], [ 115.0739886, -33.7933707 ], [ 115.0740252, -33.793375 ], [ 115.0740303, -33.7933444 ], [ 115.074067, -33.7933486 ], [ 115.074072, -33.793318 ] ] ] ] } }
]
}
