{
"type": "FeatureCollection",
"name": "B3-4_Boundary",
"features": [
{ "type": "Feature", "properties": { "name": "Fishbone NW" }, "geometry": { "type": "MultiPolygon", "coordinates": [ [ [ [ 115.0742518, -33.7932582 ], [ 115.0729372, -33.7931002 ], [ 115.0728669, -33.793602 ], [ 115.0742625, -33.7937606 ], [ 115.0742518, -33.7932582 ] ] ], [ [ [ 115.0742531, -33.7931693 ], [ 115.072948, -33.7930161 ], [ 115.0729367, -33.7930933 ], [ 115.074252, -33.7932512 ], [ 115.0742531, -33.7931693 ] ] ] ] } }
]
}
