{
"type": "FeatureCollection",
"name": "layer",
"crs": { "type": "name", "properties": { "name": "urn:ogc:def:crs:OGC:1.3:CRS84" } },
"features": [
{ "type": "Feature", "properties": { "attachmentName": [ ], "attachmentPath": [ ], "color": "#7c4dff", "creationDate": "2026-07-08T03:54:17Z", "description": "", "fill": 1.0, "name": "CSRBK02 - Cabernet - 1.446 ha", "visualType": "ANNOTATION" }, "geometry": { "type": "Polygon", "coordinates": [ [ [ 115.21344192638179, -33.942225567069855 ], [ 115.213448624167881, -33.942778436812404 ], [ 115.213463694193024, -33.942820110282774 ], [ 115.213508904294315, -33.942895122435203 ], [ 115.213574207753879, -33.942927072050296 ], [ 115.213764257624689, -33.942947908740926 ], [ 115.214434036827754, -33.942995138571298 ], [ 115.215202608472396, -33.942952076091288 ], [ 115.215288842542577, -33.942128328311448 ], [ 115.21344192638179, -33.942225567069855 ] ] ] } },
{ "type": "Feature", "properties": { "attachmentName": [ ], "attachmentPath": [ ], "color": "#ffab40", "creationDate": "2026-07-08T03:56:24Z", "description": "", "fill": 1.0, "name": "CHRBK08 - Chardonnay - 0.903 ha", "visualType": "ANNOTATION" }, "geometry": { "type": "Polygon", "coordinates": [ [ [ 115.215260238717804, -33.943034725314511 ], [ 115.215175635688809, -33.943828976454661 ], [ 115.215319064305959, -33.943864891689074 ], [ 115.215973085480073, -33.943930142140893 ], [ 115.215991922903299, -33.943764000000478 ], [ 115.216209379147415, -33.943781272237828 ], [ 115.216295965181587, -33.942981263204096 ], [ 115.215260238717804, -33.943034725314511 ] ] ] } },
{ "type": "Feature", "properties": { "attachmentName": [ ], "attachmentPath": [ ], "color": "#ffab40", "creationDate": "2026-07-08T03:57:27Z", "description": "", "fill": 1.0, "name": "CHRBK04 - Chardonnay - 1.884 ha", "visualType": "ANNOTATION" }, "geometry": { "type": "Polygon", "coordinates": [ [ [ 115.213418394841824, -33.943706264948482 ], [ 115.213425823517014, -33.944424333845475 ], [ 115.215916735761652, -33.944707137511081 ], [ 115.216018731109614, -33.943991926702481 ], [ 115.213418394841824, -33.943706264948482 ] ] ] } },
{ "type": "Feature", "properties": { "attachmentName": [ ], "attachmentPath": [ ], "color": "#e040fb", "creationDate": "2026-07-08T03:58:08Z", "description": "", "fill": 1.0, "name": "PGRBK03 - Pinot Gris - 0.314 ha", "visualType": "ANNOTATION" }, "geometry": { "type": "Polygon", "coordinates": [ [ [ 115.215068005326145, -33.94382472163867 ], [ 115.215157221198353, -33.943025492367447 ], [ 115.214754145107008, -33.943047855981483 ], [ 115.214671347623153, -33.943774670206459 ], [ 115.215068005326145, -33.94382472163867 ] ] ] } },
{ "type": "Feature", "properties": { "attachmentName": [ ], "attachmentPath": [ ], "color": "#6fff4b", "creationDate": "2026-07-08T03:55:10Z", "description": "", "fill": 1.0, "name": "SBRKB09 - Sauv Blanc - 0.811 ha", "visualType": "ANNOTATION" }, "geometry": { "type": "Polygon", "coordinates": [ [ [ 115.215350223893324, -33.942131239112477 ], [ 115.215260755208249, -33.942966261482098 ], [ 115.216252235586921, -33.94291469424644 ], [ 115.216320926048979, -33.942219918425501 ], [ 115.216264702592412, -33.942223568743842 ], [ 115.216262258130484, -33.942192135377837 ], [ 115.216212145921247, -33.942193554959353 ], [ 115.216210190296181, -33.942161716003845 ], [ 115.216039564393952, -33.942163946742653 ], [ 115.216038097698288, -33.942135960906676 ], [ 115.215985052097722, -33.942102499538045 ], [ 115.215350223893324, -33.942131239112477 ] ] ] } },
{ "type": "Feature", "properties": { "attachmentName": [ ], "attachmentPath": [ ], "color": "#6fff4b", "creationDate": "2026-07-08T03:53:03Z", "description": "", "fill": 1.0, "name": "SBRK01 - Sauv Blanc - 1.275 ha", "visualType": "ANNOTATION" }, "geometry": { "type": "Polygon", "coordinates": [ [ [ 115.214746457735487, -33.942109833743594 ], [ 115.214737133131848, -33.941632897157596 ], [ 115.214529941413161, -33.941206680125774 ], [ 115.213435218631105, -33.941065666422332 ], [ 115.213443312692505, -33.94216523134002 ], [ 115.214746457735487, -33.942109833743594 ] ] ] } }
]
}
