{
"type": "FeatureCollection",
"name": "block3rx",
"crs": { "type": "name", "properties": { "name": "urn:ogc:def:crs:OGC:1.3:CRS84" } },
"features": [
{ "type": "Feature", "properties": { "appName": "Brookland Valley 18 Feb 26", "rate": 1.0, "rateInt": 1, "unit": "l/ha", "zone": 1 }, "geometry": { "type": "MultiPolygon", "coordinates": [ [ [ [ 115.031898136365811, -33.793098791191639 ], [ 115.031895762109045, -33.793098206827011 ], [ 115.031889655592678, -33.793115502060544 ], [ 115.031892062021029, -33.793116094343439 ], [ 115.031885987676176, -33.793133397495446 ], [ 115.031883549073697, -33.793132797293651 ], [ 115.031877442552087, -33.793150092526325 ], [ 115.031856727695271, -33.79314499407149 ], [ 115.031838408103624, -33.793196879763428 ], [ 115.031861690296665, -33.793202610103734 ], [ 115.031843467260302, -33.793254519564847 ], [ 115.031840803367416, -33.793253863913172 ], [ 115.031833114101588, -33.793275641808556 ], [ 115.031824835695531, -33.793287530271357 ], [ 115.031807875398485, -33.793283355907931 ], [ 115.031801768849576, -33.793300651135532 ], [ 115.031760339077167, -33.793290454195009 ], [ 115.03176644563348, -33.793273158969711 ], [ 115.031745730754906, -33.7932680604955 ], [ 115.031794583140538, -33.79312969868662 ], [ 115.031815297989496, -33.793134797151644 ], [ 115.031833617579764, -33.793082911462676 ], [ 115.031854332420224, -33.793088009920851 ], [ 115.031927610500986, -33.792880467111949 ], [ 115.031969040100961, -33.792890663990541 ], [ 115.031972319118722, -33.792881376909406 ], [ 115.031974335013331, -33.792881734568745 ], [ 115.031898136365811, -33.793098791191639 ] ], [ [ 115.031887260295605, -33.79305851790955 ], [ 115.031881153780759, -33.793075813142806 ], [ 115.031901868622796, -33.79308091159303 ], [ 115.031907975133919, -33.793063616358623 ], [ 115.031887260295605, -33.79305851790955 ] ], [ [ 115.031840803367416, -33.793253863913172 ], [ 115.031846909904758, -33.793236568683106 ], [ 115.031826195029439, -33.793231470222544 ], [ 115.031820088488388, -33.79324876545143 ], [ 115.031840803367416, -33.793253863913172 ] ] ], [ [ [ 115.031781630029229, -33.792847544915674 ], [ 115.031802817702854, -33.792851304025554 ], [ 115.03178500221253, -33.792901762082089 ], [ 115.031743572632266, -33.792891565142249 ], [ 115.031755785683984, -33.792856974688988 ], [ 115.031776500465384, -33.792862073158311 ], [ 115.031781630029229, -33.792847544915674 ] ] ], [ [ [ 115.031670294101829, -33.793099107825185 ], [ 115.031651974410238, -33.793150993486101 ], [ 115.031631259568528, -33.793145894993863 ], [ 115.03163736613871, -33.793128599775137 ], [ 115.031616651303324, -33.793123501280661 ], [ 115.031628864443235, -33.79308891084419 ], [ 115.031670294101829, -33.793099107825185 ] ] ], [ [ [ 115.031582406912705, -33.793284256727944 ], [ 115.031603121784016, -33.793289355229369 ], [ 115.03160922837148, -33.793272060012995 ], [ 115.031629943241725, -33.793277158509866 ], [ 115.031605516891005, -33.793346339377379 ], [ 115.031584802005966, -33.793341240875897 ], [ 115.03159090860126, -33.793323945660831 ], [ 115.031570193722544, -33.793318847157103 ], [ 115.031582406912705, -33.793284256727944 ] ] ], [ [ [ 115.031427584633676, -33.793340141683174 ], [ 115.031406869762179, -33.793335043152226 ], [ 115.03141297639236, -33.793317747947221 ], [ 115.031433691260133, -33.793322846477011 ], [ 115.031427584633676, -33.793340141683174 ] ] ], [ [ [ 115.031369991354282, -33.793758325500058 ], [ 115.03139070632399, -33.793763424040442 ], [ 115.031396812992242, -33.793746128838571 ], [ 115.031376098026215, -33.79374103029933 ], [ 115.03138831136225, -33.793706439896575 ], [ 115.031367596406241, -33.79370134135624 ], [ 115.03137370307401, -33.793684046155342 ], [ 115.03135298812434, -33.793678947612747 ], [ 115.031359094793203, -33.793661652412581 ], [ 115.031338379849842, -33.793656553867741 ], [ 115.03133227317727, -33.793673849066771 ], [ 115.031311558232858, -33.793668750517384 ], [ 115.031323771582748, -33.793634160121194 ], [ 115.031282341716562, -33.793623963016834 ], [ 115.031264021665535, -33.793675848603563 ], [ 115.031243306725258, -33.793670750042843 ], [ 115.031249413415267, -33.793653454848851 ], [ 115.0312286984813, -33.793648356285878 ], [ 115.031234805172389, -33.793631061092597 ], [ 115.031214090244745, -33.793625962527386 ], [ 115.0312201969369, -33.793608667334802 ], [ 115.031178767096918, -33.793598470196478 ], [ 115.031172660397374, -33.79361576538674 ], [ 115.031131230560462, -33.793605568232536 ], [ 115.03112512385087, -33.793622863420069 ], [ 115.031104408932649, -33.793617764836718 ], [ 115.031122729064606, -33.793565879276244 ], [ 115.031143443971729, -33.793570977856156 ], [ 115.031149550673462, -33.793553682667302 ], [ 115.03117026557949, -33.793558781242673 ], [ 115.031182478967651, -33.793524190861369 ], [ 115.031203193868919, -33.793529289431035 ], [ 115.031215407239202, -33.793494699045709 ], [ 115.031194692345338, -33.793489600478324 ], [ 115.031200799030245, -33.793472305286166 ], [ 115.031180084142704, -33.793467206716535 ], [ 115.031198404192807, -33.793415321140834 ], [ 115.031219119069235, -33.793420419707019 ], [ 115.031213012392186, -33.793437714900499 ], [ 115.031233727274952, -33.793442813464431 ], [ 115.031227620598969, -33.793460108658621 ], [ 115.031331195070564, -33.793485601433019 ], [ 115.031288448394974, -33.793606667820377 ], [ 115.031329878253771, -33.793616864922441 ], [ 115.031342091587945, -33.793582274523658 ], [ 115.03132137666465, -33.793577175976608 ], [ 115.031327483331523, -33.793559880777693 ], [ 115.031348198251109, -33.793564979323584 ], [ 115.031390944819847, -33.793443912910988 ], [ 115.031432374615108, -33.793454109976487 ], [ 115.031438481249893, -33.793436814770651 ], [ 115.03145919614775, -33.793441913297151 ], [ 115.031471409402059, -33.793407322881869 ], [ 115.031492124295127, -33.793412421402671 ], [ 115.03149823091465, -33.793395126193232 ], [ 115.031539660701256, -33.793405323222359 ], [ 115.031545767310746, -33.793388028010185 ], [ 115.031566482204312, -33.793393126518509 ], [ 115.031554268990078, -33.793427716944741 ], [ 115.031533554089137, -33.793422618434114 ], [ 115.031503020989234, -33.793509094486311 ], [ 115.031482306072419, -33.793503995966525 ], [ 115.031488412701322, -33.793486700758116 ], [ 115.031467697790816, -33.793481602236113 ], [ 115.031443271244598, -33.793550783062557 ], [ 115.031484701097824, -33.793560980112382 ], [ 115.031478594462115, -33.793578275320193 ], [ 115.031499309396395, -33.793583373841152 ], [ 115.031517629284536, -33.793531488212942 ], [ 115.031538344210304, -33.793536586727065 ], [ 115.031562770676345, -33.793467405878737 ], [ 115.031542055765385, -33.793462307369218 ], [ 115.031548162379025, -33.793445012157186 ], [ 115.031568877286304, -33.793450110665567 ], [ 115.031587197100464, -33.793398225023431 ], [ 115.031628626900627, -33.793408422023113 ], [ 115.031622520305945, -33.793425717239877 ], [ 115.03164323521365, -33.793430815735768 ], [ 115.031637128620062, -33.793448110953264 ], [ 115.031657843534106, -33.793453209446895 ], [ 115.031627310545232, -33.793539685533538 ], [ 115.031606595612658, -33.793534587034166 ], [ 115.031600489003353, -33.793551882249034 ], [ 115.031559059138701, -33.793541685237777 ], [ 115.031522419383222, -33.793645456504073 ], [ 115.031501704432614, -33.793640357986455 ], [ 115.031495597793807, -33.793657653194835 ], [ 115.031474882842133, -33.793652554672676 ], [ 115.031468776197016, -33.793669849879457 ], [ 115.031489491152399, -33.793674948402767 ], [ 115.031483384508377, -33.793692243610288 ], [ 115.031504099470084, -33.793697342131338 ], [ 115.031485779533355, -33.793749227754681 ], [ 115.031465064560564, -33.793744129230163 ], [ 115.031452851248901, -33.793778719641239 ], [ 115.031432136271306, -33.79377362111105 ], [ 115.031413816273059, -33.793825506720957 ], [ 115.03139310128698, -33.793820408183898 ], [ 115.031399207959396, -33.793803112982182 ], [ 115.031357778002516, -33.793792915900205 ], [ 115.031369991354282, -33.793758325500058 ] ], [ [ 115.0314249513074, -33.793602668677821 ], [ 115.031406631346599, -33.793654554289155 ], [ 115.031427346294123, -33.793659652822662 ], [ 115.031433452946644, -33.793642357618161 ], [ 115.031454167893074, -33.79364745614712 ], [ 115.03146027453927, -33.793630160941042 ], [ 115.031480989484621, -33.793635259465454 ], [ 115.031487096124508, -33.793617964257791 ], [ 115.0314249513074, -33.793602668677821 ] ], [ [ 115.031402919657864, -33.793728833636266 ], [ 115.031423634622797, -33.793733932170952 ], [ 115.031429741282111, -33.793716636967069 ], [ 115.031409026320858, -33.79371153843352 ], [ 115.031402919657864, -33.793728833636266 ] ], [ [ 115.031394418026323, -33.79368914469454 ], [ 115.031415132981223, -33.79369424323032 ], [ 115.031421239638988, -33.793676948026722 ], [ 115.031400524687768, -33.793671849492071 ], [ 115.031394418026323, -33.79368914469454 ] ] ], [ [ [ 115.031364123277626, -33.793456109575096 ], [ 115.031343408382853, -33.793451011032701 ], [ 115.03134951503506, -33.793433715831895 ], [ 115.031370229926154, -33.793438814373133 ], [ 115.031364123277626, -33.793456109575096 ] ] ], [ [ [ 115.031149550673462, -33.793553682667302 ], [ 115.031128835770033, -33.793548584088548 ], [ 115.031134942472832, -33.793531288900411 ], [ 115.031155657372551, -33.793536387478035 ], [ 115.031149550673462, -33.793553682667302 ] ] ], [ [ [ 115.031036157466687, -33.793619764248781 ], [ 115.031042264193687, -33.793602469066272 ], [ 115.031062979104064, -33.793607567659819 ], [ 115.031044658926277, -33.793659453209479 ], [ 115.031023944004801, -33.793654354612492 ], [ 115.031030050737073, -33.793637059430843 ], [ 115.031009335821906, -33.793631960831604 ], [ 115.031015442555244, -33.793614665650693 ], [ 115.031036157466687, -33.793619764248781 ] ] ], [ [ [ 115.031005739766897, -33.793705911697884 ], [ 115.03101173053247, -33.793688944974434 ], [ 115.031073875326925, -33.793704240762111 ], [ 115.031079982053313, -33.79368694557791 ], [ 115.031100696986343, -33.793692044165844 ], [ 115.031088483538355, -33.793726634536135 ], [ 115.031012712369616, -33.79370798487588 ], [ 115.031005739766897, -33.793705911697884 ] ] ] ] } },
{ "type": "Feature", "properties": { "appName": "Brookland Valley 18 Feb 26", "rate": 2.0, "rateInt": 2, "unit": "l/ha", "zone": 2 }, "geometry": { "type": "MultiPolygon", "coordinates": [ [ [ [ 115.031654504001907, -33.792824990258922 ], [ 115.031760442355548, -33.792843785805779 ], [ 115.031743572632266, -33.792891565142249 ], [ 115.03178500221253, -33.792901762082089 ], [ 115.031802817699031, -33.792851304024879 ], [ 115.031845193052703, -33.79285882224579 ], [ 115.031844751332486, -33.79286007331401 ], [ 115.031906895704935, -33.792875368667559 ], [ 115.031900789208919, -33.792892663902883 ], [ 115.031921504008665, -33.792897762348424 ], [ 115.031915397513743, -33.792915057584459 ], [ 115.031894682710288, -33.792909959137766 ], [ 115.031888576209013, -33.792927254372216 ], [ 115.031909291016191, -33.79293235282006 ], [ 115.031866545459906, -33.79305341945706 ], [ 115.031845830626835, -33.793048321001187 ], [ 115.031833617579764, -33.793082911462676 ], [ 115.031812902741905, -33.793077813001112 ], [ 115.031800689676942, -33.793112403458551 ], [ 115.031821404522205, -33.793117501922431 ], [ 115.031815297989496, -33.793134797151644 ], [ 115.031794583140538, -33.79312969868662 ], [ 115.031745730754906, -33.7932680604955 ], [ 115.03176644563348, -33.793273158969711 ], [ 115.031760339077167, -33.793290454195009 ], [ 115.031801768849576, -33.793300651135532 ], [ 115.031795662298066, -33.793317946362684 ], [ 115.031802486235989, -33.793319625908708 ], [ 115.031791311506112, -33.793335673727519 ], [ 115.031789555743913, -33.793335241589418 ], [ 115.031787440250639, -33.793341233164497 ], [ 115.031770240128651, -33.793365933935299 ], [ 115.031732437044965, -33.793433972449606 ], [ 115.031732201446943, -33.793433914462824 ], [ 115.031731734556786, -33.793435236797578 ], [ 115.03171986412525, -33.793456601364895 ], [ 115.031707773847415, -33.793454209074561 ], [ 115.03160986072578, -33.793742171033067 ], [ 115.031601567693457, -33.793740129899646 ], [ 115.031599574755546, -33.793745774302501 ], [ 115.031587159221772, -33.793742478334067 ], [ 115.031567296657499, -33.793804198896808 ], [ 115.031544843385461, -33.793797022099994 ], [ 115.031525321299128, -33.793852951149461 ], [ 115.031434531261752, -33.793830605254598 ], [ 115.031440637926764, -33.793813310050588 ], [ 115.031419922941765, -33.793808211518076 ], [ 115.031432136271306, -33.79377362111105 ], [ 115.031452851248901, -33.793778719641239 ], [ 115.031465064560564, -33.793744129230163 ], [ 115.031485779533355, -33.793749227754681 ], [ 115.031504099470084, -33.793697342131338 ], [ 115.031483384508377, -33.793692243610288 ], [ 115.031501704432614, -33.793640357986455 ], [ 115.031522419383222, -33.793645456504073 ], [ 115.031559059138701, -33.793541685237777 ], [ 115.031600489003353, -33.793551882249034 ], [ 115.031606595612658, -33.793534587034166 ], [ 115.031627310545232, -33.793539685533538 ], [ 115.031657843534106, -33.793453209446895 ], [ 115.031637128620062, -33.793448110953264 ], [ 115.03164323521365, -33.793430815735768 ], [ 115.031622520305945, -33.793425717239877 ], [ 115.031628626900627, -33.793408422023113 ], [ 115.031587197100464, -33.793398225023431 ], [ 115.031629943241725, -33.793277158509866 ], [ 115.03160922837148, -33.793272060012995 ], [ 115.031603121784016, -33.793289355229369 ], [ 115.031582406912705, -33.793284256727944 ], [ 115.031570193722544, -33.793318847157103 ], [ 115.03159090860126, -33.793323945660831 ], [ 115.031578695408029, -33.793358536090537 ], [ 115.031557980521896, -33.793353437584507 ], [ 115.031539660701256, -33.793405323222359 ], [ 115.03149823091465, -33.793395126193232 ], [ 115.031492124295127, -33.793412421402671 ], [ 115.031471409402059, -33.793407322881869 ], [ 115.03145919614775, -33.793441913297151 ], [ 115.031438481249893, -33.793436814770651 ], [ 115.031432374615108, -33.793454109976487 ], [ 115.031390944819847, -33.793443912910988 ], [ 115.031421478004589, -33.793357436888897 ], [ 115.031400763129398, -33.793352338356804 ], [ 115.031388549855961, -33.79338692876464 ], [ 115.031367834975995, -33.793381830226863 ], [ 115.031331195070564, -33.793485601433019 ], [ 115.031227620598969, -33.793460108658621 ], [ 115.031233727274952, -33.793442813464431 ], [ 115.031213012392186, -33.793437714900499 ], [ 115.031225225743668, -33.793403124513098 ], [ 115.03120451087095, -33.793398025948086 ], [ 115.031180084142704, -33.793467206716535 ], [ 115.031200799030245, -33.793472305286166 ], [ 115.031194692345338, -33.793489600478324 ], [ 115.031215407239202, -33.793494699045709 ], [ 115.031203193868919, -33.793529289431035 ], [ 115.031141049173002, -33.793513993711848 ], [ 115.031153262565468, -33.793479403333407 ], [ 115.031111832796114, -33.79346920617489 ], [ 115.031062979104064, -33.793607567659819 ], [ 115.031042264193687, -33.793602469066272 ], [ 115.031036157466687, -33.793619764248781 ], [ 115.031015442555244, -33.793614665650693 ], [ 115.031009335821906, -33.793631960831604 ], [ 115.031030050737073, -33.793637059430843 ], [ 115.031023944004801, -33.793654354612492 ], [ 115.031044658926277, -33.793659453209479 ], [ 115.031032445461349, -33.79369404357373 ], [ 115.03101173053247, -33.793688944974434 ], [ 115.031005739766897, -33.793705911697884 ], [ 115.030985363746112, -33.793699853254658 ], [ 115.030991015606219, -33.793683846371756 ], [ 115.030928870843198, -33.793668550543323 ], [ 115.030977724788173, -33.793530189121782 ], [ 115.030962269660066, -33.793526385112195 ], [ 115.030968184351636, -33.793509042665505 ], [ 115.030983831519492, -33.793512893942136 ], [ 115.030989938248197, -33.79349559876205 ], [ 115.031031368013558, -33.793505795961416 ], [ 115.031043581448287, -33.793471205595338 ], [ 115.0310642963275, -33.793476304187628 ], [ 115.031094829849991, -33.793389828259045 ], [ 115.031074114989281, -33.793384729672482 ], [ 115.031080221689606, -33.793367434486612 ], [ 115.031059506835234, -33.793362335897811 ], [ 115.03106561353664, -33.793345040712651 ], [ 115.031027331263743, -33.793335618208999 ], [ 115.031050990026557, -33.793266248432325 ], [ 115.031069325482818, -33.79327076138118 ], [ 115.031057112090934, -33.793305351752267 ], [ 115.031077826931607, -33.793310450341018 ], [ 115.031102253690079, -33.793241269592514 ], [ 115.031122968518545, -33.793246368173264 ], [ 115.03112907519791, -33.793229072983898 ], [ 115.03114979002531, -33.793234171560108 ], [ 115.031155896698337, -33.793216876369165 ], [ 115.031197326353578, -33.793227073509101 ], [ 115.031203433016614, -33.793209778315408 ], [ 115.031224147844469, -33.793214876879148 ], [ 115.031230254501168, -33.793197581683863 ], [ 115.031250969327928, -33.793202680243063 ], [ 115.031263182626049, -33.793168089848905 ], [ 115.031283897448034, -33.793173188402392 ], [ 115.031296110728263, -33.793138598004212 ], [ 115.031316825545488, -33.793143696551994 ], [ 115.031341252059704, -33.793074515745793 ], [ 115.031361966864736, -33.793079614285595 ], [ 115.031374180098709, -33.793045023877589 ], [ 115.031394894898938, -33.793050122411678 ], [ 115.031401001508314, -33.793032827205877 ], [ 115.031421716307463, -33.793037925735426 ], [ 115.031440036108719, -33.792986040111941 ], [ 115.031460750899384, -33.792991138634655 ], [ 115.031472964079697, -33.792956548214526 ], [ 115.031493678865601, -33.792961646731527 ], [ 115.031499785448119, -33.792944351519665 ], [ 115.031520500232958, -33.792949450032147 ], [ 115.03151439365412, -33.79296674524516 ], [ 115.031555823239003, -33.792976942262236 ], [ 115.031561929810437, -33.792959647046914 ], [ 115.031541215020383, -33.792954548541218 ], [ 115.031547321592882, -33.79293725332662 ], [ 115.031568036379241, -33.792942351831151 ], [ 115.031574142945431, -33.792925056614962 ], [ 115.031594857730695, -33.792930155114945 ], [ 115.031600964290547, -33.792912859897172 ], [ 115.031621679074746, -33.792917958392614 ], [ 115.031646105273168, -33.792848777512553 ], [ 115.031625390503777, -33.792843679021708 ], [ 115.031631497050554, -33.792826383801753 ], [ 115.031652211816223, -33.792831482291454 ], [ 115.031654504001907, -33.792824990258922 ] ], [ [ 115.03147404254986, -33.793144795873104 ], [ 115.031494757380628, -33.793149894391419 ], [ 115.03151307716567, -33.793098008757234 ], [ 115.031492362346, -33.793092910242372 ], [ 115.03147404254986, -33.793144795873104 ] ], [ [ 115.031762734288549, -33.793347438343687 ], [ 115.031774947406845, -33.793312847892977 ], [ 115.031754232518253, -33.79330774941986 ], [ 115.031742019392539, -33.793342339868275 ], [ 115.031762734288549, -33.793347438343687 ] ], [ [ 115.031616651303324, -33.793123501280661 ], [ 115.03163736613871, -33.793128599775137 ], [ 115.031631259568528, -33.793145894993863 ], [ 115.031651974410238, -33.793150993486101 ], [ 115.031670294101829, -33.793099107825185 ], [ 115.031628864443235, -33.79308891084419 ], [ 115.031616651303324, -33.793123501280661 ] ], [ [ 115.031411898073259, -33.793129500297759 ], [ 115.031370468435313, -33.793119303230561 ], [ 115.031352148560075, -33.793171188840141 ], [ 115.031372863388825, -33.793176287378891 ], [ 115.031366756762196, -33.793193582582354 ], [ 115.031387471597284, -33.793198681118859 ], [ 115.031411898073259, -33.793129500297759 ] ], [ [ 115.031420399670822, -33.79316918923999 ], [ 115.031441114503778, -33.7931742877674 ], [ 115.031459434326734, -33.793122402142728 ], [ 115.031438719504905, -33.793117303618772 ], [ 115.031420399670822, -33.79316918923999 ] ], [ [ 115.031437402886795, -33.793248567122809 ], [ 115.031425189644821, -33.793283157535875 ], [ 115.031445904505205, -33.793288256063384 ], [ 115.031458117739788, -33.793253665648017 ], [ 115.031437402886795, -33.793248567122809 ] ], [ [ 115.031699510660616, -33.793143895238238 ], [ 115.03172022550649, -33.793148993719136 ], [ 115.031714118951115, -33.793166288942452 ], [ 115.031734833803313, -33.793171387421111 ], [ 115.031753153450467, -33.793119501746403 ], [ 115.031711723770911, -33.793109304792587 ], [ 115.031699510660616, -33.793143895238238 ] ], [ [ 115.031564324892074, -33.79301663119729 ], [ 115.031585039698484, -33.79302172969961 ], [ 115.031578933126596, -33.79303902491592 ], [ 115.031599647939331, -33.793044123416003 ], [ 115.031617967636024, -33.792992237762334 ], [ 115.031576538035395, -33.792982040765658 ], [ 115.031564324892074, -33.79301663119729 ] ], [ [ 115.031837328840382, -33.793008632080962 ], [ 115.031858043663405, -33.79301373053795 ], [ 115.03187025668953, -33.792979140072966 ], [ 115.031849541873882, -33.792974041618287 ], [ 115.031837328840382, -33.793008632080962 ] ], [ [ 115.03141297639236, -33.793317747947221 ], [ 115.031406869762179, -33.793335043152226 ], [ 115.031427584633676, -33.793340141683174 ], [ 115.031433691260133, -33.793322846477011 ], [ 115.03141297639236, -33.793317747947221 ] ] ], [ [ [ 115.031612128665373, -33.792817472041051 ], [ 115.031633316333284, -33.792821231149922 ], [ 115.031631497050554, -33.792826383801753 ], [ 115.031610782287473, -33.792821285308648 ], [ 115.031612128665373, -33.792817472041051 ] ] ], [ [ [ 115.031278222119553, -33.792758230454673 ], [ 115.031293954550023, -33.792762102706199 ], [ 115.031287847941414, -33.792779397907324 ], [ 115.031267133212864, -33.792774299357596 ], [ 115.03126102659796, -33.792791594557144 ], [ 115.031240311868331, -33.792786496002869 ], [ 115.031234205247117, -33.792803791200832 ], [ 115.031213490516393, -33.792798692642002 ], [ 115.031230750765701, -33.792749808103139 ], [ 115.031278222119553, -33.792758230454673 ] ] ], [ [ [ 115.031215885367658, -33.792855676792115 ], [ 115.03119517062585, -33.792850578229846 ], [ 115.031207383888841, -33.792815987838381 ], [ 115.031228098623245, -33.792821086398362 ], [ 115.031215885367658, -33.792855676792115 ] ] ], [ [ [ 115.031197565464609, -33.792907562379483 ], [ 115.031176850711702, -33.792902463813775 ], [ 115.031189063990439, -33.792867873424917 ], [ 115.031209778735928, -33.792872971988352 ], [ 115.031197565464609, -33.792907562379483 ] ] ], [ [ [ 115.03116092558777, -33.793011333542474 ], [ 115.031140210812666, -33.793006234969837 ], [ 115.031164637422506, -33.79293705420087 ], [ 115.031185352182817, -33.792942152768894 ], [ 115.03116092558777, -33.793011333542474 ] ] ], [ [ [ 115.030974099043135, -33.793491700218986 ], [ 115.030980013734577, -33.793474357772681 ], [ 115.030996044974273, -33.793478303581509 ], [ 115.030989938248197, -33.79349559876205 ], [ 115.030974099043135, -33.793491700218986 ] ] ], [ [ [ 115.031352132377791, -33.793808905309355 ], [ 115.031311380280599, -33.793796788406361 ], [ 115.031316348056123, -33.793782718804621 ], [ 115.03129563308687, -33.79377762025176 ], [ 115.031291004234475, -33.793790729955596 ], [ 115.031270628190029, -33.793784671505335 ], [ 115.031274918120204, -33.793772521695473 ], [ 115.031150628375386, -33.79374193028648 ], [ 115.031148371959077, -33.793748320814373 ], [ 115.031107619895707, -33.793736203921434 ], [ 115.031109198481431, -33.793731733122989 ], [ 115.031088483538355, -33.793726634536135 ], [ 115.031112910423843, -33.793657453793834 ], [ 115.031133625352112, -33.793662552376091 ], [ 115.031139732063224, -33.793645257188267 ], [ 115.031119017138678, -33.793640158607161 ], [ 115.03112512385087, -33.793622863420069 ], [ 115.031145838771721, -33.793627962000031 ], [ 115.031151945477603, -33.79361066681134 ], [ 115.031172660397374, -33.79361576538674 ], [ 115.031178767096918, -33.793598470196478 ], [ 115.0312201969369, -33.793608667334802 ], [ 115.031214090244745, -33.793625962527386 ], [ 115.031234805172389, -33.793631061092597 ], [ 115.0312286984813, -33.793648356285878 ], [ 115.031249413415267, -33.793653454848851 ], [ 115.031243306725258, -33.793670750042843 ], [ 115.031264021665535, -33.793675848603563 ], [ 115.031251808285106, -33.793710438992541 ], [ 115.031293238188326, -33.793720636108397 ], [ 115.031299344872451, -33.793703340911826 ], [ 115.031278629923236, -33.79369824235674 ], [ 115.031290843291032, -33.793663651964607 ], [ 115.03133227317727, -33.793673849066771 ], [ 115.031338379849842, -33.793656553867741 ], [ 115.031359094793203, -33.793661652412581 ], [ 115.03135298812434, -33.793678947612747 ], [ 115.03137370307401, -33.793684046155342 ], [ 115.031367596406241, -33.79370134135624 ], [ 115.03138831136225, -33.793706439896575 ], [ 115.031376098026215, -33.79374103029933 ], [ 115.031396812992242, -33.793746128838571 ], [ 115.03139070632399, -33.793763424040442 ], [ 115.031369991354282, -33.793758325500058 ], [ 115.031352132377791, -33.793808905309355 ] ] ] ] } },
{ "type": "Feature", "properties": { "appName": "Brookland Valley 18 Feb 26", "rate": 3.0, "rateInt": 3, "unit": "l/ha", "zone": 3 }, "geometry": { "type": "MultiPolygon", "coordinates": [ [ [ [ 115.031121966308874, -33.793058139120326 ], [ 115.031142605613951, -33.793063219118061 ], [ 115.031228098623245, -33.792821086398362 ], [ 115.031207383888841, -33.792815987838381 ], [ 115.031213490516393, -33.792798692642002 ], [ 115.031234205247117, -33.792803791200832 ], [ 115.031240311868331, -33.792786496002869 ], [ 115.03126102659796, -33.792791594557144 ], [ 115.031267133212864, -33.792774299357596 ], [ 115.031287847941414, -33.792779397907324 ], [ 115.031293954550023, -33.792762102706199 ], [ 115.031397528213489, -33.79278759539821 ], [ 115.031400252025634, -33.792779880959323 ], [ 115.031551807849908, -33.792806769942381 ], [ 115.031631497050554, -33.792826383801753 ], [ 115.031625390503777, -33.792843679021708 ], [ 115.031646105273168, -33.792848777512553 ], [ 115.031621679074746, -33.792917958392614 ], [ 115.031600964290547, -33.792912859897172 ], [ 115.031594857730695, -33.792930155114945 ], [ 115.031574142945431, -33.792925056614962 ], [ 115.031568036379241, -33.792942351831151 ], [ 115.031547321592882, -33.79293725332662 ], [ 115.031541215020383, -33.792954548541218 ], [ 115.031499785448119, -33.792944351519665 ], [ 115.031493678865601, -33.792961646731527 ], [ 115.031472964079697, -33.792956548214526 ], [ 115.031460750899384, -33.792991138634655 ], [ 115.031440036108719, -33.792986040111941 ], [ 115.031421716307463, -33.793037925735426 ], [ 115.031401001508314, -33.793032827205877 ], [ 115.031394894898938, -33.793050122411678 ], [ 115.031374180098709, -33.793045023877589 ], [ 115.031361966864736, -33.793079614285595 ], [ 115.031341252059704, -33.793074515745793 ], [ 115.031316825545488, -33.793143696551994 ], [ 115.031296110728263, -33.793138598004212 ], [ 115.031283897448034, -33.793173188402392 ], [ 115.031263182626049, -33.793168089848905 ], [ 115.031250969327928, -33.793202680243063 ], [ 115.031230254501168, -33.793197581683863 ], [ 115.031224147844469, -33.793214876879148 ], [ 115.031203433016614, -33.793209778315408 ], [ 115.031197326353578, -33.793227073509101 ], [ 115.031155896698337, -33.793216876369165 ], [ 115.03114979002531, -33.793234171560108 ], [ 115.03112907519791, -33.793229072983898 ], [ 115.031122968518545, -33.793246368173264 ], [ 115.031102253690079, -33.793241269592514 ], [ 115.031077826931607, -33.793310450341018 ], [ 115.031057112090934, -33.793305351752267 ], [ 115.031130392284993, -33.793097809499599 ], [ 115.031110136929158, -33.793092824003693 ], [ 115.031121966308874, -33.793058139120326 ] ] ], [ [ [ 115.031576538035395, -33.792982040765658 ], [ 115.031617967636024, -33.792992237762334 ], [ 115.031599647939331, -33.793044123416003 ], [ 115.031578933126596, -33.79303902491592 ], [ 115.031585039698484, -33.79302172969961 ], [ 115.031564324892074, -33.79301663119729 ], [ 115.031576538035395, -33.792982040765658 ] ] ], [ [ [ 115.031734833803313, -33.793171387421111 ], [ 115.031714118951115, -33.793166288942452 ], [ 115.03172022550649, -33.793148993719136 ], [ 115.031699510660616, -33.793143895238238 ], [ 115.031711723770911, -33.793109304792587 ], [ 115.031753153450467, -33.793119501746403 ], [ 115.031734833803313, -33.793171387421111 ] ] ], [ [ [ 115.031411898073259, -33.793129500297759 ], [ 115.031387471597284, -33.793198681118859 ], [ 115.031366756762196, -33.793193582582354 ], [ 115.031372863388825, -33.793176287378891 ], [ 115.031352148560075, -33.793171188840141 ], [ 115.031370468435313, -33.793119303230561 ], [ 115.031411898073259, -33.793129500297759 ] ] ], [ [ [ 115.031059506835234, -33.793362335897811 ], [ 115.031080221689606, -33.793367434486612 ], [ 115.031074114989281, -33.793384729672482 ], [ 115.031094829849991, -33.793389828259045 ], [ 115.0310642963275, -33.793476304187628 ], [ 115.031043581448287, -33.793471205595338 ], [ 115.031031368013558, -33.793505795961416 ], [ 115.030989938248197, -33.79349559876205 ], [ 115.031044898688577, -33.793339942121612 ], [ 115.03106561353664, -33.793345040712651 ], [ 115.031059506835234, -33.793362335897811 ] ] ] ] } }
]
}
