{
"type": "FeatureCollection",
"name": "block3boundary",
"crs": { "type": "name", "properties": { "name": "urn:ogc:def:crs:OGC:1.3:CRS84" } },
"features": [
{ "type": "Feature", "properties": { "name": "Brookland Valley 18 Feb 26" }, "geometry": { "type": "MultiPolygon", "coordinates": [ [ [ [ 115.031227330454669, -33.792749201272713 ], [ 115.031974335013331, -33.792881734568745 ], [ 115.031839039402257, -33.793267132596 ], [ 115.031770240128651, -33.793365933935299 ], [ 115.03171986412525, -33.793456601364895 ], [ 115.031707773847415, -33.793454209074561 ], [ 115.031607885373489, -33.793747980533411 ], [ 115.031587159221772, -33.793742478334067 ], [ 115.031567296657499, -33.793804198896808 ], [ 115.031544843385461, -33.793797022099994 ], [ 115.03152296576576, -33.793859699544086 ], [ 115.030910681111607, -33.793677647716784 ], [ 115.031227330454669, -33.792749201272713 ] ] ] ] } }
]
}
