{
"type": "FeatureCollection",
"name": "NDVI Block F&G 3 zones_Boundary",
"features": [
{ "type": "Feature", "properties": { "name": "Island Brook 080125" }, "geometry": { "type": "MultiPolygon", "coordinates": [ [ [ [ 115.1500089, -33.7533956 ], [ 115.1501662, -33.753418 ], [ 115.15024, -33.7530138 ], [ 115.1498166, -33.7529502 ], [ 115.1497622, -33.7531483 ], [ 115.1500089, -33.7533956 ] ] ], [ [ [ 115.1498184, -33.7529436 ], [ 115.1506059, -33.7530627 ], [ 115.1506691, -33.7527998 ], [ 115.1510548, -33.7528565 ], [ 115.1511366, -33.7526741 ], [ 115.1511878, -33.7525201 ], [ 115.1500779, -33.7523548 ], [ 115.1499063, -33.7526562 ], [ 115.1498184, -33.7529436 ] ] ] ] } }
]
}
