{
"type": "FeatureCollection",
"name": "NDVI Block F&G 3 zones_Rx",
"features": [
{ "type": "Feature", "properties": { "appName": "Island Brook 080125", "rate": 1.0, "rateInt": 1, "unit": "l/ha", "zone": 1 }, "geometry": { "type": "MultiPolygon", "coordinates": [ [ [ [ 115.1499182, -33.7526352 ], [ 115.1499145, -33.7526528 ], [ 115.1499842, -33.7526631 ], [ 115.1499903, -33.752634 ], [ 115.1500252, -33.7526391 ], [ 115.1500313, -33.75261 ], [ 115.1502404, -33.7526408 ], [ 115.1502342, -33.7526699 ], [ 115.1504433, -33.7527007 ], [ 115.1504494, -33.7526716 ], [ 115.1504843, -33.7526767 ], [ 115.1504966, -33.7526185 ], [ 115.1504269, -33.7526082 ], [ 115.150433, -33.7525791 ], [ 115.1503633, -33.7525688 ], [ 115.1503695, -33.7525397 ], [ 115.1503346, -33.7525346 ], [ 115.1503531, -33.7524473 ], [ 115.1503879, -33.7524524 ], [ 115.1503941, -33.7524233 ], [ 115.150185, -33.7523925 ], [ 115.1501789, -33.7524216 ], [ 115.1502137, -33.7524268 ], [ 115.1502014, -33.752485 ], [ 115.1502363, -33.7524901 ], [ 115.150224, -33.7525483 ], [ 115.1501194, -33.7525329 ], [ 115.1501317, -33.7524747 ], [ 115.1500969, -33.7524696 ], [ 115.1501092, -33.7524114 ], [ 115.150144, -33.7524165 ], [ 115.1501502, -33.7523874 ], [ 115.1500664, -33.7523751 ], [ 115.1500324, -33.7524347 ], [ 115.150021, -33.7524884 ], [ 115.1500033, -33.7524858 ], [ 115.1499753, -33.7525349 ], [ 115.1499678, -33.7525706 ], [ 115.149956, -33.7525689 ], [ 115.1499182, -33.7526352 ] ] ], [ [ [ 115.150221, -33.7531181 ], [ 115.1502118, -33.7531167 ], [ 115.1502056, -33.7531458 ], [ 115.1501011, -33.7531304 ], [ 115.150095, -33.7531595 ], [ 115.1500601, -33.7531544 ], [ 115.1500356, -33.7532708 ], [ 115.1500007, -33.7532657 ], [ 115.1499946, -33.7532948 ], [ 115.1499249, -33.7532845 ], [ 115.1499202, -33.7533067 ], [ 115.1500089, -33.7533956 ], [ 115.1501662, -33.753418 ], [ 115.150221, -33.7531181 ] ] ] ] } },
{ "type": "Feature", "properties": { "appName": "Island Brook 080125", "rate": 2.0, "rateInt": 2, "unit": "l/ha", "zone": 2 }, "geometry": { "type": "MultiPolygon", "coordinates": [ [ [ [ 115.1501789, -33.7524216 ], [ 115.150185, -33.7523925 ], [ 115.1501502, -33.7523874 ], [ 115.150144, -33.7524165 ], [ 115.1501092, -33.7524114 ], [ 115.1500969, -33.7524696 ], [ 115.1501317, -33.7524747 ], [ 115.1501194, -33.7525329 ], [ 115.150224, -33.7525483 ], [ 115.1502363, -33.7524901 ], [ 115.1502014, -33.752485 ], [ 115.1502137, -33.7524268 ], [ 115.1501789, -33.7524216 ] ] ], [ [ [ 115.1506635, -33.7528231 ], [ 115.1506339, -33.7528188 ], [ 115.1506401, -33.7527897 ], [ 115.1506052, -33.7527845 ], [ 115.1506237, -33.7526972 ], [ 115.1506585, -33.7527023 ], [ 115.1506647, -33.7526732 ], [ 115.1506298, -33.7526681 ], [ 115.1506482, -33.7525808 ], [ 115.1506134, -33.7525757 ], [ 115.150638, -33.7524592 ], [ 115.1503941, -33.7524233 ], [ 115.1503879, -33.7524524 ], [ 115.1503531, -33.7524473 ], [ 115.1503346, -33.7525346 ], [ 115.1503695, -33.7525397 ], [ 115.1503633, -33.7525688 ], [ 115.150433, -33.7525791 ], [ 115.1504269, -33.7526082 ], [ 115.1504966, -33.7526185 ], [ 115.1504843, -33.7526767 ], [ 115.1504494, -33.7526716 ], [ 115.1504433, -33.7527007 ], [ 115.1502342, -33.7526699 ], [ 115.1502404, -33.7526408 ], [ 115.1500313, -33.75261 ], [ 115.1500252, -33.7526391 ], [ 115.1499903, -33.752634 ], [ 115.1499842, -33.7526631 ], [ 115.1499145, -33.7526528 ], [ 115.1499084, -33.7526819 ], [ 115.1498988, -33.7526805 ], [ 115.1498184, -33.7529436 ], [ 115.1503047, -33.7530172 ], [ 115.1503122, -33.7529815 ], [ 115.150347, -33.7529866 ], [ 115.1503532, -33.7529575 ], [ 115.1504577, -33.7529729 ], [ 115.1504439, -33.7530382 ], [ 115.1506059, -33.7530627 ], [ 115.1506635, -33.7528231 ] ] ], [ [ [ 115.150221, -33.7531181 ], [ 115.15024, -33.7530138 ], [ 115.1498166, -33.7529502 ], [ 115.1498132, -33.7529625 ], [ 115.1497937, -33.7530551 ], [ 115.149788, -33.7530543 ], [ 115.1497622, -33.7531483 ], [ 115.1499202, -33.7533067 ], [ 115.1499249, -33.7532845 ], [ 115.1499946, -33.7532948 ], [ 115.1500007, -33.7532657 ], [ 115.1500356, -33.7532708 ], [ 115.1500601, -33.7531544 ], [ 115.150095, -33.7531595 ], [ 115.1501011, -33.7531304 ], [ 115.1502056, -33.7531458 ], [ 115.1502118, -33.7531167 ], [ 115.150221, -33.7531181 ] ], [ [ 115.1499372, -33.7532263 ], [ 115.1498675, -33.7532161 ], [ 115.1498736, -33.753187 ], [ 115.1498388, -33.7531818 ], [ 115.1498572, -33.7530945 ], [ 115.1498921, -33.7530996 ], [ 115.1498859, -33.7531287 ], [ 115.1499208, -33.7531339 ], [ 115.1499146, -33.753163 ], [ 115.1499495, -33.7531681 ], [ 115.1499372, -33.7532263 ] ] ], [ [ [ 115.1510561, -33.7525208 ], [ 115.1509167, -33.7525003 ], [ 115.1509106, -33.7525294 ], [ 115.150806, -33.752514 ], [ 115.1507999, -33.7525431 ], [ 115.1507651, -33.752538 ], [ 115.1507528, -33.7525962 ], [ 115.1507876, -33.7526013 ], [ 115.1507815, -33.7526304 ], [ 115.1508163, -33.7526355 ], [ 115.1508102, -33.7526646 ], [ 115.1509147, -33.75268 ], [ 115.1509208, -33.7526509 ], [ 115.1509557, -33.7526561 ], [ 115.1509618, -33.752627 ], [ 115.1509967, -33.7526321 ], [ 115.1510151, -33.7525448 ], [ 115.1510499, -33.7525499 ], [ 115.1510561, -33.7525208 ] ] ], [ [ [ 115.1511814, -33.7525393 ], [ 115.1511258, -33.7525311 ], [ 115.1510889, -33.7527057 ], [ 115.1510541, -33.7527006 ], [ 115.1510234, -33.7528461 ], [ 115.1509885, -33.752841 ], [ 115.1509873, -33.7528466 ], [ 115.1510548, -33.7528565 ], [ 115.1511366, -33.7526741 ], [ 115.1511814, -33.7525393 ] ] ] ] } },
{ "type": "Feature", "properties": { "appName": "Island Brook 080125", "rate": 3.0, "rateInt": 3, "unit": "l/ha", "zone": 3 }, "geometry": { "type": "MultiPolygon", "coordinates": [ [ [ [ 115.1509873, -33.7528466 ], [ 115.1509885, -33.752841 ], [ 115.1510234, -33.7528461 ], [ 115.1510541, -33.7527006 ], [ 115.1510889, -33.7527057 ], [ 115.1511258, -33.7525311 ], [ 115.1510561, -33.7525208 ], [ 115.1510499, -33.7525499 ], [ 115.1510151, -33.7525448 ], [ 115.1509967, -33.7526321 ], [ 115.1509618, -33.752627 ], [ 115.1509557, -33.7526561 ], [ 115.1509208, -33.7526509 ], [ 115.1509147, -33.75268 ], [ 115.1508102, -33.7526646 ], [ 115.1508163, -33.7526355 ], [ 115.1507815, -33.7526304 ], [ 115.1507876, -33.7526013 ], [ 115.1507528, -33.7525962 ], [ 115.1507651, -33.752538 ], [ 115.1507999, -33.7525431 ], [ 115.150806, -33.752514 ], [ 115.1509106, -33.7525294 ], [ 115.1509167, -33.7525003 ], [ 115.150638, -33.7524592 ], [ 115.1506134, -33.7525757 ], [ 115.1506482, -33.7525808 ], [ 115.1506298, -33.7526681 ], [ 115.1506647, -33.7526732 ], [ 115.1506585, -33.7527023 ], [ 115.1506237, -33.7526972 ], [ 115.1506052, -33.7527845 ], [ 115.1506401, -33.7527897 ], [ 115.1506339, -33.7528188 ], [ 115.1506635, -33.7528231 ], [ 115.1506691, -33.7527998 ], [ 115.1509873, -33.7528466 ] ] ], [ [ [ 115.1504439, -33.7530382 ], [ 115.1504577, -33.7529729 ], [ 115.1503532, -33.7529575 ], [ 115.150347, -33.7529866 ], [ 115.1503122, -33.7529815 ], [ 115.1503047, -33.7530172 ], [ 115.1504439, -33.7530382 ] ] ], [ [ [ 115.1498859, -33.7531287 ], [ 115.1498921, -33.7530996 ], [ 115.1498572, -33.7530945 ], [ 115.1498388, -33.7531818 ], [ 115.1498736, -33.753187 ], [ 115.1498675, -33.7532161 ], [ 115.1499372, -33.7532263 ], [ 115.1499495, -33.7531681 ], [ 115.1499146, -33.753163 ], [ 115.1499208, -33.7531339 ], [ 115.1498859, -33.7531287 ] ] ] ] } }
]
}
