{
"type": "FeatureCollection",
"name": "NDVI - SBRKB09 3 zones_Rx",
"features": [
{ "type": "Feature", "properties": { "appName": "Rosa Brook 050425", "rate": 1.0, "rateInt": 1, "unit": "l/ha", "zone": 1 }, "geometry": { "type": "MultiPolygon", "coordinates": [ [ [ [ 115.2153017, -33.9425838 ], [ 115.2153168, -33.9425831 ], [ 115.2153188, -33.9426113 ], [ 115.2153526, -33.9426098 ], [ 115.2153565, -33.9426662 ], [ 115.2153904, -33.9426647 ], [ 115.2153923, -33.9426929 ], [ 115.2153584, -33.9426945 ], [ 115.2153641, -33.9427792 ], [ 115.215398, -33.9427776 ], [ 115.2153999, -33.9428059 ], [ 115.2156371, -33.9427948 ], [ 115.2156391, -33.942823 ], [ 115.2156729, -33.9428214 ], [ 115.2156749, -33.9428497 ], [ 115.2157087, -33.9428481 ], [ 115.2157107, -33.9428763 ], [ 115.2160835, -33.9428588 ], [ 115.2160797, -33.9428023 ], [ 115.2161135, -33.9428007 ], [ 115.2161078, -33.942716 ], [ 115.2160739, -33.9427176 ], [ 115.216072, -33.9426893 ], [ 115.2160381, -33.9426909 ], [ 115.2160362, -33.9426627 ], [ 115.215799, -33.9426738 ], [ 115.2158009, -33.9427021 ], [ 115.2156992, -33.9427068 ], [ 115.2156973, -33.9426786 ], [ 115.2156295, -33.9426818 ], [ 115.2156276, -33.9426535 ], [ 115.2155937, -33.9426551 ], [ 115.2155918, -33.9426269 ], [ 115.215524, -33.94263 ], [ 115.2155221, -33.9426018 ], [ 115.2154882, -33.9426034 ], [ 115.2154844, -33.9425469 ], [ 115.2155183, -33.9425453 ], [ 115.2155164, -33.9425171 ], [ 115.2155842, -33.9425139 ], [ 115.2155727, -33.9423444 ], [ 115.2155388, -33.942346 ], [ 115.2155369, -33.9423177 ], [ 115.215503, -33.9423193 ], [ 115.2155011, -33.9422911 ], [ 115.2154333, -33.9422943 ], [ 115.2154352, -33.9423225 ], [ 115.2154013, -33.9423241 ], [ 115.2154052, -33.9423806 ], [ 115.2154391, -33.942379 ], [ 115.215441, -33.9424073 ], [ 115.2154749, -33.9424057 ], [ 115.2154787, -33.9424622 ], [ 115.2154448, -33.9424637 ], [ 115.2154467, -33.942492 ], [ 115.2154128, -33.9424936 ], [ 115.2154147, -33.9425218 ], [ 115.2153469, -33.942525 ], [ 115.2153488, -33.9425533 ], [ 115.2153149, -33.9425549 ], [ 115.215313, -33.9425266 ], [ 115.2153078, -33.9425268 ], [ 115.2153017, -33.9425838 ] ] ], [ [ [ 115.215478, -33.942955 ], [ 115.2154734, -33.9428875 ], [ 115.2154056, -33.9428906 ], [ 115.2154094, -33.9429471 ], [ 115.2153756, -33.9429487 ], [ 115.2153763, -33.9429603 ], [ 115.215478, -33.942955 ] ] ], [ [ [ 115.2152621, -33.942954 ], [ 115.2152608, -33.9429663 ], [ 115.2152747, -33.9429655 ], [ 115.2152739, -33.9429535 ], [ 115.2152621, -33.942954 ] ] ] ] } },
{ "type": "Feature", "properties": { "appName": "Rosa Brook 050425", "rate": 2.0, "rateInt": 2, "unit": "l/ha", "zone": 2 }, "geometry": { "type": "MultiPolygon", "coordinates": [ [ [ [ 115.2152651, -33.9429256 ], [ 115.215272, -33.9429252 ], [ 115.2152747, -33.9429655 ], [ 115.2153763, -33.9429603 ], [ 115.2153756, -33.9429487 ], [ 115.2154094, -33.9429471 ], [ 115.2154056, -33.9428906 ], [ 115.2154734, -33.9428875 ], [ 115.215478, -33.942955 ], [ 115.2160539, -33.942925 ], [ 115.2160534, -33.9429169 ], [ 115.2160873, -33.9429153 ], [ 115.2160878, -33.9429232 ], [ 115.2161217, -33.9429215 ], [ 115.2161212, -33.9429137 ], [ 115.216189, -33.9429105 ], [ 115.2161852, -33.942854 ], [ 115.2162529, -33.9428509 ], [ 115.216251, -33.9428226 ], [ 115.2162614, -33.9428221 ], [ 115.2162754, -33.9426803 ], [ 115.2162735, -33.9426515 ], [ 115.2162783, -33.9426513 ], [ 115.2162811, -33.9426228 ], [ 115.2161699, -33.9426281 ], [ 115.216168, -33.9425998 ], [ 115.2161341, -33.9426014 ], [ 115.2161303, -33.9425449 ], [ 115.2160964, -33.9425465 ], [ 115.2160945, -33.9425183 ], [ 115.2159589, -33.9425246 ], [ 115.215957, -33.9424964 ], [ 115.2159231, -33.942498 ], [ 115.2159212, -33.9424697 ], [ 115.2158873, -33.9424713 ], [ 115.2158892, -33.9424996 ], [ 115.2158214, -33.9425027 ], [ 115.2158233, -33.942531 ], [ 115.2157894, -33.9425326 ], [ 115.2157875, -33.9425043 ], [ 115.2157536, -33.9425059 ], [ 115.2157498, -33.9424494 ], [ 115.2157159, -33.942451 ], [ 115.2157083, -33.942338 ], [ 115.2156744, -33.9423396 ], [ 115.215661, -33.9421419 ], [ 115.2155932, -33.9421451 ], [ 115.2155916, -33.9421203 ], [ 115.2153502, -33.9421312 ], [ 115.215311, -33.942497 ], [ 115.2153111, -33.9424984 ], [ 115.2153109, -33.9424984 ], [ 115.2153078, -33.9425268 ], [ 115.215313, -33.9425266 ], [ 115.2153149, -33.9425549 ], [ 115.2153488, -33.9425533 ], [ 115.2153469, -33.942525 ], [ 115.2154147, -33.9425218 ], [ 115.2154128, -33.9424936 ], [ 115.2154467, -33.942492 ], [ 115.2154448, -33.9424637 ], [ 115.2154787, -33.9424622 ], [ 115.2154749, -33.9424057 ], [ 115.215441, -33.9424073 ], [ 115.2154391, -33.942379 ], [ 115.2154052, -33.9423806 ], [ 115.2154013, -33.9423241 ], [ 115.2154352, -33.9423225 ], [ 115.2154333, -33.9422943 ], [ 115.2155011, -33.9422911 ], [ 115.215503, -33.9423193 ], [ 115.2155369, -33.9423177 ], [ 115.2155388, -33.942346 ], [ 115.2155727, -33.9423444 ], [ 115.2155842, -33.9425139 ], [ 115.2155164, -33.9425171 ], [ 115.2155183, -33.9425453 ], [ 115.2154844, -33.9425469 ], [ 115.2154882, -33.9426034 ], [ 115.2155221, -33.9426018 ], [ 115.215524, -33.94263 ], [ 115.2155918, -33.9426269 ], [ 115.2155937, -33.9426551 ], [ 115.2156276, -33.9426535 ], [ 115.2156295, -33.9426818 ], [ 115.2156973, -33.9426786 ], [ 115.2156992, -33.9427068 ], [ 115.2158009, -33.9427021 ], [ 115.215799, -33.9426738 ], [ 115.2160362, -33.9426627 ], [ 115.2160381, -33.9426909 ], [ 115.216072, -33.9426893 ], [ 115.2160739, -33.9427176 ], [ 115.2161078, -33.942716 ], [ 115.2161135, -33.9428007 ], [ 115.2160797, -33.9428023 ], [ 115.2160835, -33.9428588 ], [ 115.2157107, -33.9428763 ], [ 115.2157087, -33.9428481 ], [ 115.2156749, -33.9428497 ], [ 115.2156729, -33.9428214 ], [ 115.2156391, -33.942823 ], [ 115.2156371, -33.9427948 ], [ 115.2153999, -33.9428059 ], [ 115.215398, -33.9427776 ], [ 115.2153641, -33.9427792 ], [ 115.2153584, -33.9426945 ], [ 115.2153923, -33.9426929 ], [ 115.2153904, -33.9426647 ], [ 115.2153565, -33.9426662 ], [ 115.2153526, -33.9426098 ], [ 115.2153188, -33.9426113 ], [ 115.2153168, -33.9425831 ], [ 115.2153017, -33.9425838 ], [ 115.2152902, -33.9426916 ], [ 115.2152925, -33.9427259 ], [ 115.2152865, -33.9427262 ], [ 115.2152693, -33.9428862 ], [ 115.2152701, -33.942897 ], [ 115.2152682, -33.9428971 ], [ 115.2152651, -33.9429256 ] ] ], [ [ [ 115.215999, -33.9421113 ], [ 115.2159851, -33.9421025 ], [ 115.2159644, -33.9421034 ], [ 115.215968, -33.9421558 ], [ 115.2160019, -33.9421542 ], [ 115.2160038, -33.9421825 ], [ 115.2160377, -33.9421809 ], [ 115.2160396, -33.9422091 ], [ 115.2162429, -33.9421996 ], [ 115.2162425, -33.9421927 ], [ 115.2162121, -33.9421936 ], [ 115.2162109, -33.9421728 ], [ 115.2162071, -33.9421729 ], [ 115.2162064, -33.9421618 ], [ 115.2160396, -33.9421639 ], [ 115.2160381, -33.942136 ], [ 115.2160207, -33.942125 ], [ 115.2159999, -33.942126 ], [ 115.215999, -33.9421113 ] ] ], [ [ [ 115.2163123, -33.9422205 ], [ 115.2162647, -33.9422236 ], [ 115.2162628, -33.9421987 ], [ 115.2162429, -33.9421996 ], [ 115.2162448, -33.9422278 ], [ 115.2163126, -33.9422246 ], [ 115.2163123, -33.9422205 ] ] ], [ [ [ 115.2159436, -33.9422986 ], [ 115.2159398, -33.9422421 ], [ 115.215872, -33.9422453 ], [ 115.2158758, -33.9423018 ], [ 115.2159436, -33.9422986 ] ] ], [ [ [ 115.2160529, -33.9424069 ], [ 115.2160567, -33.9424634 ], [ 115.2161584, -33.9424586 ], [ 115.2161508, -33.9423456 ], [ 115.216083, -33.9423488 ], [ 115.2160868, -33.9424053 ], [ 115.2160529, -33.9424069 ] ] ], [ [ [ 115.2162867, -33.9425659 ], [ 115.2162952, -33.9424805 ], [ 115.216262, -33.9424821 ], [ 115.2162677, -33.9425668 ], [ 115.2162867, -33.9425659 ] ] ] ] } },
{ "type": "Feature", "properties": { "appName": "Rosa Brook 050425", "rate": 3.0, "rateInt": 3, "unit": "l/ha", "zone": 3 }, "geometry": { "type": "MultiPolygon", "coordinates": [ [ [ [ 115.2155916, -33.9421203 ], [ 115.2155932, -33.9421451 ], [ 115.215661, -33.9421419 ], [ 115.2156744, -33.9423396 ], [ 115.2157083, -33.942338 ], [ 115.2157159, -33.942451 ], [ 115.2157498, -33.9424494 ], [ 115.2157536, -33.9425059 ], [ 115.2157875, -33.9425043 ], [ 115.2157894, -33.9425326 ], [ 115.2158233, -33.942531 ], [ 115.2158214, -33.9425027 ], [ 115.2158892, -33.9424996 ], [ 115.2158873, -33.9424713 ], [ 115.2159212, -33.9424697 ], [ 115.2159231, -33.942498 ], [ 115.215957, -33.9424964 ], [ 115.2159589, -33.9425246 ], [ 115.2160945, -33.9425183 ], [ 115.2160964, -33.9425465 ], [ 115.2161303, -33.9425449 ], [ 115.2161341, -33.9426014 ], [ 115.216168, -33.9425998 ], [ 115.2161699, -33.9426281 ], [ 115.2162716, -33.9426233 ], [ 115.216262, -33.9424821 ], [ 115.2162952, -33.9424805 ], [ 115.2162956, -33.942476 ], [ 115.2162864, -33.9423392 ], [ 115.2163092, -33.9423382 ], [ 115.2163158, -33.9422718 ], [ 115.2163126, -33.9422246 ], [ 115.2162448, -33.9422278 ], [ 115.2162429, -33.9421996 ], [ 115.2160396, -33.9422091 ], [ 115.2160377, -33.9421809 ], [ 115.2160038, -33.9421825 ], [ 115.2160019, -33.9421542 ], [ 115.215968, -33.9421558 ], [ 115.2159644, -33.9421034 ], [ 115.2155916, -33.9421203 ] ], [ [ 115.2160567, -33.9424634 ], [ 115.2160529, -33.9424069 ], [ 115.2160868, -33.9424053 ], [ 115.216083, -33.9423488 ], [ 115.2161508, -33.9423456 ], [ 115.2161584, -33.9424586 ], [ 115.2160567, -33.9424634 ] ], [ [ 115.2158758, -33.9423018 ], [ 115.215872, -33.9422453 ], [ 115.2159398, -33.9422421 ], [ 115.2159436, -33.9422986 ], [ 115.2158758, -33.9423018 ] ] ], [ [ [ 115.2162552, -33.9428846 ], [ 115.2162529, -33.9428509 ], [ 115.2161852, -33.942854 ], [ 115.216189, -33.9429105 ], [ 115.2162529, -33.9429075 ], [ 115.2162552, -33.9428846 ] ] ] ] } }
]
}
