{
"type": "FeatureCollection",
"name": "NDVI - SBRKB09 3 zones_Boundary",
"features": [
{ "type": "Feature", "properties": { "name": "Rosa Brook 050425" }, "geometry": { "type": "Polygon", "coordinates": [ [ [ 115.2153502, -33.9421312 ], [ 115.2152608, -33.9429663 ], [ 115.2162522, -33.9429147 ], [ 115.2163209, -33.9422199 ], [ 115.2162647, -33.9422236 ], [ 115.2162623, -33.9421921 ], [ 115.2162121, -33.9421936 ], [ 115.2162102, -33.9421617 ], [ 115.2160396, -33.9421639 ], [ 115.2160381, -33.942136 ], [ 115.2159851, -33.9421025 ], [ 115.2153502, -33.9421312 ] ] ] } }
]
}
