{
"type": "FeatureCollection",
"name": "NDVI - Block H 3 zones_Rx",
"features": [
{ "type": "Feature", "properties": { "appName": "Island Brook 080125", "rate": 1.0, "rateInt": 1, "unit": "l/ha", "zone": 1 }, "geometry": { "type": "MultiPolygon", "coordinates": [ [ [ [ 115.1523282, -33.7505449 ], [ 115.1523462, -33.7505521 ], [ 115.1523601, -33.7505277 ], [ 115.1523894, -33.7505393 ], [ 115.1524048, -33.7505124 ], [ 115.1523753, -33.7505012 ], [ 115.1523741, -33.7505033 ], [ 115.1523566, -33.7504962 ], [ 115.1523282, -33.7505449 ] ] ], [ [ [ 115.1525916, -33.75086 ], [ 115.1527252, -33.7506286 ], [ 115.1526123, -33.7505887 ], [ 115.1526078, -33.7505966 ], [ 115.152637, -33.7506083 ], [ 115.1526091, -33.7506571 ], [ 115.1525799, -33.7506454 ], [ 115.1525659, -33.7506698 ], [ 115.1525367, -33.7506581 ], [ 115.1524808, -33.7507558 ], [ 115.1525977, -33.7508024 ], [ 115.1525697, -33.7508512 ], [ 115.1525916, -33.75086 ] ] ], [ [ [ 115.1525353, -33.7509574 ], [ 115.1524846, -33.7509372 ], [ 115.1524707, -33.7509616 ], [ 115.1524122, -33.7509382 ], [ 115.1523983, -33.7509626 ], [ 115.1523691, -33.750951 ], [ 115.1522713, -33.7511218 ], [ 115.1523005, -33.7511334 ], [ 115.1522167, -33.7512799 ], [ 115.1521875, -33.7512682 ], [ 115.1521595, -33.751317 ], [ 115.1521303, -33.7513053 ], [ 115.1520465, -33.7514517 ], [ 115.1520757, -33.7514634 ], [ 115.1520059, -33.7515854 ], [ 115.1519767, -33.7515737 ], [ 115.1518928, -33.7517201 ], [ 115.1519221, -33.7517318 ], [ 115.1518941, -33.7517806 ], [ 115.1520288, -33.7518344 ], [ 115.1521132, -33.7516883 ], [ 115.1520948, -33.7516809 ], [ 115.1521087, -33.7516565 ], [ 115.1521273, -33.7516639 ], [ 115.1525353, -33.7509574 ] ] ] ] } },
{ "type": "Feature", "properties": { "appName": "Island Brook 080125", "rate": 2.0, "rateInt": 2, "unit": "l/ha", "zone": 2 }, "geometry": { "type": "MultiPolygon", "coordinates": [ [ [ [ 115.1520288, -33.7518344 ], [ 115.1518941, -33.7517806 ], [ 115.1519221, -33.7517318 ], [ 115.1518928, -33.7517201 ], [ 115.1519767, -33.7515737 ], [ 115.1520059, -33.7515854 ], [ 115.1520757, -33.7514634 ], [ 115.1520465, -33.7514517 ], [ 115.1521303, -33.7513053 ], [ 115.1521595, -33.751317 ], [ 115.1521875, -33.7512682 ], [ 115.1522167, -33.7512799 ], [ 115.1523005, -33.7511334 ], [ 115.1522713, -33.7511218 ], [ 115.1523691, -33.750951 ], [ 115.1523983, -33.7509626 ], [ 115.1524122, -33.7509382 ], [ 115.1524707, -33.7509616 ], [ 115.1524846, -33.7509372 ], [ 115.1525353, -33.7509574 ], [ 115.1525916, -33.75086 ], [ 115.1525697, -33.7508512 ], [ 115.1525977, -33.7508024 ], [ 115.1524808, -33.7507558 ], [ 115.1525367, -33.7506581 ], [ 115.1525659, -33.7506698 ], [ 115.1525799, -33.7506454 ], [ 115.1526091, -33.7506571 ], [ 115.152637, -33.7506083 ], [ 115.1526078, -33.7505966 ], [ 115.1526123, -33.7505887 ], [ 115.1525015, -33.7505494 ], [ 115.1521748, -33.7511132 ], [ 115.1521989, -33.7511228 ], [ 115.152157, -33.751196 ], [ 115.1521325, -33.7511863 ], [ 115.1517234, -33.7518923 ], [ 115.1517519, -33.7519037 ], [ 115.1517379, -33.7519281 ], [ 115.1517671, -33.7519398 ], [ 115.1517252, -33.752013 ], [ 115.151696, -33.7520013 ], [ 115.1516894, -33.7520128 ], [ 115.1518817, -33.7520892 ], [ 115.1519022, -33.7520537 ], [ 115.1518852, -33.7520469 ], [ 115.1518992, -33.7520225 ], [ 115.15187, -33.7520108 ], [ 115.1518979, -33.751962 ], [ 115.1519444, -33.7519806 ], [ 115.1520288, -33.7518344 ] ] ], [ [ [ 115.1517176, -33.75189 ], [ 115.1517739, -33.7517926 ], [ 115.1517493, -33.7517827 ], [ 115.1517354, -33.7518072 ], [ 115.1517061, -33.7517955 ], [ 115.1516782, -33.7518443 ], [ 115.1517074, -33.751856 ], [ 115.1516935, -33.7518804 ], [ 115.1517176, -33.75189 ] ] ], [ [ [ 115.1519992, -33.7514028 ], [ 115.1520837, -33.7512567 ], [ 115.1520566, -33.7512459 ], [ 115.1519728, -33.7513923 ], [ 115.1519992, -33.7514028 ] ] ], [ [ [ 115.1521963, -33.7510619 ], [ 115.1524944, -33.7505462 ], [ 115.1524048, -33.7505124 ], [ 115.1523894, -33.7505393 ], [ 115.1523601, -33.7505277 ], [ 115.1523462, -33.7505521 ], [ 115.1523282, -33.7505449 ], [ 115.1522432, -33.7506908 ], [ 115.1522624, -33.7506985 ], [ 115.1522205, -33.7507717 ], [ 115.1522006, -33.7507638 ], [ 115.1521723, -33.7508124 ], [ 115.1521925, -33.7508205 ], [ 115.1521785, -33.7508449 ], [ 115.1522078, -33.7508566 ], [ 115.1521938, -33.750881 ], [ 115.152223, -33.7508926 ], [ 115.1521951, -33.7509414 ], [ 115.1522243, -33.7509531 ], [ 115.1521684, -33.7510507 ], [ 115.1521963, -33.7510619 ] ] ], [ [ [ 115.1521132, -33.7516883 ], [ 115.1521273, -33.7516639 ], [ 115.1521087, -33.7516565 ], [ 115.1520948, -33.7516809 ], [ 115.1521132, -33.7516883 ] ] ], [ [ [ 115.1516018, -33.7519777 ], [ 115.1516084, -33.7519663 ], [ 115.1515207, -33.7519313 ], [ 115.1515145, -33.7519421 ], [ 115.1516018, -33.7519777 ] ] ] ] } },
{ "type": "Feature", "properties": { "appName": "Island Brook 080125", "rate": 3.0, "rateInt": 3, "unit": "l/ha", "zone": 3 }, "geometry": { "type": "MultiPolygon", "coordinates": [ [ [ [ 115.1522006, -33.7507638 ], [ 115.1522205, -33.7507717 ], [ 115.1522624, -33.7506985 ], [ 115.1522432, -33.7506908 ], [ 115.1522006, -33.7507638 ] ] ], [ [ [ 115.1521723, -33.7508124 ], [ 115.1515558, -33.7518699 ], [ 115.1515207, -33.7519313 ], [ 115.1516084, -33.7519663 ], [ 115.1516018, -33.7519777 ], [ 115.1516544, -33.7519992 ], [ 115.1517176, -33.75189 ], [ 115.1516935, -33.7518804 ], [ 115.1517074, -33.751856 ], [ 115.1516782, -33.7518443 ], [ 115.1517061, -33.7517955 ], [ 115.1517354, -33.7518072 ], [ 115.1517493, -33.7517827 ], [ 115.1517739, -33.7517926 ], [ 115.1519992, -33.7514028 ], [ 115.1519728, -33.7513923 ], [ 115.1520566, -33.7512459 ], [ 115.1520837, -33.7512567 ], [ 115.1521963, -33.7510619 ], [ 115.1521684, -33.7510507 ], [ 115.1522243, -33.7509531 ], [ 115.1521951, -33.7509414 ], [ 115.152223, -33.7508926 ], [ 115.1521938, -33.750881 ], [ 115.1522078, -33.7508566 ], [ 115.1521785, -33.7508449 ], [ 115.1521925, -33.7508205 ], [ 115.1521723, -33.7508124 ] ] ], [ [ [ 115.1521748, -33.7511132 ], [ 115.1521325, -33.7511863 ], [ 115.152157, -33.751196 ], [ 115.1521989, -33.7511228 ], [ 115.1521748, -33.7511132 ] ] ], [ [ [ 115.1517234, -33.7518923 ], [ 115.1516603, -33.7520013 ], [ 115.1516894, -33.7520128 ], [ 115.151696, -33.7520013 ], [ 115.1517252, -33.752013 ], [ 115.1517671, -33.7519398 ], [ 115.1517379, -33.7519281 ], [ 115.1517519, -33.7519037 ], [ 115.1517234, -33.7518923 ] ] ], [ [ [ 115.1519022, -33.7520537 ], [ 115.1519444, -33.7519806 ], [ 115.1518979, -33.751962 ], [ 115.15187, -33.7520108 ], [ 115.1518992, -33.7520225 ], [ 115.1518852, -33.7520469 ], [ 115.1519022, -33.7520537 ] ] ] ] } }
]
}
