{
"type": "FeatureCollection",
"name": "NDVI - Block H 3 zones_Boundary",
"features": [
{ "type": "Feature", "properties": { "name": "Island Brook 080125" }, "geometry": { "type": "MultiPolygon", "coordinates": [ [ [ [ 115.1516544, -33.7519992 ], [ 115.1524944, -33.7505462 ], [ 115.1523576, -33.7504945 ], [ 115.1515139, -33.7519418 ], [ 115.1516544, -33.7519992 ] ] ], [ [ [ 115.1516603, -33.7520013 ], [ 115.1518817, -33.7520892 ], [ 115.1527252, -33.7506286 ], [ 115.1525015, -33.7505494 ], [ 115.1516603, -33.7520013 ] ] ] ] } }
]
}
