{
"type": "FeatureCollection",
"name": "NDVI - CSRBK02 3 zones_Boundary",
"features": [
{ "type": "Feature", "properties": { "name": "Rosa Brook 050425" }, "geometry": { "type": "Polygon", "coordinates": [ [ [ 115.2134419, -33.9422256 ], [ 115.2134486, -33.9427784 ], [ 115.2134637, -33.9428201 ], [ 115.2135089, -33.9428951 ], [ 115.2135742, -33.9429271 ], [ 115.2137643, -33.9429479 ], [ 115.214434, -33.9429951 ], [ 115.2152026, -33.9429521 ], [ 115.2152888, -33.9421283 ], [ 115.2134419, -33.9422256 ] ] ] } }
]
}
