{
"type": "FeatureCollection",
"name": "NDVI - CSRBK02 3 zones_Rx",
"features": [
{ "type": "Feature", "properties": { "appName": "Rosa Brook 050425", "rate": 1.0, "rateInt": 1, "unit": "l/ha", "zone": 1 }, "geometry": { "type": "MultiPolygon", "coordinates": [ [ [ [ 115.2140946, -33.9423039 ], [ 115.2139564, -33.9423108 ], [ 115.2139585, -33.9423396 ], [ 115.2139239, -33.9423413 ], [ 115.213926, -33.9423701 ], [ 115.2138914, -33.9423718 ], [ 115.2138955, -33.9424294 ], [ 115.21393, -33.9424277 ], [ 115.2139362, -33.9425141 ], [ 115.2140399, -33.9425089 ], [ 115.2140419, -33.9425377 ], [ 115.214111, -33.9425343 ], [ 115.2141131, -33.9425631 ], [ 115.2141476, -33.9425614 ], [ 115.2141497, -33.9425902 ], [ 115.214357, -33.94258 ], [ 115.2143591, -33.9426088 ], [ 115.2145664, -33.9425985 ], [ 115.2145643, -33.9425697 ], [ 115.2147026, -33.9425629 ], [ 115.2147046, -33.9425917 ], [ 115.2147392, -33.94259 ], [ 115.2147412, -33.9426188 ], [ 115.2147758, -33.9426171 ], [ 115.2147799, -33.9426747 ], [ 115.214849, -33.9426713 ], [ 115.214851, -33.9427001 ], [ 115.2148856, -33.9426984 ], [ 115.2148876, -33.9427272 ], [ 115.2149222, -33.9427255 ], [ 115.2149242, -33.9427543 ], [ 115.2149588, -33.9427526 ], [ 115.2149609, -33.9427814 ], [ 115.2150645, -33.9427762 ], [ 115.2150625, -33.9427474 ], [ 115.215097, -33.9427457 ], [ 115.2150868, -33.9426017 ], [ 115.2150522, -33.9426034 ], [ 115.2150399, -33.9424306 ], [ 115.2149363, -33.9424357 ], [ 115.2149383, -33.9424645 ], [ 115.2146964, -33.9424765 ], [ 115.2146944, -33.9424477 ], [ 115.2145562, -33.9424545 ], [ 115.2145541, -33.9424257 ], [ 115.2145195, -33.9424274 ], [ 115.2145134, -33.942341 ], [ 115.2143752, -33.9423479 ], [ 115.2143813, -33.9424343 ], [ 115.2143468, -33.942436 ], [ 115.2143488, -33.9424648 ], [ 115.2142797, -33.9424682 ], [ 115.2142818, -33.942497 ], [ 115.2142472, -33.9424987 ], [ 115.2142411, -33.9424123 ], [ 115.2142756, -33.9424106 ], [ 115.2142715, -33.942353 ], [ 115.2141333, -33.9423598 ], [ 115.2141312, -33.942331 ], [ 115.2140967, -33.9423327 ], [ 115.2140946, -33.9423039 ] ] ], [ [ [ 115.2152517, -33.9424829 ], [ 115.2152522, -33.9424779 ], [ 115.2152514, -33.942478 ], [ 115.2152517, -33.9424829 ] ] ], [ [ [ 115.213724, -33.9429435 ], [ 115.2137127, -33.9427852 ], [ 115.2136782, -33.9427869 ], [ 115.2136761, -33.9427581 ], [ 115.2136416, -33.9427598 ], [ 115.2136477, -33.9428462 ], [ 115.2136132, -33.9428479 ], [ 115.2136152, -33.9428767 ], [ 115.2136498, -33.942875 ], [ 115.2136541, -33.9429358 ], [ 115.213724, -33.9429435 ] ] ] ] } },
{ "type": "Feature", "properties": { "appName": "Rosa Brook 050425", "rate": 2.0, "rateInt": 2, "unit": "l/ha", "zone": 2 }, "geometry": { "type": "Polygon", "coordinates": [ [ [ 115.2152735, -33.9422746 ], [ 115.2152888, -33.9421283 ], [ 115.2152267, -33.9421316 ], [ 115.2152391, -33.9423052 ], [ 115.2152045, -33.9423069 ], [ 115.2152066, -33.9423357 ], [ 115.2150683, -33.9423425 ], [ 115.2150642, -33.9422849 ], [ 115.2150297, -33.9422866 ], [ 115.2150256, -33.942229 ], [ 115.214991, -33.9422307 ], [ 115.214989, -33.9422019 ], [ 115.2148162, -33.9422105 ], [ 115.2148183, -33.9422393 ], [ 115.2147146, -33.9422444 ], [ 115.2147125, -33.9422156 ], [ 115.2144361, -33.9422292 ], [ 115.214434, -33.9422004 ], [ 115.2143995, -33.9422022 ], [ 115.2143976, -33.9421753 ], [ 115.2134419, -33.9422256 ], [ 115.2134429, -33.9423072 ], [ 115.2135397, -33.9423024 ], [ 115.2135417, -33.9423312 ], [ 115.2136109, -33.9423278 ], [ 115.2136129, -33.9423566 ], [ 115.2136475, -33.9423549 ], [ 115.2136556, -33.9424701 ], [ 115.2135865, -33.9424735 ], [ 115.2135886, -33.9425023 ], [ 115.213554, -33.942504 ], [ 115.2135581, -33.9425616 ], [ 115.213489, -33.9425651 ], [ 115.2134829, -33.9424787 ], [ 115.2134483, -33.9424804 ], [ 115.2134443, -33.9424244 ], [ 115.2134475, -33.9426827 ], [ 115.2134627, -33.942682 ], [ 115.2134647, -33.9427108 ], [ 115.2134478, -33.9427116 ], [ 115.2134486, -33.9427784 ], [ 115.2134557, -33.9427979 ], [ 115.2134708, -33.9427972 ], [ 115.2134737, -33.9428366 ], [ 115.2135089, -33.9428951 ], [ 115.2135382, -33.9429094 ], [ 115.2135481, -33.942909 ], [ 115.2135485, -33.9429145 ], [ 115.2135742, -33.9429271 ], [ 115.2136541, -33.9429358 ], [ 115.2136498, -33.942875 ], [ 115.2136152, -33.9428767 ], [ 115.2136132, -33.9428479 ], [ 115.2136477, -33.9428462 ], [ 115.2136416, -33.9427598 ], [ 115.2136761, -33.9427581 ], [ 115.2136782, -33.9427869 ], [ 115.2137127, -33.9427852 ], [ 115.213724, -33.9429435 ], [ 115.2137643, -33.9429479 ], [ 115.2140029, -33.9429647 ], [ 115.2140015, -33.9429444 ], [ 115.2139324, -33.9429478 ], [ 115.2139303, -33.942919 ], [ 115.2138612, -33.9429224 ], [ 115.2138592, -33.9428936 ], [ 115.2138246, -33.9428953 ], [ 115.2138164, -33.9427801 ], [ 115.2139201, -33.942775 ], [ 115.2139221, -33.9428038 ], [ 115.2140949, -33.9427952 ], [ 115.214097, -33.942824 ], [ 115.2141315, -33.9428223 ], [ 115.2141336, -33.9428511 ], [ 115.2141681, -33.9428494 ], [ 115.2141661, -33.9428206 ], [ 115.2142006, -33.9428189 ], [ 115.2141986, -33.9427901 ], [ 115.2144059, -33.9427799 ], [ 115.2144039, -33.9427511 ], [ 115.214473, -33.9427477 ], [ 115.2144709, -33.9427189 ], [ 115.2145055, -33.9427171 ], [ 115.2145075, -33.9427459 ], [ 115.2145421, -33.9427442 ], [ 115.2145441, -33.942773 ], [ 115.2145096, -33.9427747 ], [ 115.2145116, -33.9428035 ], [ 115.2144425, -33.942807 ], [ 115.2144446, -33.9428358 ], [ 115.21441, -33.9428375 ], [ 115.2144141, -33.9428951 ], [ 115.2143795, -33.9428968 ], [ 115.2143816, -33.9429256 ], [ 115.2141397, -33.9429375 ], [ 115.2141417, -33.9429663 ], [ 115.2142109, -33.9429629 ], [ 115.214212, -33.9429795 ], [ 115.2143144, -33.9429867 ], [ 115.2143511, -33.9429849 ], [ 115.2143514, -33.9429893 ], [ 115.214434, -33.9429951 ], [ 115.2150775, -33.9429591 ], [ 115.2150768, -33.942949 ], [ 115.2152036, -33.9429428 ], [ 115.2152104, -33.9428774 ], [ 115.2152068, -33.942827 ], [ 115.2152157, -33.9428266 ], [ 115.2152188, -33.9427975 ], [ 115.2152048, -33.9427982 ], [ 115.2152027, -33.9427694 ], [ 115.2152218, -33.9427685 ], [ 115.2152311, -33.9426802 ], [ 115.2152291, -33.9426525 ], [ 115.215234, -33.9426522 ], [ 115.2152517, -33.9424829 ], [ 115.2152493, -33.9424492 ], [ 115.2152553, -33.9424489 ], [ 115.2152724, -33.9422857 ], [ 115.2152716, -33.9422747 ], [ 115.2152735, -33.9422746 ] ], [ [ 115.2145562, -33.9424545 ], [ 115.2146944, -33.9424477 ], [ 115.2146964, -33.9424765 ], [ 115.2149383, -33.9424645 ], [ 115.2149363, -33.9424357 ], [ 115.2150399, -33.9424306 ], [ 115.2150522, -33.9426034 ], [ 115.2150868, -33.9426017 ], [ 115.215097, -33.9427457 ], [ 115.2150625, -33.9427474 ], [ 115.2150645, -33.9427762 ], [ 115.2149609, -33.9427814 ], [ 115.2149588, -33.9427526 ], [ 115.2149242, -33.9427543 ], [ 115.2149222, -33.9427255 ], [ 115.2148876, -33.9427272 ], [ 115.2148856, -33.9426984 ], [ 115.214851, -33.9427001 ], [ 115.214849, -33.9426713 ], [ 115.2147799, -33.9426747 ], [ 115.2147758, -33.9426171 ], [ 115.2147412, -33.9426188 ], [ 115.2147392, -33.94259 ], [ 115.2147046, -33.9425917 ], [ 115.2147026, -33.9425629 ], [ 115.2145643, -33.9425697 ], [ 115.2145664, -33.9425985 ], [ 115.2143591, -33.9426088 ], [ 115.214357, -33.94258 ], [ 115.2141497, -33.9425902 ], [ 115.2141476, -33.9425614 ], [ 115.2141131, -33.9425631 ], [ 115.214111, -33.9425343 ], [ 115.2140419, -33.9425377 ], [ 115.2140399, -33.9425089 ], [ 115.2139362, -33.9425141 ], [ 115.21393, -33.9424277 ], [ 115.2138955, -33.9424294 ], [ 115.2138914, -33.9423718 ], [ 115.213926, -33.9423701 ], [ 115.2139239, -33.9423413 ], [ 115.2139585, -33.9423396 ], [ 115.2139564, -33.9423108 ], [ 115.2140946, -33.9423039 ], [ 115.2140967, -33.9423327 ], [ 115.2141312, -33.942331 ], [ 115.2141333, -33.9423598 ], [ 115.2142715, -33.942353 ], [ 115.2142756, -33.9424106 ], [ 115.2142411, -33.9424123 ], [ 115.2142472, -33.9424987 ], [ 115.2142818, -33.942497 ], [ 115.2142797, -33.9424682 ], [ 115.2143488, -33.9424648 ], [ 115.2143468, -33.942436 ], [ 115.2143813, -33.9424343 ], [ 115.2143752, -33.9423479 ], [ 115.2145134, -33.942341 ], [ 115.2145195, -33.9424274 ], [ 115.2145541, -33.9424257 ], [ 115.2145562, -33.9424545 ] ], [ [ 115.2137857, -33.9423481 ], [ 115.2137511, -33.9423498 ], [ 115.2137491, -33.942321 ], [ 115.2137836, -33.9423193 ], [ 115.2137857, -33.9423481 ] ], [ [ 115.2141213, -33.9426783 ], [ 115.2141274, -33.9427647 ], [ 115.2140929, -33.9427664 ], [ 115.2140888, -33.9427088 ], [ 115.2140542, -33.9427105 ], [ 115.2140522, -33.9426817 ], [ 115.2141213, -33.9426783 ] ], [ [ 115.213981, -33.9426564 ], [ 115.2139119, -33.9426598 ], [ 115.2139098, -33.942631 ], [ 115.2139789, -33.9426276 ], [ 115.213981, -33.9426564 ] ], [ [ 115.2134708, -33.9427972 ], [ 115.2134667, -33.9427396 ], [ 115.2135359, -33.9427362 ], [ 115.2135379, -33.942765 ], [ 115.2135034, -33.9427667 ], [ 115.2135054, -33.9427955 ], [ 115.2134708, -33.9427972 ] ] ] } },
{ "type": "Feature", "properties": { "appName": "Rosa Brook 050425", "rate": 3.0, "rateInt": 3, "unit": "l/ha", "zone": 3 }, "geometry": { "type": "MultiPolygon", "coordinates": [ [ [ [ 115.2143976, -33.9421753 ], [ 115.2143995, -33.9422022 ], [ 115.214434, -33.9422004 ], [ 115.2144361, -33.9422292 ], [ 115.2147125, -33.9422156 ], [ 115.2147146, -33.9422444 ], [ 115.2148183, -33.9422393 ], [ 115.2148162, -33.9422105 ], [ 115.214989, -33.9422019 ], [ 115.214991, -33.9422307 ], [ 115.2150256, -33.942229 ], [ 115.2150297, -33.9422866 ], [ 115.2150642, -33.9422849 ], [ 115.2150683, -33.9423425 ], [ 115.2152066, -33.9423357 ], [ 115.2152045, -33.9423069 ], [ 115.2152391, -33.9423052 ], [ 115.2152268, -33.9421324 ], [ 115.214987, -33.9421442 ], [ 115.2143976, -33.9421753 ] ] ], [ [ [ 115.2134443, -33.9424244 ], [ 115.2134483, -33.9424804 ], [ 115.2134829, -33.9424787 ], [ 115.213489, -33.9425651 ], [ 115.2135581, -33.9425616 ], [ 115.213554, -33.942504 ], [ 115.2135886, -33.9425023 ], [ 115.2135865, -33.9424735 ], [ 115.2136556, -33.9424701 ], [ 115.2136475, -33.9423549 ], [ 115.2136129, -33.9423566 ], [ 115.2136109, -33.9423278 ], [ 115.2135417, -33.9423312 ], [ 115.2135397, -33.9423024 ], [ 115.2134429, -33.9423072 ], [ 115.2134443, -33.9424244 ] ] ], [ [ [ 115.2137857, -33.9423481 ], [ 115.2137836, -33.9423193 ], [ 115.2137491, -33.942321 ], [ 115.2137511, -33.9423498 ], [ 115.2137857, -33.9423481 ] ] ], [ [ [ 115.2139789, -33.9426276 ], [ 115.2139098, -33.942631 ], [ 115.2139119, -33.9426598 ], [ 115.213981, -33.9426564 ], [ 115.2139789, -33.9426276 ] ] ], [ [ [ 115.2141213, -33.9426783 ], [ 115.2140522, -33.9426817 ], [ 115.2140542, -33.9427105 ], [ 115.2140888, -33.9427088 ], [ 115.2140929, -33.9427664 ], [ 115.2141274, -33.9427647 ], [ 115.2141213, -33.9426783 ] ] ], [ [ [ 115.2135379, -33.942765 ], [ 115.2135359, -33.9427362 ], [ 115.2134667, -33.9427396 ], [ 115.2134708, -33.9427972 ], [ 115.2135054, -33.9427955 ], [ 115.2135034, -33.9427667 ], [ 115.2135379, -33.942765 ] ] ], [ [ [ 115.2140734, -33.9429697 ], [ 115.2141417, -33.9429663 ], [ 115.2141397, -33.9429375 ], [ 115.2143816, -33.9429256 ], [ 115.2143795, -33.9428968 ], [ 115.2144141, -33.9428951 ], [ 115.21441, -33.9428375 ], [ 115.2144446, -33.9428358 ], [ 115.2144425, -33.942807 ], [ 115.2145116, -33.9428035 ], [ 115.2145096, -33.9427747 ], [ 115.2145441, -33.942773 ], [ 115.2145421, -33.9427442 ], [ 115.2145075, -33.9427459 ], [ 115.2145055, -33.9427171 ], [ 115.2144709, -33.9427189 ], [ 115.214473, -33.9427477 ], [ 115.2144039, -33.9427511 ], [ 115.2144059, -33.9427799 ], [ 115.2141986, -33.9427901 ], [ 115.2142006, -33.9428189 ], [ 115.2141661, -33.9428206 ], [ 115.2141681, -33.9428494 ], [ 115.2141336, -33.9428511 ], [ 115.2141315, -33.9428223 ], [ 115.214097, -33.942824 ], [ 115.2140949, -33.9427952 ], [ 115.2139221, -33.9428038 ], [ 115.2139201, -33.942775 ], [ 115.2138164, -33.9427801 ], [ 115.2138246, -33.9428953 ], [ 115.2138592, -33.9428936 ], [ 115.2138612, -33.9429224 ], [ 115.2139303, -33.942919 ], [ 115.2139324, -33.9429478 ], [ 115.2140015, -33.9429444 ], [ 115.2140029, -33.9429647 ], [ 115.2140734, -33.9429697 ] ] ] ] } }
]
}
